Fecha hora inicio,Aeropuerto,Tipo Informe,Informe
2020-08- 18 00:00:00,SKRG,METAR,METAR SKRG 180000Z 04004KT 9999 FEW015 17/15 A3030 NOSIG=
2020-08- 18 00:00:00,SKPC,METAR,METAR SKPC 180000Z 00000KT 9999 FEW017 BKN070 27/25 A2977=
2020-08- 18 00:00:00,SKSP,METAR,METAR SKSP 180000Z 06006KT 9999 FEW016 BKN200 29/25 A2986=
2020-08- 18 00:00:00,SKUI,METAR,METAR SKUI 180000Z VRB02KT 9999 VCSH SCT015TCU OVC200 27/24 A2982 RMK TCU VCSH/N=
2020-08- 18 00:00:00,SKBO,METAR,METAR SKBO 180000Z VRB02KT 9999 FEW017 BKN080 13/12 A3032 NOSIG=
2020-08- 18 00:00:00,SKCL,METAR,METAR SKCL 180000Z 05004KT 9999 FEW030 BKN120 23/18 A2995 NOSIG=
2020-08- 18 00:00:00,SKPV,METAR,METAR SKPV 180000Z 05004KT 9999 FEW017 OVC200 28/25 A2988=
2020-08- 18 00:00:00,SKLT,METAR,METAR SKLT 180000Z VRB02KT 9999 FEW013 SCT100 24/24 A2981=
2020-08- 18 00:00:00,SKBQ,METAR,METAR SKBQ 180000Z VRB02KT 9999  SCT015 FEW020CB BKN070 24/24 A2985 NOSIG RMK LTNG CB/NE=
2020-08- 18 01:00:00,SKCL,METAR,METAR SKCL 180100Z 01006KT 9999 SCT030 BKN120 23/19 A2997 NOSIG=
2020-08- 18 01:00:00,SKSP,METAR,METAR SKSP 180100Z 06006KT 9999 FEW014 BKN200 28/25 A2989=
2020-08- 18 01:00:00,SKRG,METAR,METAR SKRG 180100Z VRB02KT 9999 FEW015 SCT080 16/15 A3030 NOSIG=
2020-08- 18 01:00:00,SKPC,METAR,METAR SKPC 180100Z 14004KT 9999 FEW017 BKN070 27/25 A2981 RMK LTNG/NW=
2020-08- 18 01:00:00,SKBO,METAR,METAR SKBO 180100Z VRB02KT 9999 SCT017 SCT080 13/12 A3032 NOSIG=
2020-08- 18 01:00:00,SKLT,METAR,METAR SKLT 180100Z 18004KT 9999 FEW013 SCT100 24/24 A2982=
2020-08- 18 01:00:00,SKBQ,METAR,METAR SKBQ 180100Z VRB02KT 9999  SCT015 BKN070 24/23 A2986 RERA NOSIG=
2020-08- 18 02:00:00,SKBQ,METAR,METAR SKBQ 180200Z 25003KT 9999 SCT015 BKN070 24/24 A2986 NOSIG=
2020-08- 18 02:00:00,SKCL,METAR,METAR SKCL 180200Z 01003KT 9999 FEW030 BKN120 23/18 A3000 NOSIG=
2020-08- 18 02:00:00,SKBO,METAR,METAR SKBO 180200Z VRB02KT 9999 SCT017 SCT070 12/11 A3035 NOSIG=
2020-08- 18 02:00:00,SKSP,METAR,METAR SKSP 180200Z 06006KT 040V100 9999 SCT014 SCT200 28/25 A2990=
2020-08- 18 02:00:00,SKLT,METAR,METAR SKLT 180200Z VRB02KT 9999 FEW013 SCT100 24/24 A2984=
2020-08- 18 02:00:00,SKPC,METAR,METAR SKPC 180200Z 00000KT 9999 FEW017 BKN070 27/25 A2982 RMK LTNG/NW=
2020-08- 18 02:00:00,SKRG,METAR,METAR SKRG 180200Z VRB02KT 9999 FEW015 SCT080 16/15 A3032 NOSIG=
2020-08- 18 03:00:00,SKBO,METAR,METAR SKBO 180300Z 35004KT 9999 FEW017 BKN070 12/11 A3037 NOSIG=
2020-08- 18 03:00:00,SKRG,METAR,METAR SKRG 180300Z VRB02KT 9999 FEW015 BKN080 15/14 A3033 NOSIG=
2020-08- 18 03:00:00,SKCL,METAR,METAR SKCL 180300Z 36003KT 9999 FEW030 BKN120 22/19 A3002 NOSIG=
2020-08- 18 03:00:00,SKSP,METAR,METAR SKSP 180300Z 05004KT 9999 FEW014 BKN200 28/25 A2991=
2020-08- 18 03:00:00,SKLT,METAR,METAR SKLT 180300Z 36003KT 9999 FEW013 SCT100 24/24 A2984=
2020-08- 18 03:00:00,SKBQ,METAR,METAR SKBQ 180300Z 22004KT 9999 SCT015 SCT070 24/24 A2988 NOSIG=
2020-08- 18 04:00:00,SKBQ,METAR,METAR SKBQ 180400Z 24003KT 9999 SCT015 24/24 A2986 NOSIG=
2020-08- 18 04:00:00,SKBO,METAR,METAR SKBO 180400Z VRB02KT 9999 FEW017 BKN070 11/10 A3037 NOSIG=
2020-08- 18 04:00:00,SKSP,METAR,METAR SKSP 180400Z 04006KT 020V080 9999 SCT014 BKN200 28/25 A2992=
2020-08- 18 04:00:00,SKLT,METAR,METAR SKLT 180400Z 02004KT 9999 SCT013 SCT100 24/24 A2984=
2020-08- 18 04:00:00,SKRG,METAR,METAR SKRG 180400Z VRB02KT 9999 FEW010 BKN080 15/15 A3034 NOSIG=
2020-08- 18 04:00:00,SKCL,METAR,METAR SKCL 180400Z 01003KT 9999 SCT030 BKN100 22/19 A3004 NOSIG=
2020-08- 18 05:00:00,SKRG,METAR,METAR SKRG 180500Z 00000KT 9999 SCT010 SCT080 16/15 A3033 NOSIG=
2020-08- 18 05:00:00,SKBQ,METAR,METAR SKBQ 180500Z 26003KT 210V310 9999 SCT015 25/24 A2984 NOSIG=
2020-08- 18 05:00:00,SKBO,METAR,METAR SKBO 180500Z VRB02KT 9999 FEW017 BKN070 10/09 A3035=
2020-08- 18 05:00:00,SKSP,METAR,METAR SKSP 180500Z 04006KT 020V080 9999 SCT014 BKN200 28/25 A2991=
2020-08- 18 05:00:00,SKCL,METAR,METAR SKCL 180500Z 05005KT 9999 SCT030 BKN100 22/19 A3003 NOSIG=
2020-08- 18 05:00:00,SKLT,METAR,METAR SKLT 180500Z VRB02KT 9999 SCT013 SCT100 24/24 A2984=
2020-08- 18 06:00:00,SKSP,METAR,METAR SKSP 180600Z 05006KT 9999 SCT014 SCT200 28/26 A2990=
2020-08- 18 06:00:00,SKBO,METAR,METAR SKBO 180600Z 29004KT 9999 FEW017 SCT070 10/09 A3033 NOSIG=
2020-08- 18 06:00:00,SKLT,METAR,METAR SKLT 180600Z 30003KT 9999 SCT013 SCT100 24/24 A2983=
2020-08- 18 06:00:00,SKRG,METAR,METAR SKRG 180600Z 00000KT 9999 FEW007 BKN080 16/15 A3030 NOSIG=
2020-08- 18 06:00:00,SKBQ,METAR,METAR SKBQ 180600Z 27003KT 230V330 9999  SCT015 26/25 A2984 NOSIG=
2020-08- 18 06:00:00,SKCL,METAR,METAR SKCL 180600Z 33007KT 9999 FEW030 BKN100 23/19 A3000 NOSIG=
2020-08- 18 07:00:00,SKCL,METAR,METAR SKCL 180700Z 36004KT 9999 FEW030 BKN100 21/18 A2999 NOSIG=
2020-08- 18 07:00:00,SKRG,METAR,METAR SKRG 180700Z 36003KT 9999 FEW007 BKN080 15/15 A3028 NOSIG=
2020-08- 18 07:00:00,SKLT,METAR,METAR SKLT 180700Z VRB02KT 9999 FEW013 SCT100 24/24 A2983=
2020-08- 18 07:00:00,SKSP,METAR,METAR SKSP 180700Z 05007KT 9999 SCT014 SCT200 28/26 A2988=
2020-08- 18 07:00:00,SKBQ,METAR,METAR SKBQ 180700Z 03007KT 9999 SCT015 26/25 A2982 NOSIG=
2020-08- 18 07:00:00,SKBO,METAR,METAR SKBO 180700Z VRB02KT 9999 FEW017 SCT070 10/10 A3032 NOSIG=
2020-08- 18 07:30:00,SKPC,SPECI,SPECI SKPC 180730Z 17004KT 2000 +TSRA SCT010CB BKN070 24/23 A2987 RMK AD BLW MNM MET=
2020-08- 18 08:00:00,SKBO,METAR,METAR SKBO 180800Z VRB02KT 9999 FEW017 SCT070 09/09 A3031 NOSIG=
2020-08- 18 08:00:00,SKCL,METAR,METAR SKCL 180800Z 07004KT 9999 SCT030 BKN100 21/18 A2999 NOSIG=
2020-08- 18 08:00:00,SKLT,METAR,METAR SKLT 180800Z VRB02KT 9999 FEW013 SCT100 24/24 A2981=
2020-08- 18 08:00:00,SKBQ,METAR,METAR SKBQ 180800Z 08003KT 050V110 9999 SCT015 25/25 A2980 NOSIG=
2020-08- 18 08:00:00,SKRG,METAR,METAR SKRG 180800Z VRB02KT 9999 FEW007 BKN080 14/14 A3028 NOSIG=
2020-08- 18 08:00:00,SKSP,METAR,METAR SKSP 180800Z 05006KT 9999 FEW014 SCT200 28/25 A2987=
2020-08- 18 09:00:00,SKSP,METAR,METAR SKSP 180900Z 04008KT 360V070 9999 FEW014 28/25 A2984=
2020-08- 18 09:00:00,SKBQ,METAR,METAR SKBQ 180900Z 08005KT 9999 BKN012 25/25 A2981 NOSIG=
2020-08- 18 09:00:00,SKRG,METAR,METAR SKRG 180900Z 34004KT 9999 SCT007 BKN080 15/14 A3028 NOSIG=
2020-08- 18 09:00:00,SKCL,METAR,METAR SKCL 180900Z VRB02KT 9999 FEW030 BKN100 21/18 A2999 NOSIG=
2020-08- 18 09:00:00,SKBO,METAR,METAR SKBO 180900Z VRB02KT 9999 FEW017 SCT070 08/08 A3031 NOSIG=
2020-08- 18 09:00:00,SKLT,METAR,METAR SKLT 180900Z 23003KT 9999 FEW013 SCT100 24/24 A2980=
2020-08- 18 10:00:00,SKSP,METAR,METAR SKSP 181000Z 04008KT 360V070 9999 FEW014 28/25 A2984=
2020-08- 18 10:00:00,SKBO,METAR,METAR SKBO 181000Z 02003KT 8000 1500NW PRFG FEW017 SCT070 08/08 A3032 BECMG 0500 FG=
2020-08- 18 10:00:00,SKLT,METAR,METAR SKLT 181000Z VRB02KT 9999 FEW010 SCT100 24/24 A2981=
2020-08- 18 10:00:00,SKRG,METAR,METAR SKRG 181000Z 16003KT 9999 SCT007 BKN080 15/14 A3027 NOSIG=
2020-08- 18 10:00:00,SKCL,METAR,METAR SKCL 181000Z 21003KT 9999 FEW030 BKN120 21/18 A2999 NOSIG=
2020-08- 18 10:00:00,SKBQ,METAR,METAR SKBQ 181000Z 06005KT 9999 BKN010 25/25 A2982 BECMG TL1030 FM1130 2000 BR=
2020-08- 18 10:30:00,SKRG,SPECI,SPECI SKRG 181030Z 00000KT 9999 SCT010 BKN080 15/14 A3027 NOSIG=
2020-08- 18 10:30:00,SKCL,SPECI,SPECI SKCL 181030Z VRB02KT 9999 FEW040 BKN120 20/18 A3000 REDZ NOSIG=
2020-08- 18 10:30:00,SKBO,SPECI,SPECI SKBO 181030Z VRB02KT 5000 BR FEW017 SCT070 08/07 A3032 NOSIG=
2020-08- 18 11:00:00,SKCC,METAR,METAR SKCC 181100Z VRB02KT 5000 -RA SCT010 BKN070 24/24 A2995=
2020-08- 18 11:00:00,SKUI,METAR,METAR SKUI 181100Z 00000KT 9999 SCT010 BKN080 24/24 A2985
2020-08- 18 11:00:00,SKBO,METAR,METAR SKBO 181100Z VRB02KT 8000 MIFG FEW017 BKN080 08/07 A3032 NOSIG=
2020-08- 18 11:00:00,SKPV,METAR,METAR SKPV 181100Z VRB02KT 9999 FEW017 27/25 A2985=
2020-08- 18 11:00:00,SKMD,METAR,METAR SKMD 181100Z 00000KT 9999 SCT018 SCT080 19/18 A3013 RMK HZ=
2020-08- 18 11:00:00,SKCL,METAR,METAR SKCL 181100Z 19004KT 9999 FEW040 BKN120 20/19 A3001 NOSIG=
2020-08- 18 11:00:00,SKCG,METAR,METAR SKCG 181100Z 28004KT 9999 -RA FEW013CB SCT014 BKN200 27/27 A2980 RMK CB/W=
2020-08- 18 11:00:00,SKVV,METAR,METAR SKVV 181100Z 00000KT 9999 FEW020 SCT200 21/19 A2989=
2020-08- 18 11:00:00,SKNV,METAR,METAR SKNV 181100Z VRB02KT 9999 FEW027 BKN090 22/21 A2992=
2020-08- 18 11:00:00,SKBQ,METAR,METAR SKBQ 181100Z 07003KT 9999 SCT012 25/24 A2982 NOSIG=
2020-08- 18 11:00:00,SKRG,METAR,METAR SKRG 181100Z 00000KT 9999 FEW010 SCT018 BKN080 15/14 A3028 NOSIG=
2020-08- 18 11:00:00,SKLT,METAR,METAR SKLT 181100Z 00000KT 9999 FEW015 SCT100 BKN200 24/24 A2982=
2020-08- 18 11:00:00,SKSP,METAR,METAR SKSP 181100Z 05008KT 9999 FEW014 28/25 A2984=
2020-08- 18 11:00:00,SKPC,METAR,METAR SKPC 181100Z 00000KT 8000 -DZ SCT010 BKN070 24/23 A2982=
2020-08- 18 11:00:00,SKLC,METAR,METAR SKLC 181100Z 00000KT 9999 FEW003 BKN018 25/24 A2983=
2020-08- 18 11:00:00,SKMR,METAR,METAR SKMR 181100Z 14004KT 9999 FEW013 SCT200 25/24 A2982=
2020-08- 18 11:00:00,SKPE,METAR,METAR SKPE 181100Z VRB02KT 8000 VCFG BKN010 SCT080 19/19 A3007=
2020-08- 18 11:00:00,SKBG,METAR,METAR SKBG 181100Z 18004KT 9999 2000S BCFG FEW010 BKN240 19/19 A3001=
2020-08- 18 11:14:00,SKCC,SPECI,SPECI SKCC 181114Z VRB02KT 8000 -RA SCT012 BKN070 24/24 A2996=
2020-08- 18 12:00:00,SKIP,METAR,METAR SKIP 181200Z 00000KT 9999 4000S BCFG SCT008 SCT080 08/08 A3039=
2020-08- 18 12:00:00,SKCL,METAR,METAR SKCL 181200Z 14004KT 8000 VCFG BKN040 20/19 A3003 REDZ NOSIG=
2020-08- 18 12:00:00,SKRG,METAR,METAR SKRG 181200Z 27003KT 9999 BKN012 15/14 A3030 NOSIG=
2020-08- 18 12:00:00,SKNV,METAR,METAR SKNV 181200Z 15003KT 120V190 9999 FEW027 BKN090 23/21 A2995=
2020-08- 18 12:00:00,SKPC,METAR,METAR SKPC 181200Z 18006KT 2000 DZ SCT010 BKN070 24/23 A2986=
2020-08- 18 12:00:00,SKSM,METAR,METAR SKSM 181200Z 03004KT 9999 FEW020 SCT100 BKN200 27/25 A////=
2020-08- 18 12:00:00,SKUI,METAR,METAR SKUI 181200Z 00000KT 5000 BR BKN007 24/24 A2987
2020-08- 18 12:00:00,SKLT,METAR,METAR SKLT 181200Z VRB02KT 9999 FEW015SCT100 BKN200 24/24 A2983=
2020-08- 18 12:00:00,SKLC,METAR,METAR SKLC 181200Z 16003KT 9999 FEW003 BKN018 25/25 A2985=
2020-08- 18 12:00:00,SKEJ,METAR,METAR SKEJ 181200Z VRB02KT 9999 FEW015 BKN200 25/24 A2985=
2020-08- 18 12:00:00,SKMR,METAR,METAR SKMR 181200Z VRB02KT 9999 FEW013 BKN200 26/25 A2983=
2020-08- 18 12:00:00,SKSP,METAR,METAR SKSP 181200Z 04008KT 030V090 9999 FEW016 SCT200 28/25 A2984=
2020-08- 18 12:00:00,SKPE,METAR,METAR SKPE 181200Z 23005KT 6000 TS SCT008 FEW012CB SCT080 19/19 A3009 RMK CB S/SW=
2020-08- 18 12:00:00,SKBQ,METAR,METAR SKBQ 181200Z 07004KT 040V100 9999 SCT012 SCT070 26/25 A2984 NOSIG=
2020-08- 18 12:00:00,SKBO,METAR,METAR SKBO 181200Z 03003KT 0500 R13L/P2000N FG FEW020 BKN070 09/09 A3033 BECMG 9000 HZ=
2020-08- 18 12:00:00,SKPV,METAR,METAR SKPV 181200Z VRB06KT 9999 FEW017 27/25 A2985=
2020-08- 18 12:00:00,SKCG,METAR,METAR SKCG 181200Z 17006KT 160V220 9999 VCSH SCT013CB SCT200 28/27 A2981 RMK CB VCSH/S/W=
2020-08- 18 12:00:00,SKBG,METAR,METAR SKBG 181200Z 18005KT 0200 FG VV001 19/19 A3000 RMK AD BLW MNM MET=
2020-08- 18 12:00:00,SKVV,METAR,METAR SKVV 181200Z 00000KT 9999 FEW020 SCT200 20/19 A2989=
2020-08- 18 12:00:00,SKCC,METAR,METAR SKCC 181200Z 29004KT 270V330 8000 VCFG SCT012 BKN070 24/24 A2998 RERA=
2020-08- 18 12:00:00,SKMD,METAR,METAR SKMD 181200Z 00000KT 9999 FEW020 BKN090 20/18 A3016=
2020-08- 18 12:13:00,SKBG,SPECI,SPECI SKBG 181213Z 18007KT 5000 BCFG SCT010 SCT240 19/19 A3001=
2020-08- 18 12:30:00,SKBO,SPECI,SPECI SKBO 181230Z VRB02KT 9000 1000NW BCFG FEW005 BKN070 10/10 A3034 NOSIG=
2020-08- 18 12:32:00,SKCC,SPECI,SPECI SKCC 181232Z 31004KT 8000 4000NW BCFG SCT012 BKN070 24/24 A2999=
2020-08- 18 13:00:00,SKMD,METAR,METAR SKMD 181300Z VRB02KT 9999 FEW020 BKN090 20/17 A3017=
2020-08- 18 13:00:00,SKSP,METAR,METAR SKSP 181300Z 05007KT 030V090 9999 FEW017 SCT200 29/25 A2987=
2020-08- 18 13:00:00,SKBO,METAR,METAR SKBO 181300Z 03004KT 8000 2000NW BCFG FEW005 BKN070 11/11 A3035 NOSIG=
2020-08- 18 13:00:00,SKAR,METAR,METAR SKAR 181300Z 33004KT 3000 BR BKN008 BKN025 19/19 A3012=
2020-08- 18 13:00:00,SKPS,METAR,METAR SKPS 181300Z 00000KT 2000 VCFG SCT015 OVC080 16/15 A3020=
2020-08- 18 13:00:00,SKMR,METAR,METAR SKMR 181300Z VRB02KT 9999 SCT015 BKN070 26/25 A2986=
2020-08- 18 13:00:00,SKPE,METAR,METAR SKPE 181300Z 12006KT 6000 -TSRA SCT007 FEW012CB SCT080 19/19 A3012 RMK CB E/SE=
2020-08- 18 13:00:00,SKPV,METAR,METAR SKPV 181300Z 07004KT 360V140 9999 FEW017 28/26 A2987=
2020-08- 18 13:00:00,SKLC,METAR,METAR SKLC 181300Z 19004KT 9999 FEW004 SCT018 BKN300 27/25 A2987=
2020-08- 18 13:00:00,SKCG,METAR,METAR SKCG 181300Z 19007KT 9999 FEW014CB SCT200 29/27 A2982 RMK CB/W=
2020-08- 18 13:00:00,SKLT,METAR,METAR SKLT 181300Z VRB02KT CAVOK 27/25 A2985=
2020-08- 18 13:00:00,SKCC,METAR,METAR SKCC 181300Z VRB02KT 8000 4000NW BR SCT012 BKN070 24/24 A2999=
2020-08- 18 13:00:00,SKEJ,METAR,METAR SKEJ 181300Z 25004KT 9999 SCT012 26/25 A2986=
2020-08- 18 13:00:00,SKVP,METAR,METAR SKVP 181300Z 21004KT 180V260 7000 VCFG SCT010 BKN070 25/25 A2995=
2020-08- 18 13:00:00,SKNV,METAR,METAR SKNV 181300Z 21003KT 180V240 9999 FEW024 BKN100 24/20 A2997=
2020-08- 18 13:00:00,SKRG,METAR,METAR SKRG 181300Z 23003KT 9999 SCT010 SCT080 17/16 A3032 NOSIG=
2020-08- 18 13:00:00,SKIP,METAR,METAR SKIP 181300Z 00000KT 9999 BKN015 SCT080 10/09 A3042=
2020-08- 18 13:00:00,SKBG,METAR,METAR SKBG 181300Z 18007KT 9999 FEW012 SCT240 21/21 A3001=
2020-08- 18 13:00:00,SKPC,METAR,METAR SKPC 181300Z 23005KT 6000 -TSRA SCT013 BKN070 24723 A2988 RMK CB/W=
2020-08- 18 13:00:00,SKUC,METAR,METAR SKUC 181300Z 09004KT 9000 VSCH BKN017  26/24 A2986 RNK VCSH/N=
2020-08- 18 13:00:00,SKCL,METAR,METAR SKCL 181300Z 00000KT 6000 FEW017 23/20 A3005 NOSIG RMK HZ=
2020-08- 18 13:00:00,SKUI,METAR,METAR SKUI 181300Z 16003KT 9999 SCT012 SCT080 25/24 A2988=
2020-08- 18 13:00:00,SKSM,METAR,METAR SKSM 181300Z 17004KT 9999 FEW020 BKN200 28/25 A2987=
2020-08- 18 13:00:00,SKVV,METAR,METAR SKVV 181300Z 00000KT 9999 SCT020 SCT090 22/18 A2991=
2020-08- 18 13:00:00,SKBQ,METAR,METAR SKBQ 181300Z 09004KT 9999 FEW015 SCT200 27/25 A2986 NOSIG=
2020-08- 18 13:25:00,SKPE,SPECI,SPECI SKPE 181325Z 09004KT 8000 VCSH SCT012 SCT080 19/18 A3012 RETSRA RMK VCSH N/NE=
2020-08- 18 14:00:00,SKPE,METAR,METAR SKPE 181400Z 13004KT 9999 MIFG SCT014 SCT080 21/20 A3010 RETSRA=
2020-08- 18 14:00:00,SKUI,METAR,METAR SKUI 181400Z 21005KT 9999 BKN015 27/24 A2989
2020-08- 18 14:00:00,SKEJ,METAR,METAR SKEJ 181400Z VRB02KT 9999 BKN010 26/25 A2988=
2020-08- 18 14:00:00,SKCC,METAR,METAR SKCC 181400Z 15004KT 120V190 8000 VCFG SCT015 BKN080 25/24 A2999=
2020-08- 18 14:00:00,SKIP,METAR,METAR SKIP 181400Z 00000KT 9999 BKN016 SCT080 11/09 A3044=
2020-08- 18 14:00:00,SKUC,METAR,METAR SKUC 181400Z 11004KT 8000 -DZ BKN015 SCT070 25/24 A2991=
2020-08- 18 14:00:00,SKCG,METAR,METAR SKCG 181400Z 17005KT 9999 SCT014CB SCT200 29/27 A2984 RMK CB/E/S/W=
2020-08- 18 14:00:00,SKPS,METAR,METAR SKPS 181400Z 00000KT 3000 BCFG SCT015 OVC080 16/16 A3021=
2020-08- 18 14:00:00,SKMD,METAR,METAR SKMD 181400Z 36003KT 8000 SCT025 BKN090 22/16 A3018  RMK HZ=
2020-08- 18 14:00:00,SKCL,METAR,METAR SKCL 181400Z 05003KT 360V100 8000 SCT017 25/21 A3005 NOSIG RMK HZ=
2020-08- 18 14:00:00,SKBG,METAR,METAR SKBG 181400Z 18004KT 9999 FEW012 BKN240 22/20 A3003=
2020-08- 18 14:00:00,SKSP,METAR,METAR SKSP 191400Z 06007KT 030V100 9999 FEW018 30/25 A2290=
2020-08- 18 14:00:00,SKLC,METAR,METAR SKLC 181400Z 18006KT 9999 SCT012 SCT080 28/25 A2989=
2020-08- 18 14:00:00,SKAR,METAR,METAR SKAR 181400Z 00000KT 6000 VCFG BKN010 20/19 A3010=
2020-08- 18 14:00:00,SKNV,METAR,METAR SKNV 181400Z 19004KT 120V250 9999 FEW025 SCT230 26/21 A2996=
2020-08- 18 14:00:00,SKLT,METAR,METAR SKLT 181400Z 08003KT CAVOK 29/27 A2985=
2020-08- 18 14:00:00,SKPV,METAR,METAR SKPV 181400Z 08004KT 010V140 9999 FEW017 SCT200 30/27 A2989=
2020-08- 18 14:00:00,SKBQ,METAR,METAR SKBQ 181400Z 11004KT 070V150 9999 FEW015 SCT200 28/25 A2987 NOSIG=
2020-08- 18 14:00:00,SKVV,METAR,METAR SKVV 181400Z 28004KT 9999 FEW020 SCT200 24/18 A2993=
2020-08- 18 14:00:00,SKBO,METAR,METAR SKBO 181400Z VRB02KT 8000 FEW010 SCT070 14/12 A3034 NOSIG RMK HZ=
2020-08- 18 14:00:00,SKRG,METAR,METAR SKRG 181400Z 20003KT 9999 BKN015TCU 18/15 A3032 NOSIG RMK TCU/E=
2020-08- 18 14:00:00,SKSM,METAR,METAR SKSM 181400Z 18005KT 9999 FEW020 BKN200 29/25 A2988=
2020-08- 18 14:00:00,SKPC,METAR,METAR SKPC 181400Z 13004KT 9999 SCT013 BKN070 25/23 A2990 RETSRA=
2020-08- 18 14:00:00,SKVP,METAR,METAR SKVP 181400Z 00000KT 9999 FEW015 BKN200 27/24 A2993=
2020-08- 18 14:00:00,SKMR,METAR,METAR SKMR 181400Z 19003KT 9999 SCT015 SCT070 27/25 A2987=
2020-08- 18 15:00:00,SKIP,METAR,METAR SKIP 181500Z 00000KT 9999 BKN016 12/09 A3044=
2020-08- 18 15:00:00,SKBQ,METAR,METAR SKBQ 181500Z 06003KT 9999 FEW018 SCT200 31/26 A2986 NOSIG=
2020-08- 18 15:00:00,SKUI,METAR,METAR SKUI 181500Z 19005KT 9999 BKN015 27/24 A2988=
2020-08- 18 15:00:00,SKCG,METAR,METAR SKCG 181500Z 24007KT 170V240 9999 BKN014CB 30/27 A2983 CB/S/W=
2020-08- 18 15:00:00,SKPS,METAR,METAR SKPS 181500Z 00000KT 9999 SCT020 BKN080 19/15 A3020=
2020-08- 18 15:00:00,SKBO,METAR,METAR SKBO 181500Z 30004KT 9999 FEW015 SCT200 17/11 A3034 NOSIG=
2020-08- 18 15:00:00,SKCC,METAR,METAR SKCC 181500Z 13003KT 100V170 9999 SCT020 BKN090 26/25 A2997=
2020-08- 18 15:00:00,SKMD,METAR,METAR SKMD 181500Z 08004KT 9999 SCT030 24/16 A3016=
2020-08- 18 15:00:00,SKVV,METAR,METAR SKVV 181500Z 00000KT 9999 FEW020 SCT200 26/17 A2994=
2020-08- 18 15:00:00,SKBG,METAR,METAR SKBG 181500Z 32003KT 9999 SCT012 SCT240 24/21 A3003=
2020-08- 18 15:00:00,SKMR,METAR,METAR SKMR 181500Z 26004KT 9999 SCT015 SCT200 30/26 A2987=
2020-08- 18 15:00:00,SKSP,METAR,METAR SKSP 181500Z 04008KT 9999 FEW017 SCT200 30/26 A2991=
2020-08- 18 15:00:00,SKRG,METAR,METAR SKRG 181500Z 36004KT 9999 SCT020 20/13 A3032 NOSIG=
2020-08- 18 15:00:00,SKCL,METAR,METAR SKCL 181500Z 08004KT 020V160 9000 SCT020 27/22 A3004 NOSIG RMK HZ=
2020-08- 18 15:00:00,SKPV,METAR,METAR SKPV 181600Z 08006KT 360V140 9999 FEW018 SCT200 31/27 A2992=
2020-08- 18 15:00:00,SKNV,METAR,METAR SKNV 181500Z VRB03KT 9999 FEW027 BKN230 28/21 A2995=
2020-08- 18 15:00:00,SKLT,METAR,METAR SKLT 181500Z 07003KT CAVOK 31/26 A2986=
2020-08- 18 15:00:00,SKUC,METAR,METAR SKUC 181500Z 08003KT 5000 -DZ BKN08 SCT015 23/22 A2994   =
2020-08- 18 15:00:00,SKSM,METAR,METAR SKSM 181500Z 21008KT 9999 FEW020 BKN200 29/26 A2988=
2020-08- 18 15:00:00,SKPC,METAR,METAR SKPC 181500Z VRB02KT 9999 VCSH FEW013 BKN070 26/24 A2990 RMK VCSH/NW=
2020-08- 18 15:00:00,SKAR,METAR,METAR SKAR 181500Z 00000KT 8000 VCFG BKN012 SCT090 22/20 A3011=
2020-08- 18 15:00:00,SKEJ,METAR,METAR SKEJ 181500Z 28003KT 9999 SCT015 SCT200 29/25 A2987=
2020-08- 18 15:00:00,SKPE,METAR,METAR SKPE 181500Z 31004KT 9999 SCT014 SCT080 23/20 A3010=
2020-08- 18 15:00:00,SKVP,METAR,METAR SKVP 181500Z 08005KT 9999 FEW015 SCT200 29/25 A2992=
2020-08- 18 15:00:00,SKLC,METAR,METAR SKLC 181500Z 15004KT 9999 SCT015 29/25 A2988=
2020-08- 18 16:00:00,SKEJ,METAR,METAR SKEJ 181600Z 23003KT 9999 SCT015 BKN200 29/24 A2986=
2020-08- 18 16:00:00,SKBO,METAR,METAR SKBO 181600Z 34005KT 9999 FEW020 BKN200 19/11 A3033 NOSIG=
2020-08- 18 16:00:00,SKUC,METAR,METAR SKUC 181700Z 00000KT 8000 -DZ BKN010 SCT100 23/22 A2991=
2020-08- 18 16:00:00,SKUI,METAR,METAR SKUI 181600Z 21005KT 9999 BKN018 29/24 A2988=
2020-08- 18 16:00:00,SKMR,METAR,METAR SKMR 181600Z 27003KT 9999 SCT015 BKN200 31/26 A2986=
2020-08- 18 16:00:00,SKLC,METAR,METAR SKLC 181600Z 21004KT 9999 SCT017 30/25 A2988=
2020-08- 18 16:00:00,SKRG,METAR,METAR SKRG 181600Z 10006KT 9999 SCT020 21/12 A3032 NOSIG=
2020-08- 18 16:00:00,SKCL,METAR,METAR SKCL 181600Z 06004KT 360V150 9000 BKN027 28/21 A3002 NOSIG RMK HZ=
2020-08- 18 16:00:00,SKBQ,METAR,METAR SKBQ 181600Z VRB02KT 9999 FEW018 SCT200 31/25 A2985 NOSIG=
2020-08- 18 16:00:00,SKCG,METAR,METAR SKCG 181600Z 23008KT 9999 RA SCT014CB SCT200 30/27 A2984 RMK CB/N/NE=
2020-08- 18 16:00:00,SKPC,METAR,METAR SKPC 181600Z 28009KT 9999 FEW015 BKN070 27/23 A2987=
2020-08- 18 16:00:00,SKCC,METAR,METAR SKCC 181600Z 12004KT 080V150 9999 SCT022 BKN090 27/24 A2996=
2020-08- 18 16:00:00,SKBG,METAR,METAR SKBG 181600Z 33004KT 9999 SCT012 BKN240 25/19 A3001=
2020-08- 18 16:00:00,SKMD,METAR,METAR SKMD 181600Z 13004KT 9999 SCT030 SCT200 25/14 A3015=
2020-08- 18 16:00:00,SKLT,METAR,METAR SKLT 181600Z 02005KT 9999 FEW015 BKN100 33/25 A2985=
2020-08- 18 16:00:00,SKPS,METAR,METAR SKPS 181600Z 02004KT 9999 FEW020 SCT080 21/15 A3018=
2020-08- 18 16:00:00,SKNV,METAR,METAR SKNV 181600Z VRB03KT 9999 FEW030 BKN230 30/20 A2992=
2020-08- 18 16:00:00,SKSP,METAR,METAR SKSP 181600Z 06008KT 030V090 9999 FEW017 SCT200 30/26 A2991=
2020-08- 18 16:00:00,SKSM,METAR,METAR SKSM 181600Z 25008KT 9999 FEW020 BKN200 33/26 A2987=
2020-08- 18 16:00:00,SKVP,METAR,METAR SKVP 181600Z 11006KT 070V140 9999 FEW015 SCT200 31/24 A2990=
2020-08- 18 16:00:00,SKAR,METAR,METAR SKAR 181600Z 20005KT 9999 BKN017 24/20 A3011=
2020-08- 18 16:00:00,SKIP,METAR,METAR SKIP 181600Z 00000KT 9999 BKN016 14/10 A3043=
2020-08- 18 16:00:00,SKPV,METAR,METAR SKPV 181600Z 07006KT 030V160 9999 FEW017 SCT200 31/27 A2993=
2020-08- 18 16:00:00,SKPE,METAR,METAR SKPE 181600Z 24004KT 9999 SCT014 SCT080 24/21 A3009=
2020-08- 18 16:00:00,SKVV,METAR,METAR SKVV 181600Z 00000KT 9999 FEW020 SCT200 28/18 A2995=
2020-08- 18 17:00:00,SKBQ,METAR,METAR SKBQ 181700Z 19004KT 160V220 9999 SCT020 SCT200 32/25 A2985 NOSIG=
2020-08- 18 17:00:00,SKNV,METAR,METAR SKNV 181700Z VRB03KT 9999 FEW035 BKN230 32/20 A2989=
2020-08- 18 17:00:00,SKBO,METAR,METAR SKBO 181700Z 34004KT 9999 SCT020 SCT200 19/10 A3031 NOSIG=
2020-08- 18 17:00:00,SKPE,METAR,METAR SKPE 181700Z 33008KT 9999 SCT014 SCT080 25/21 A3008=
2020-08- 18 17:00:00,SKPC,METAR,METAR SKPC 181700Z 23004KT 9999 FEW015 BKN070 28/23 A2985=
2020-08- 18 17:00:00,SKEJ,METAR,METAR SKEJ 181700Z 00000KT 9999 FEW015 OVC200 30/23 A2984=
2020-08- 18 17:00:00,SKSP,METAR,METAR SKSP 181700Z 06009KT 020V120 99999 FEW017 SCT100 BKN200 30/26 A2991=
2020-08- 18 17:00:00,SKIB,METAR,METAR SKIB 181700Z 18003KT 9999 SCT030 SCT200 26/23 A3008=
2020-08- 18 17:00:00,SKIP,METAR,METAR SKIP 181700Z 00000KT 9999 BKN018 15/10 A3041=
2020-08- 18 17:00:00,SKVP,METAR,METAR SKVP 181700Z 12004KT 9999 FEW020 SCT200 33/24 A2988=
2020-08- 18 17:00:00,SKCC,METAR,METAR SKCC 181700Z VRB02KT 9999 SCT023 BKN090 29/24 A2994=
2020-08- 18 17:00:00,SKLT,METAR,METAR SKLT 181700Z 02006KT 9999 FEW017 BKN100 33/25 A2984=
2020-08- 18 17:00:00,SKPV,METAR,METAR SKPV 181700Z 08004KT 020V140 9999 FEW018 BKN200 31/27 A2991=
2020-08- 18 17:00:00,SKAR,METAR,METAR SKAR 181700Z 27003KT 9999 BKN020 25/19 A3009=
2020-08- 18 17:00:00,SKUI,METAR,METAR SKUI 181700Z 23007KT 9999 BKN018 31/24 A2987
2020-08- 18 17:00:00,SKPS,METAR,METAR SKPS 181700Z 33005KT 9999 FEW020 SCT080 21/16 A3016=
2020-08- 18 17:00:00,SKCL,METAR,METAR SKCL 181700Z 01004KT 300V080 9999 SCT027TCU SCT100 28/20 A3001 NOSIG RMK TCU W/NW=
2020-08- 18 17:00:00,SKMD,METAR,METAR SKMD 181700Z 03006KT 9999 SCT035 SCT200 27/16 A3013=
2020-08- 18 17:00:00,SKMR,METAR,METAR SKMR 181700Z 24003KT 9999 FEW020 BKN200 31/26 A2984=
2020-08- 18 17:00:00,SKVV,METAR,METAR SKVV 181700Z 14006KT 9999 SCT020 SCT200 30/18 A2995=
2020-08- 18 17:00:00,SKSM,METAR,METAR SKSM 181700Z 24009KT 9999 BKN020 BKN200 33/27 A2988=
2020-08- 18 17:00:00,SKBG,METAR,METAR SKBG 181700Z 32005KT 9999 SCT012 BKN240 25/19 A3000=
2020-08- 18 17:00:00,SKCG,METAR,METAR SKCG 181700Z 21008KT 180V250 9999 BKN015 31/27 A2983 RERA=
2020-08- 18 17:00:00,SKRG,METAR,METAR SKRG 181700Z 10010KT 9999 SCT020 23/12 A3030 NOSIG=
2020-08- 18 17:00:00,SKLC,METAR,METAR SKLC 181700Z VRB02KT 9999 SCT020 30/25 A2985=
2020-08- 18 18:00:00,SKAR,METAR,METAR SKAR 181800Z 18004KT 9999 FEW020TCU BKN025 25/20 A3006 RMK TCU/NE=
2020-08- 18 18:00:00,SKSP,METAR,METAR SKSP 181800Z 07007KT 010V110 9999 FEW018 BKN200 30/25 A2990=
2020-08- 18 18:00:00,SKSM,METAR,METAR SKSM 181800Z 27004KT 9999 SCT020 SCT100 BKN200 33/26 A2985=
2020-08- 18 18:00:00,SKPV,METAR,METAR SKPV 181800Z 08004KT 340V140 9999 FEW018 OVC200 32/27 A2990=
2020-08- 18 18:00:00,SKLC,METAR,METAR SKLC 181800Z 18004KT 9999 SCT020 32/25 A2983=
2020-08- 18 18:00:00,SKPS,METAR,METAR SKPS 181800Z 34007KT 9999 SCT020 SCT080 23/15 A3014=
2020-08- 18 18:00:00,SKBG,METAR,METAR SKBG 181800Z 31006KT 9999 SCT010 SCT070 24/19 A2998=
2020-08- 18 18:00:00,SKCC,METAR,METAR SKCC 181800Z 33005KT 300V020 9999 SCT023 BKN090 30/23 A2991=
2020-08- 18 18:00:00,SKMD,METAR,METAR SKMD 181800Z 02010KT 9999 SCT035TCU SCT200 28/15 A3008 RMK TCU/E/SE=
2020-08- 18 18:00:00,SKBO,METAR,METAR SKBO 181800Z 27014KT 9999 BKN020 19/13 A3028 NOSIG=
2020-08- 18 18:00:00,SKIP,METAR,METAR SKIP 181800Z 12006KT 9999 BKN018 15/10 A3039=
2020-08- 18 18:00:00,SKIB,METAR,METAR SKIB 181800Z 09004KT 9999 BKN030 SCT200 28/23 A3005=
2020-08- 18 18:00:00,SKMR,METAR,METAR SKMR 181800Z 23004KT 9999 FEW020 BKN200 31/25 A2982=
2020-08- 18 18:00:00,SKCL,METAR,METAR SKCL 181800Z 29006KT 250V340 9999 -RA BKN027 27/19 A2998 NOSIG=
2020-08- 18 18:00:00,SKRG,METAR,METAR
2020-08- 18 18:00:00,SKVP,METAR,METAR SKVP 181800Z 15007KT 9999 FEW020TCU BKN200 33/23 A2986 RMK TCU/NE/E=
2020-08- 18 18:00:00,SKUC,METAR,METAR SKUC 181800Z 27004KT 9000 -DZ BKN008 SCT100 23/23 A2986=
2020-08- 18 18:00:00,SKEJ,METAR,METAR SKEJ 181800Z 19004KT 9999 FEW017 BKN200 31/23 A2981=
2020-08- 18 18:00:00,SKPE,METAR,METAR SKPE 181800Z 33006KT 9999 VCSH SCT014TCU SCT080 25/21 A3006 RMK TCU VCSH E/SE=
2020-08- 18 18:00:00,SKLT,METAR,METAR SKLT 181800Z 11003KT 060V180 9999 SCT017 SCT100 33/26 A2981=
2020-08- 18 18:00:00,SKPC,METAR,METAR SKPC 181800Z VRB02KT 9999 -RA SCT017 SCT070 28/23 A2981 =
2020-08- 18 18:00:00,SKBQ,METAR,METAR SKBQ 181800Z 18005KT 130V220 9999 VCSH SCT020TCU SCT200 33/27 A2982 NOSIG RMK TCU/VCSH/N=
2020-08- 18 18:00:00,SKUI,METAR,METAR SKUI 181800Z 18006KT 9999 BKN020 30/24 A2984=
2020-08- 18 18:00:00,SKVV,METAR,METAR SKVV 181800Z 181800Z 09008KT 9999 SCT020 SCT200 29/19 A2992=
2020-08- 18 18:00:00,SKNV,METAR,METAR SKNV 181800Z 02006KT 330V110 9999 FEW040 BKN230 34/19 A2985=
2020-08- 18 18:00:00,SKCG,METAR,METAR SKCG 181800Z 20011KT 7000 VCSH FEW015CB SCT016 SCT200 31/27 A2981 RMK CB/N/NW=
2020-08- 18 19:00:00,SKBG,METAR,METAR SKBG 181900Z 32006KT 9999 SCT010 BKN020 23/20 A2996=
2020-08- 18 19:00:00,SKAR,METAR,METAR SKAR 181900Z 30003KT 9999 BKN025 28/19 A3002=
2020-08- 18 19:00:00,SKPE,METAR,METAR SKPE 181900Z 09011KT 8000 -RA SCT014TCU BKN080 22/21 A3003 RMK TCU NE/E/SE=
2020-08- 18 19:00:00,SKSP,METAR,METAR SKSP 181900Z 06006KT 010V070 9999 FEW018 BKN200 31/26 A2988=
2020-08- 18 19:00:00,SKLT,METAR,METAR SKLT 181900Z 04004KT 350V110 9999 SCT017 SCT200 34/25 A2978=
2020-08- 18 19:00:00,SKCG,METAR,METAR SKCG 181900Z 21009KT 190V270 9999 FEW015CB SCT200 32/26 A2979 RMK CB/NE=
2020-08- 18 19:00:00,SKEJ,METAR,METAR SKEJ 181900Z 35003KT 9999 FEW017 OVC200 31/23 A2977=
2020-08- 18 19:00:00,SKCC,METAR,METAR SKCC 181900Z 35003KT 260V030 9999 SCT023 SCT090 30/22 A2987=
2020-08- 18 19:00:00,SKMD,METAR,METAR SKMD 181900Z 36008KT 9999 SCT035TCU SCT200 27/14 A3005 RMK TCU/E/SE=
2020-08- 18 19:00:00,SKNV,METAR,METAR SKNV 181900Z VRB05KT 9999 VCSH SCT040 BKN120 35/17 A2980 RMK VCSH/E/SE=
2020-08- 18 19:00:00,SKMR,METAR,METAR SKMR 181900Z 31006KT 9999 SCT017 BKN200 31/25 A2979=
2020-08- 18 19:00:00,SKRG,METAR,METAR SKRG 181900Z 08010KT 9999 SCT020TCU BKN200 24/11 A3023 NOSIG RMK TCU/SW/NW=
2020-08- 18 19:00:00,SKIB,METAR,METAR SKIB 181900Z 12006KT 9999 BKN030 SCT200 29/22 A3002=
2020-08- 18 19:00:00,SKPC,METAR,METAR SKPC 181900Z VRB02KT 9999 SCT017 SCT070 28/22 A2977 RERA =
2020-08- 18 19:00:00,SKCL,METAR,METAR SKCL 181900Z 32004KT 290V010 9999 SCT027TCU SCT060 28/21 A2994 NOSIG RMK TCU/E=
2020-08- 18 19:00:00,SKPV,METAR,METAR SKPV 181900Z VRB02KT 9999 FEW018 BKN200 31/26 A2989=
2020-08- 18 19:00:00,SKLC,METAR,METAR SKLC 181900Z 16005KT 9999 SCT020 32/24 A2979=
2020-08- 18 19:00:00,SKIP,METAR,METAR SKIP 181900Z 08007KT 9999 BKN018 17/10 A3036=
2020-08- 18 19:00:00,SKUI,METAR,METAR SKUI 181900Z 23010KT 9999 VCSH BKN020 31/24 A2980 RMK VCSH SE/W
2020-08- 18 19:00:00,SKBQ,METAR,METAR SKBQ 181900Z 23004KT 9999 SCT020 SCT200 33/26 A2979 NOSIG=
2020-08- 18 19:00:00,SKSM,METAR,METAR SKSM 181900Z 36006KT 9999 SCT020 BKN200 32/26 A2982=
2020-08- 18 19:00:00,SKVV,METAR,METAR SKVV 181900Z 17004KT 9999 FEW020 SCT200 30/18 A2988=
2020-08- 18 19:00:00,SKBO,METAR,METAR SKBO 181900Z 26013KT 9000 BKN020 17/12 A3027 NOSIG RMK HZ=
2020-08- 18 19:00:00,SKVP,METAR,METAR SKVP 181900Z 13005KT 100V170 9999 FEW020TCU BKN200 32/23 A2984 RMK TCU/NE/E=
2020-08- 18 19:00:00,SKPS,METAR,METAR SKPS 181900Z 36006KT 9999 BKN020 23/15 A3012=
2020-08- 18 20:00:00,SKUI,METAR,METAR SKUI 182000Z 26011KT 9999 VCSH BKN020 30/24 A2979 RMK VCSH N/W
2020-08- 18 20:00:00,SKMR,METAR,METAR SKMR 182000Z 28005KT 9999 FEW017 BKN200 31/25 A2977=
2020-08- 18 20:00:00,SKVP,METAR,METAR SKVP 182000Z 22009KT 9999 FEW020 SCT200 32/24 A2983=
2020-08- 18 20:00:00,SKNV,METAR,METAR SKNV 182000Z 10008KT 040V150 9999 FEW045 BKN120 33/18 A2978=
2020-08- 18 20:00:00,SKCG,METAR,METAR SKCG 182000Z 24008KT 230V300 9999 VCSH FEW015CB BKN200 31/26 A2976 RMK CB/E=
2020-08- 18 20:00:00,SKBO,METAR,METAR SKBO 182000Z 28012KT 9000 VCSH BKN020 17/12 A3026 NOSIG RMK VCSH/SE=
2020-08- 18 20:00:00,SKPC,METAR,METAR SKPC 182000Z VRB02KT 9999 FEW017 SCT070 29/22 A2976 =
2020-08- 18 20:00:00,SKCC,METAR,METAR SKCC 182000Z 18006KT 140V210 9999 SCT023 SCT090 31/21 A2984=
2020-08- 18 20:00:00,SKPE,METAR,METAR SKPE 182000Z 08008KT 9000 -DZ FEW014TCU BKN080 22/21 A3000 RMK TCU NE/E=
2020-08- 18 20:00:00,SKEJ,METAR,METAR SKEJ 182000Z VRB02KT 9999 FEW020 OVC200 32/21 A2974=
2020-08- 18 20:00:00,SKLC,METAR,METAR SKLC 182000Z 23005KT 9999 SCT020 SCT090 32/24 A2977=
2020-08- 18 20:00:00,SKCL,METAR,METAR SKCL 182000Z 33011KT 7000 VCSH SCT027TCU SCT080 28/19 A2993 NOSIG RMK TCU/VCSH E=
2020-08- 18 20:00:00,SKRG,METAR,METAR SKRG 182000Z 05010KT 9999 SCT020TCU BKN200 23/13 A3022 NOSIG RMK TCU/SW/NW=
2020-08- 18 20:00:00,SKLT,METAR,METAR SKLT 182000Z 36003KT 300V040 9999 SCT017 SCT200 34/25 A2975=
2020-08- 18 20:00:00,SKMD,METAR,METAR SKMD 182000Z 02006KT 9999 SCT035TCU BKN200 28/14 A3003 RMK TCU/NE/SW=
2020-08- 18 20:00:00,SKUC,METAR,METAR SKUC 182000Z VRB02KT 9000  VCSH BKN009 SCT100 24/23 A2981 REDZ RMK VCSH/N=
2020-08- 18 20:00:00,SKIB,METAR,METAR SKIB 182000Z 05005KT 9999 BKN030 SCT200 28/22 A2999=
2020-08- 18 20:00:00,SKSM,METAR,METAR SKSM 182000Z 33005KT 9999 FEW020 BKN100 32/25 A2980=
2020-08- 18 20:00:00,SKSP,METAR,METAR SKSP 182000Z 03007KT 310V110 9999 SCT016 BKN200 31/26 A2986=
2020-08- 18 20:00:00,SKBG,METAR,METAR SKBG 182000Z 35004KT 9999 SCT010 BKN020 24/20 A2994=
2020-08- 18 20:00:00,SKVV,METAR,METAR SKVV 182000Z 11004KT 9999 FEW020 SCT200 30/18 A2985=
2020-08- 18 20:00:00,SKPV,METAR,METAR SKPV 182000Z VRB04KT 9999 FEW018 BKN200 31/26 A2987=
2020-08- 18 20:00:00,SKBQ,METAR,METAR SKBQ 182000Z 25003KT 9999 VCSH SCT020TCU SCT200 33/25 A2976 NOSIG RMK TCU/SW VCSH/E/SW=
2020-08- 18 21:00:00,SKBO,METAR,METAR SKBO 182100Z 26008KT 9000 VCSH BKN020 17/12 A3025 NOSIG RMK VCSH/SE=
2020-08- 18 21:00:00,SKVV,METAR,METAR SKVV 182100Z 06004KT 9999 FEW020 SCT200 30/18 A2984=
2020-08- 18 21:00:00,SKCC,METAR,METAR SKCC 182100Z 16005KT 9999 FEW023 SCT090 30/20 A2982=
2020-08- 18 21:00:00,SKBQ,METAR,METAR SKBQ 182100Z 06007KT 020V090 9999 +RA SCT015 BKN200 30/26 A2976 BECMG FM2130 -RA=
2020-08- 18 21:00:00,SKPV,METAR,METAR SKPV 182100Z 34008KT 9999 FEW017TCU BKN200 29/26 A2985=
2020-08- 18 21:00:00,SKRG,METAR,METAR SKRG 182100Z 07010KT 9999 SCT020TCU BKN200 23/14 A3021 NOSIG RMK TCU/S/W=
2020-08- 18 21:00:00,SKMR,METAR,METAR SKMR 182100Z 29003KT 9999 FEW017 BKN200 31/25 A2976=
2020-08- 18 21:00:00,SKPC,METAR,METAR SKPC 182100Z 03005KT 9999 FEW017 SCT070 29/22 A2976 =
2020-08- 18 21:00:00,SKUC,METAR,METAR SKUC 182100Z VRB02KT 9999  BKN020 SCT200 24/23 A2980   =
2020-08- 18 21:00:00,SKPE,METAR,METAR SKPE 182100Z 12006KT 9999 VCSH FEW014TCU SCT080 23/21 A2999 REDZ RMK TCU VCSH NE/E=
2020-08- 18 21:00:00,SKNV,METAR,METAR SKNV 182100Z 10005KT 040V130 9999 FEW045 BKN120 33/18 A2978=
2020-08- 18 21:00:00,SKMD,METAR,METAR SKMD 182100Z 01012KT 9999 SCT030TCU BKN200 27/16 A3001 RMK TCU/E/SE=
2020-08- 18 21:00:00,SKCL,METAR,METAR SKCL 182100Z 01010KT 8000 VCSH SCT027 BKN080 27/19 A2993 NOSIG RMK VCSH NE/E/SE=
2020-08- 18 21:00:00,SKBG,METAR,METAR SKBG 182100Z 33003KT 9999 SCT010 BKN070 24/19 A2992=
2020-08- 18 21:00:00,SKUI,METAR,METAR SKUI 182100Z 24012KT 9999 BKN020 30/25 A2978
2020-08- 18 21:00:00,SKSP,METAR,METAR SKSP 182100Z VRB02KT 9999 SCT012 SCT200 27/26 A2985 RERA RMK VCSH/W/SW=
2020-08- 18 21:00:00,SKCG,METAR,METAR SKCG 182100Z 27007KT 230V300 9999 FEW015 BKN200 30/26 A2976=
2020-08- 18 21:00:00,SKLC,METAR,METAR SKLC 182100Z 21005KT 9999 SCT020 SCT090 32/24 A2975=
2020-08- 18 21:00:00,SKLT,METAR,METAR SKLT 182100Z VRB02KT 9999 SCT017TCU SCT200 34/26 A2974  RMK TCU/E=
2020-08- 18 21:00:00,SKIB,METAR,METAR SKIB 182100Z 08007KT 9999 BKN030 SCT200 28/22 A2997=
2020-08- 18 21:10:00,SKBQ,SPECI,SPECI SKBQ 182110Z 08005KT 9999 2000SW +RA SCT015CB BKN200 27/26 A2978 BECMG TSRA SCT012CB RMK CB/SE=
2020-08- 18 21:20:00,SKBQ,SPECI,SPECI SKBQ 182120Z 33004KT 9999 1500SW TSRA SCT015CB BKN200 26/25 A2976 BECMG TL2200 5000 -RA SCT015 SCT080 RMK CB/SE/SW=
2020-08- 18 22:00:00,SKNV,METAR,METAR SKNV 182200Z 36008KT 9999 FEW045 BKN120 33/19 A2978=
2020-08- 18 22:00:00,SKBO,METAR,METAR SKBO 182200Z 27007KT 9000 -DZ BKN020 SCT070 16/12 A3026 NOSIG=
2020-08- 18 22:00:00,SKSP,METAR,METAR SKSP 182200Z 02005KT 340V070 9999 FEW012 BKN080 26/25 A2985 RERA=
2020-08- 18 22:00:00,SKPE,METAR,METAR SKPE 182200Z 08008KT 9999 VCSH FEW014TCU SCT080 23/21 A3000 RMK TCU VCSH E/SW=
2020-08- 18 22:00:00,SKCL,METAR,METAR SKCL 182200Z 33013KT 8000 VCSH SCT025 BKN100 26/19 A2994 NOSIG RMK VCSH N/NE/SE=
2020-08- 18 22:00:00,SKVV,METAR,METAR SKVV 182200Z 08005KT 9999 SCT020 SCT090 28/19 A2985=
2020-08- 18 22:00:00,SKPC,METAR,METAR SKPC 182200Z 36008KT 9999 FEW017 SCT070 29/22 A2977 =
2020-08- 18 22:00:00,SKCG,METAR,METAR SKCG 182200Z 26004KT 240V320 9999 FEW015TCU BKN200 30/27 A2977 RMK TCU/E=
2020-08- 18 22:00:00,SKCC,METAR,METAR SKCC 182200Z 36010KT 340V040 9999 SCT020 SCT090 28/22 A2985=
2020-08- 18 22:00:00,SKRG,METAR,METAR SKRG 182200Z 08006KT 9999 VCSH SCT020TCU BKN200 20/14 A3022 NOSIG RMK TCU VCSH/SE=
2020-08- 18 22:00:00,SKIB,METAR,METAR SKIB 182200Z 11003KT 9999 BKN030 SCT100 27/22 A2999=
2020-08- 18 22:00:00,SKUI,METAR,METAR SKUI 182200Z 23010KT 9999 TS BKN015 FEW017 28/24 A2979 RMK CB E/SE
2020-08- 18 22:00:00,SKLC,METAR,METAR SKLC 182200Z 21007KT 9999 FEW017TCU SCT300 33/25 A2975 RMK TCU/SE=
2020-08- 18 22:00:00,SKLT,METAR,METAR SKLT 182200Z 15005KT 110V190 9999 VCSH SCT015CB BKN200 29/24 A2975 RMK VCSH/SE/W CB/W=
2020-08- 18 22:00:00,SKMD,METAR,METAR SKMD 182200Z 32010KT 9999 6000S VCSH SCT030TCU BKN200 24/17 A3003 RMK TCU VCSH/S/NW=
2020-08- 18 22:00:00,SKBQ,METAR,METAR SKBQ 182200Z 34005KT 9999 -DZ SCT015 SCT080 28/26 A2977 RETSRA BECMG FM2230 NSW=
2020-08- 18 22:00:00,SKBG,METAR,METAR SKBG 182200Z 33003KT 9999 SCT010 BKN070 23/20 A2993=
2020-08- 18 22:00:00,SKMR,METAR,METAR SKMR 182200Z 26003KT 9999 FEW020 BKN200 31/25 A2976=
2020-08- 18 22:00:00,SKPV,METAR,METAR SKPV 182200Z VRB02KT 9999 FEW017TCU BKN200 29/26 A2986 REDZ=
2020-08- 18 23:00:00,SKSP,METAR,METAR SKSP 182300Z 02005KT 9999 FEW012 OVC200 27/25 A2986=
2020-08- 18 23:00:00,SKBO,METAR,METAR SKBO 182300Z 25005KT 8000 -DZ BKN015 SCT070 16/13 A3028 NOSIG=
2020-08- 18 23:00:00,SKMR,METAR,METAR SKMR 182300Z 32005KT 9999 FEW020 BKN200 29/26 A2977=
2020-08- 18 23:00:00,SKCC,METAR,METAR SKCC 182300Z 36009KT 9999 SCT017 SCT090 27/23 A2987=
2020-08- 18 23:00:00,SKNV,METAR,METAR SKNV 182300Z 35005KT 9999 NSC 32/19 A2979=
2020-08- 18 23:00:00,SKCG,METAR,METAR SKCG 182300Z 32004KT 270V330 9999 FEW015CB BKN200 30/27 A2978 RMK CB/NE/S=
2020-08- 18 23:00:00,SKIB,METAR,METAR SKIB 182300Z 02003KT 9999 SCT030 BKN100 26/22 A3000=
2020-08- 18 23:00:00,SKRG,METAR,METAR SKRG 182300Z 09006KT 9999 SCT017TCU BKN200 18/15 A3024 NOSIG RMK TCU/S/W=
2020-08- 18 23:00:00,SKMD,METAR,METAR SKMD 182300Z 20008KT 9999 6000S VCSH FEW030TCU BKN200 22/18 A3006 RMK TCU VCSH/SW=
2020-08- 18 23:00:00,SKBQ,METAR,METAR SKBQ 182300Z 33004KT 280V020 9999 FEW015 BKN200 28/26 A2978 REDZ NOSIG=
2020-08- 18 23:00:00,SKLT,METAR,METAR SKLT 182300Z 31003KT 280V340 9999 FEW015 BKN200 27/25 A2975=
2020-08- 18 23:00:00,SKPV,METAR,METAR SKPV 182300Z VRB02KT 9999 FEW017 BKN200 28/26 A2986=
2020-08- 18 23:00:00,SKPE,METAR,METAR SKPE 182300Z 21010KT 9999 VCSH SCT014TCU SCT080 22/21 A3003 RMK  TCU VCSH SW/W=
2020-08- 18 23:00:00,SKUI,METAR,METAR SKUI 182300Z 23007KT 8000 TS VCSH BKN015 FEW017CB 27/24 A2981 RMK CB VCSH E/SE
2020-08- 18 23:00:00,SKVV,METAR,METAR SKVV 182300Z 11004KT 9999 SCT020 SCT090 27/20 A2987=
2020-08- 18 23:00:00,SKLC,METAR,METAR SKLC 182300Z 20003KT 9999 VCSH SCT017TCU BKN300 31/25 A2976 RMK TCU/NE/S VCSH/NE=
2020-08- 18 23:00:00,SKPC,METAR,METAR SKPC 182300Z VRB02KT 9999  FEW017 SCT070 29/23 A2978 =
2020-08- 18 23:00:00,SKCL,METAR,METAR SKCL 182300Z 02008KT 8000 VCSH BKN030 SCT100 24/19 A2996 REDZ NOSIG RMK VCSH/NE=
2020-08- 19 00:00:00,SKRG,METAR,METAR SKRG 190000Z VRB02KT 9999 SCT015 BKN200 17/16 A3027 NOSIG=
2020-08- 19 00:00:00,SKBQ,METAR,METAR SKBQ 190000Z 36005KT 330V030 9999 FEW015 BKN200 28/26 A2981 NOSIG=
2020-08- 19 00:00:00,SKPV,METAR,METAR SKPV 190000Z VRB02KT 9999 FEW017 BKN200 28/26 A2988=
2020-08- 19 00:00:00,SKCL,METAR,METAR SKCL 190000Z 36008KT 340V050 9999 SCT030 BKN100 23/19 A2999 NOSIG=
2020-08- 19 00:00:00,SKSP,METAR,METAR SKSP 190000Z 03004KT 020V100 9999 FEW013 SCT070 BKN200 27/25 A2987=
2020-08- 19 00:00:00,SKLT,METAR,METAR SKLT 190000Z 00000KT CAVOK 26/26 A2977=
2020-08- 19 00:00:00,SKBO,METAR,METAR SKBO 190000Z VRB02KT 9999 -DZ FEW015 BKN023 14/12 A3030 NOSIG=
2020-08- 19 01:00:00,SKBO,METAR,METAR SKBO 190100Z VRB02KT 7000 DZ FEW015 BKN023 14/12 A3033 TEMPO FM0230 9999=
2020-08- 19 01:00:00,SKSP,METAR,METAR SKSP 190100Z VRB02KT 9999 FEW013 BKN070 27/26 A2987=
2020-08- 19 01:00:00,SKLT,METAR,METAR SKLT 190100Z 00000KT CAVOK 25/25 A2978=
2020-08- 19 01:00:00,SKBQ,METAR,METAR SKBQ 190100Z 35006KT 9999 FEW015 SCT200 28/26 A2982 NOSIG=
2020-08- 19 01:00:00,SKCL,METAR,METAR SKCL 190100Z 36007KT 9999 SCT030 BKN100 23/19 A2999 NOSIG=
2020-08- 19 01:00:00,SKRG,METAR,METAR SKRG 190100Z VRB02KT 9999 SCT015 SCT200 17/16 A3027 NOSIG=
2020-08- 19 02:00:00,SKSP,METAR,METAR SKSP 190200Z 09004KT 020V120 9999 FEW013 BKN080 27/26 A2988=
2020-08- 19 02:00:00,SKBO,METAR,METAR SKBO 190200Z VRB02KT 8000 -DZ FEW003 BKN020 14/12 A3034 TEMPO FM0230 9999=
2020-08- 19 02:00:00,SKCL,METAR,METAR SKCL 190200Z 06005KT 9999 FEW030 BKN100 22/18 A3002 NOSIG=
2020-08- 19 02:00:00,SKBQ,METAR,METAR SKBQ 190200Z 01006KT 9999 FEW015 SCT200 28/26 A2985 NOSIG=
2020-08- 19 02:00:00,SKRG,METAR,METAR SKRG 190200Z VRB02KT 9999 BKN015 17/17 A3030 NOSIG RMK LTNG E=
2020-08- 19 02:00:00,SKLT,METAR,METAR SKLT 190200Z 00000KT CAVOK 25/25 A2980=
2020-08- 19 03:00:00,SKBQ,METAR,METAR SKBQ 190300Z 36008KT 9999 FEW015 SCT200 28/26 A2987 NOSIG=
2020-08- 19 03:00:00,SKLT,METAR,METAR SKLT 190300Z 00000KT CAVOK 25/25 A2980=
2020-08- 19 03:00:00,SKSP,METAR,METAR SKSP 190300Z 06004KT 020V100 9999 FEW016 BKN080 28/25 A2989=
2020-08- 19 03:00:00,SKRG,METAR,METAR SKRG 190300Z 23003KT 9999 BKN012 SCT080 16/16 A3032 NOSIG RMK LTNG SE=
2020-08- 19 03:00:00,SKCL,METAR,METAR SKCL 190300Z 36008KT 9999 FEW030 BKN100 22/19 A3005 NOSIG=
2020-08- 19 03:00:00,SKBO,METAR,METAR SKBO 190300Z 28003KT 8000 FEW010 OVC250 14/12 A3034 REDZ NOSIG RMK HZ=
2020-08- 19 04:00:00,SKCL,METAR,METAR SKCL 190400Z 03003KT 9999 SCT030 BKN100 22/19 A3006 NOSIG=
2020-08- 19 04:00:00,SKRG,METAR,METAR SKRG 190400Z VRB02KT 9999 -DZ BKN010 SCT080 16/16 A3035 NOSIG=
2020-08- 19 04:00:00,SKLT,METAR,METAR SKLT 190400Z 04003KT CAVOK 24/24 A2983=
2020-08- 19 04:00:00,SKSP,METAR,METAR SKSP 190400Z 04005KT 9999 FEW013 SCT200 28/25 A2989=
2020-08- 19 04:00:00,SKBO,METAR,METAR SKBO 190400Z VRB02KT 8000 FEW010 OVC250 13/11 A3035 NOSIG RMK HZ=
2020-08- 19 04:00:00,SKBQ,METAR,METAR SKBQ 190400Z 03012KT 9999 FEW015 SCT200 28/26 A2988 NOSIG=
2020-08- 19 05:00:00,SKBQ,METAR,METAR SKBQ 190500Z 35004KT 9999 FEW015 SCT200 27/25 A2985 NOSIG=
2020-08- 19 05:00:00,SKBO,METAR,METAR SKBO 190500Z 36003KT 9999 FEW017 BKN040 12/12 A3035 NOSIG=
2020-08- 19 05:00:00,SKCL,METAR,METAR SKCL 190500Z VRB02KT 9999 SCT030 BKN100 21/19 A3005 NOSIG=
2020-08- 19 05:00:00,SKSP,METAR,METAR SKSP 190500Z 05007KT 030V090 9999 FEW013 SC200 28/25 A2989=
2020-08- 19 05:00:00,SKLT,METAR,METAR SKLT 190500Z 03003KT CAVOK 25/25 A2982=
2020-08- 19 05:00:00,SKRG,METAR,METAR SKRG 190500Z VRB02KT 9999 VCSH BKN010 SCT080 16/16 A3030 REDZ NOSIG RMK VCSH SE/S=
2020-08- 19 06:00:00,SKCL,METAR,METAR SKCL 190600Z 00000KT 9999 FEW030 BKN100 21/19 A3003 NOSIG=
2020-08- 19 06:00:00,SKSP,METAR,METAR SKSP 190600Z 04008KT 9999 SCT013 SCT200 28/25 A2989=
2020-08- 19 06:00:00,SKBO,METAR,METAR SKBO 190600Z 00000KT 9999 FEW017 BKN040 13/12 A3032 NOSIG=
2020-08- 19 06:00:00,SKBQ,METAR,METAR SKBQ 190600Z 33004KT 300V010 9999 FEW015 SCT200 27/25 A2982 NOSIG=
2020-08- 19 06:00:00,SKLT,METAR,METAR SKLT 190600Z 00000KT CAVOK 24/24 A2980=
2020-08- 19 06:00:00,SKRG,METAR,METAR SKRG 190600Z VRB02KT 9999 OVC009 15/15 A3028 NOSIG=
2020-08- 19 07:00:00,SKLT,METAR,METAR SKLT 190700Z 00000KT CAVOK 24/24 A2978=
2020-08- 19 07:00:00,SKCL,METAR,METAR SKCL 190700Z VRB02KT 9999 FEW030 BKN100 21/19 A3001 NOSIG=
2020-08- 19 07:00:00,SKBQ,METAR,METAR SKBQ 190700Z VRB02KT 9999 FEW015 SCT200 27/25 A2979 NOSIG=
2020-08- 19 07:00:00,SKBO,METAR,METAR SKBO 190700Z 32003KT 9999 FEW015 BKN050 13/12 A3030 NOSIG=
2020-08- 19 07:00:00,SKRG,METAR,METAR SKRG 190700Z VRB02KT 8000 VCSH OVC008 15/15 A3026 REDZ NOSIG RMK VCSH N=
2020-08- 19 07:00:00,SKSP,METAR,METAR SKSP 190700Z 04009KT 030V090 9999 FEW015 BKN200 28/25 A2986=
2020-08- 19 08:00:00,SKLC,METAR,METAR SKLC 190800Z 17004KT 9999 SCT006 BKN080 24/23 A2988=
2020-08- 19 08:00:00,SKSP,METAR,METAR SKSP 190800Z 04008KT 9999 FEW015 BKN200 28/25 A2984=
2020-08- 19 08:00:00,SKCL,METAR,METAR SKCL 190800Z VRB02KT 9999 SCT030 BKN100 21/20 A2999 TEMPO DZ=
2020-08- 19 08:00:00,SKLT,METAR,METAR SKLT 190800Z 00000KT CAVOK 24/24 A2978=
2020-08- 19 08:00:00,SKBQ,METAR,METAR SKBQ 190800Z 35003KT 9999 FEW015 SCT200 27/25 A2976 NOSIG=
2020-08- 19 08:00:00,SKRG,METAR,METAR SKRG 190800Z VRB02KT 8000 VCSH BKN008 SCT080 15/15 A3026 NOSIG RMK VCSH N=
2020-08- 19 08:00:00,SKBO,METAR,METAR SKBO 190800Z VRB02KT 9999 FEW017 SCT100 11/11 A3028 NOSIG=
2020-08- 19 09:00:00,SKSP,METAR,METAR SKSP 190900Z 05007KT 9999 FEW015 BKN200 28/25 A2984=
2020-08- 19 09:00:00,SKBO,METAR,METAR SKBO 190900Z 33003KT 9999 FEW017 11/10 A3027 NOSIG=
2020-08- 19 09:00:00,SKBQ,METAR,METAR SKBQ 190900Z 36003KT 9999 FEW015 SCT200 26/25 A2976 NOSIG=
2020-08- 19 09:00:00,SKCL,METAR,METAR SKCL 190900Z VRB02KT 9999 SCT030 BKN100 21/19 A2999 TEMPO DZ=
2020-08- 19 09:00:00,SKLT,METAR,METAR SKLT 190900Z 00000KT CAVOK 24/24 A2978=
2020-08- 19 09:00:00,SKRG,METAR,METAR SKRG 190900Z 13003KT 7000 -DZ OVC008 15/15 A3025 NOSIG=
2020-08- 19 10:00:00,SKSP,METAR,METAR SKSP 191000Z 05005KT 030V090 9999 FEW015 BKN200 28/26 A2983=
2020-08- 19 10:00:00,SKBQ,METAR,METAR SKBQ 191000Z 04005KT 9999 SCT015 SCT200 26/25 A2978 BECMG TL1100 5000 BR=
2020-08- 19 10:00:00,SKLT,METAR,METAR SKLT 191000Z 00000KT CAVOK 24/24 A2979=
2020-08- 19 10:00:00,SKRG,METAR,METAR SKRG 191000Z 07004KT 6000 -DZ SCT007 OVC080 15/15 A3026 NOSIG=
2020-08- 19 10:00:00,SKCL,METAR,METAR SKCL 191000Z 06003KT 8000 -RA SCT025 BKN100 20/20 A3000 NOSIG=
2020-08- 19 10:00:00,SKBO,METAR,METAR SKBO 191000Z  00000KT 9999 MIFG FEW017 SCT023 11/11 A3028 NOSIG=
2020-08- 19 10:30:00,SKRG,SPECI,SPECI SKRG 191030Z 17003KT 4000 DZ SCT007 OVC080 15/15 A3027 NOSIG=
2020-08- 19 10:30:00,SKBO,SPECI,SPECI SKBO 191030Z  VRB02KT 9999 MIFG FEW017 BKN030 10/10 A3029 NOSIG=
2020-08- 19 10:30:00,SKCL,SPECI,SPECI SKCL 191030Z 08003KT 8000 -DZ SCT023 BKN100 20/19 A2999 RERA NOSIG=
2020-08- 19 11:00:00,SKUI,METAR,METAR SKUI 191100Z 13005KT 4000 -DZ OVC007 23/23 A2988
2020-08- 19 11:00:00,SKBG,METAR,METAR SKBG 191100Z 14003KT 9999 SCT015TCU SCT080 20/20 A2999 RMK TCU W/NW=
2020-08- 19 11:00:00,SKLC,METAR,METAR SKLC 191100Z 00000KT 9999 FEW006 OVC080 23/23 A2983=
2020-08- 19 11:00:00,SKLT,METAR,METAR SKLT 191100Z 00000KT CAVOK 24/24 A2980=
2020-08- 19 11:00:00,SKCC,METAR,METAR SKCC 191100Z VRB03KT 9999 SCT022 SCT00 24/21 A2989=
2020-08- 19 11:00:00,SKBO,METAR,METAR SKBO 191100Z  06003KT 9000 VCFG FEW015 BKN030 11/11 A3029 NOSIG=
2020-08- 19 11:00:00,SKCL,METAR,METAR SKCL 191100Z 09005KT 8000 DZ SCT023 BKN100 20/19 A3000 BECMG FM1200 NSW=
2020-08- 19 11:00:00,SKRG,METAR,METAR SKRG 191100Z VRB02KT 9999 4000S -DZ BKN007 OVC080 15/15 A3027 REDZ NOSIG=
2020-08- 19 11:00:00,SKMR,METAR,METAR SKMR 191100Z VRB02KT 9999 SCT015 BKN070 24/23 A2981=
2020-08- 19 11:00:00,SKSP,METAR,METAR SKSP 191100Z 04006KT 020V080 9999 FEW015 BKN200 27/25 A2984=
2020-08- 19 11:00:00,SKPV,METAR,SKPV 191100Z 05008KT 9999 SCT017 OVC200 27/26 A2985 =
2020-08- 19 11:00:00,SKVV,METAR,METAR SKVV 191100Z 30004KT 9999 SCT020 BKN090 23/22 A2990 =
2020-08- 19 11:00:00,SKMD,METAR,METAR SKMD 191100Z 19003KT 9999 -DZ SCT020 BKN080 19/18 A3012=
2020-08- 19 11:00:00,SKCG,METAR,METAR SKCG 191100Z 19004KT 9999 FEW014CB SCT200 27/26 A2979 RMK CB/S/NW=
2020-08- 19 11:00:00,SKPC,METAR,METAR SKPC 191100Z 00000KT 9999 FEW015 SCT070 25/24 A2985 =
2020-08- 19 11:00:00,SKPE,METAR,METAR SKPE 191100Z 18004KT 3000 DZ BR BKN005 BKN080 18/18 A3006=
2020-08- 19 11:00:00,SKNV,METAR,METAR SKNV 191100Z 00000KT 9999 FEW040 BKN090 25/20 A2987=
2020-08- 19 12:00:00,SKUI,METAR,METAR SKUI 191200Z 00000KT 3500 -DZ OVC006 23/23 A2990
2020-08- 19 12:00:00,SKIP,METAR,METAR SKIP 191200Z  00000KT 5000 -DZ SCT007 BKN016 10/10 A3039=
2020-08- 19 12:00:00,SKCL,METAR,METAR SKCL 191200Z VRB02KT 6000 -DZ FEW010 SCT025 OVC100 20/19 A3004 NOSIG=
2020-08- 19 12:00:00,SKNV,METAR,METAR SKNV 191200Z 00000KT 9999 VCSH FEW040 BKN090 25/20 A2990 RMK VCSH/NW=
2020-08- 19 12:00:00,SKPC,METAR,METAR SKPC 191200Z 03005KT 9999 FEW015 SCT070 26/24 A2983 =
2020-08- 19 12:00:00,SKRG,METAR,METAR SKRG 191200Z 24003KT 8000 -DZ BKN010 BKN080 15/14 A3028 BECMG AT1330 SCT010 SCT080=
2020-08- 19 12:00:00,SKCC,METAR,METAR SKCC 191200Z 21004KT 9999 FEW023 SCT090 25/22 A2990=
2020-08- 19 12:00:00,SKVV,METAR,METAR SKVV 191200Z VRB02KT 9999 SCT020 BKN090 24/22 A2992 =
2020-08- 19 12:00:00,SKLT,METAR,METAR SKLT 191200Z 00000KT CAVOK 25/25 A2983=
2020-08- 19 12:00:00,SKBQ,METAR,METAR SKBQ 191200Z 09004KT 5000 BR FEW015 BKN070 26/26 A2981 BECMG 7000 VCFG=
2020-08- 19 12:00:00,SKUC,METAR,METAR SKUC 191200Z 00000KT 9999 BKN020 24/24 A2988=
2020-08- 19 12:00:00,SKBO,METAR,METAR SKBO 191200Z 33004KT 9999 MIFG SCT017 SCT070 12/11 A3032 NOSIG=
2020-08- 19 12:00:00,SKMD,METAR,METAR SKMD 191200Z 17004KT 9999 FEW020 BKN090 19/18 A3013 REDZ=
2020-08- 19 12:00:00,SKSM,METAR,METAR SKSM 191200Z VRB02KT 9999 BKN030 27/25 A2984=
2020-08- 19 12:00:00,SKRH,METAR,METAR SKRH 191200Z 20004KT 9999 SCT010TCU 27/25 A2982 RMK TCU/W=
2020-08- 19 12:00:00,SKCG,METAR,METAR SKCG 191200Z 21013KT 9999 FEW014CB SCT015 SCT200 28/26 A2981 RMK CB/N=
2020-08- 19 12:00:00,SKPE,METAR,METAR SKPE 191200Z 16006KT 3000 RA BR BKN005 BKN080 18/18 A3009=
2020-08- 19 12:00:00,SKBG,METAR,METAR SKBG 191200Z 15004KT 9999 SCT017 SCT080 21/21 A2999=
2020-08- 19 12:00:00,SKMR,METAR,METAR SKMR 191200Z 04004KT 9999 FEW015 OVC100 25/23 A2984=
2020-08- 19 12:00:00,SKSP,METAR,METAR SKSP 191200Z 05005KT 020V080 9999 FEW015 BKN200 28/25 A2985=
2020-08- 19 12:30:00,SKPE,SPECI,SPECI SKPE 191230Z 15005KT 1000 -RA BR BKN005 BKN080 18/18 A3010=
2020-08- 19 12:35:00,SKCG,SPECI,SPECI SKCG 191235Z 22006KT 9999 RA BKN012 27/26 A2983=
2020-08- 19 13:00:00,SKSP,METAR,METAR SKSP 191300Z 05008KT 9999 FEW018 BKN200 29/25 A2986=
2020-08- 19 13:00:00,SKPC,METAR,METAR SKPC 191300Z 07003KT 9999 FEW015 SCT070 27/24 A2984 =
2020-08- 19 13:00:00,SKLT,METAR,METAR SKLT 191300Z VRB02KT CAVOK 27/26 A2984=
2020-08- 19 13:00:00,SKMD,METAR,METAR SKMD 191300Z 20004KT 9999 FEW020 SCT090 BKN200 20/18 A3016=
2020-08- 19 13:00:00,SKIP,METAR,METAR SKIP 191300Z  00000KT 9999 VCSH FEW007 BKN016 12/11 A3042 REDZ RMK VCSH/E=
2020-08- 19 13:00:00,SKPV,METAR,METAR SKPV 191300Z 08004KT 9999 FEW017 OVC200 29/27 A2987=
2020-08- 19 13:00:00,SKRG,METAR,METAR SKRG 191300Z VRB02KT 9999 FEW010 SCT018 BKN080 15/15 A3030 REDZ NOSIG=
2020-08- 19 13:00:00,SKBO,METAR,METAR SKBO 191300Z 04004KT 9999 FEW017 BKN070 13/12 A3035 NOSIG=
2020-08- 19 13:00:00,SKVV,METAR,METAR SKVV 191300Z 20004KT 9999 FEW020 BKN090 25/22 A2993 =
2020-08- 19 13:00:00,SKRH,METAR,METAR SKRH 191300Z 07004KT 9999 SCT010TCU 30/25 A2983 RMK TCU/NW=
2020-08- 19 13:00:00,SKUI,METAR,METAR SKUI 191300Z 14005KT 3000 DZ OVC005 23/23 A2993
2020-08- 19 13:00:00,SKPE,METAR,METAR SKPE 191300Z 16004KT 3000 -RA BR BKN006 BKN080 18/18 A3012=
2020-08- 19 13:00:00,SKSM,METAR,METAR SKSM 191300Z 00000KT 9999 BKN030 27/25 A2988=
2020-08- 19 13:00:00,SKBG,METAR,METAR SKBG 191300Z17004KT 9999 FEW020TCU 22/21 A3002 RMK TCU/NW=
2020-08- 19 13:00:00,SKBQ,METAR,METAR SKBQ 191300Z 10004KT 7000 VCFG FEW015 BKN070 27/26 A2984 BECMG FM1330 9999 NSW=
2020-08- 19 13:00:00,SKUC,METAR,METAR SKUC 191300Z 03003KT 9999 BKN020 25/24 A2990=
2020-08- 19 13:00:00,SKAR,METAR,METAR SKAR 191300Z 00000KT 4000 -DZ BR BKN008 OVC080 19/19 A3013=
2020-08- 19 13:00:00,SKMR,METAR,METAR SKMR 191300Z 00000KT 9999 -DZ SCT015 OVC100 25/24 A2985=
2020-08- 19 13:00:00,SKCC,METAR,METAR SKCC 191300Z 27003KT 9999 FEW023 SCT200 27/22 A2992=
2020-08- 19 13:00:00,SKCL,METAR,METAR SKCL 191300Z 06003KT 7000 VCSH FEW010 SCT020 OVC090 20/19 A3006 REDZ NOSIG=
2020-08- 19 13:00:00,SKPS,METAR,METAR SKPS 191300Z 00000KT 1000 -DZ FG OVC005 16/15 A3020=
2020-08- 19 13:00:00,SKCG,METAR,METAR SKCG 191300Z 21006KT 9999 DZ BKN012 27/27 A2983 RERA=
2020-08- 19 13:00:00,SKNV,METAR,METAR SKNV 191300Z 01006KT 9999 VCSH FEW040 BKN080 26/22 A2993 RMK VCSH/SW=
2020-08- 19 13:25:00,SKCG,SPECI,SPECI SKCG 191325Z 20004KT 9999 VCSH FEW014CB BKN200 28/26 A2982 REDZ RMK CB/N=
2020-08- 19 13:35:00,SKPE,SPECI,SPECI SKPE 191335Z 16004KT 4000 DZ BR BKN007 BKN080 18/18 A3014=
2020-08- 19 14:00:00,SKBG,METAR,METAR SKBG 191400Z 16005KT 9999 SCT017 24/19 A3002=
2020-08- 19 14:00:00,SKIP,METAR,METAR SKIP 191400Z  12003KT 9999 VCSH BKN016 13/11 A3042 RMK VCSH/NE=
2020-08- 19 14:00:00,SKCC,METAR,METAR SKCC 191400Z 02005KT 9999 FEW023 SCT200 29/22 A2993=
2020-08- 19 14:00:00,SKVV,METAR,METAR SKVV 191400Z VRB02KT 9999 FEW020 SCT090 27/22 A2995 =
2020-08- 19 14:00:00,SKPC,METAR,METAR SKPC 191400Z 04003KT 9999 FEW017 SCT070 28/23 A2986 =
2020-08- 19 14:00:00,SKUI,METAR,METAR SKUI 191400Z 13005KT 4000 DZ OVC007 23/23 A2993=
2020-08- 19 14:00:00,SKBQ,METAR,METAR SKBQ 191400Z 12004KT 080V170 9999 SCT015 29/26 A2984 NOSIG=
2020-08- 19 14:00:00,SKUC,METAR,METAR SKUC 191400Z 03003KT 9999 BKN020 26/25 A2992=
2020-08- 19 14:00:00,SKLT,METAR,METAR SKLT 191400Z 02003KT CAVOK 30/27 A2985=
2020-08- 19 14:00:00,SKMR,METAR,METAR SKMR 191400Z VRB02KT 9999 -DZ SCT015 OVC070 25/24 A2986=
2020-08- 19 14:00:00,SKPS,METAR,METAR SKPS 191400Z 00000KT 5000 2000S BCFG SCT010 BKN080 17/15 A3021 REDZ=
2020-08- 19 14:00:00,SKRH,METAR,METAR SKRH 191400Z 09004KT 9999 VCSH FEW010 BKN080 30/25 A2986 RMK VCSH/SE/S=
2020-08- 19 14:00:00,SKEJ,METAR,METAR SKEJ 191400Z 25003KT 9999 SCT015 SCT100 26/24 A2986=
2020-08- 19 14:00:00,SKSP,METAR,METAR SKSP 191400Z 06008KT 9999 FEW018 BKN200 30/26 A2987=
2020-08- 19 14:00:00,SKBO,METAR,METAR SKBO 191400Z 05004KT 9999 SCT020 SCT080 16/11 A3037 NOSIG=
2020-08- 19 14:00:00,SKPE,METAR,METAR SKPE 191400Z 13004KT 6000 -DZ VCFG BKN012 SCT080 19/19 A3014=
2020-08- 19 14:00:00,SKLC,METAR,METAR SKLC 191400Z 22008KT 9999 SCT010 BKN080 26/24 A2990=
2020-08- 19 14:00:00,SKPV,METAR,METAR SKPV 191400Z 35004KT 9999 FEW017 OVC200 30/27 A2987=
2020-08- 19 14:00:00,SKAR,METAR,METAR SKAR 191400Z 00000KT 6000 -DZ VCFG BKN008 OVC080 19/19 A3014=
2020-08- 19 14:00:00,SKRG,METAR,METAR SKRG 191400Z 16003KT 9999 FEW010 SCT018 BKN080 16/15 A3032 NOSIG=
2020-08- 19 14:00:00,SKCL,METAR,METAR SKCL 191400Z VRB02KT 9000 VCSH FEW010 SCT020 OVC090 21/19 A3007 NOSIG RMK VCSH NE/E/SE=
2020-08- 19 14:00:00,SKSM,METAR,METAR SKSM 191400Z 21005KT 9999 FEW020 SCT100 30/26 A2987=
2020-08- 19 14:00:00,SKCG,METAR,METAR SKCG 191400Z 18007KT 9999 FEW014CB BKN200 29/26 A2982 RMK CB/N=
2020-08- 19 14:00:00,SKNV,METAR,METAR SKNV 191400Z 32005KT 260V360 9999 SCT017 BKN090 26/22 A2995=
2020-08- 19 14:00:00,SKMD,METAR,METAR SKMD 191400Z 03004KT 9999 FEW020 SCT100 BKN200 21/17 A3017=
2020-08- 19 15:00:00,SKRG,METAR,METAR SKRG 191500Z VRB02KT 9999 FEW017 OVC090 17/15 A3033 NOSIG=
2020-08- 19 15:00:00,SKMD,METAR,METAR SKMD 191500Z 18006KT 9999 SCT025 BKN200 23/17 A3017=
2020-08- 19 15:00:00,SKNV,METAR,METAR SKNV 191500Z 24003KT 170V290 9999 FEW017 OVC080 27/22 A2996=
2020-08- 19 15:00:00,SKBG,METAR,METAR SKBG 191500Z 11004KT 9999 SCT017 25/19 A3001=
2020-08- 19 15:00:00,SKPV,METAR,METAR SKPV 191500Z 35004KT 9999 FEW018 OVC200 30/27 A2989=
2020-08- 19 15:00:00,SKLC,METAR,METAR SKLC 191500Z 19008KT 9999 SCT015 26/24 A2990=
2020-08- 19 15:00:00,SKPC,METAR,METAR SKPC 191500Z 32005KT 9999 FEW017 SCT070 29/23 A2986 =
2020-08- 19 15:00:00,SKUC,METAR,METAR SKUC 191500Z 06004KT 9999 BKN020 27/25 A2992=
2020-08- 19 15:00:00,SKPS,METAR,METAR SKPS 191500Z 00000KT 9999 SCT015 BKN080 19/16 A3021=
2020-08- 19 15:00:00,SKLT,METAR,METAR SKLT 191500Z 07005KT 9999 FEW020 32/27 A2985=
2020-08- 19 15:00:00,SKSM,METAR,METAR SKSM 191500Z VRB02KT 9999 SCT020 BKN070 30/25 A2989=
2020-08- 19 15:00:00,SKAR,METAR,METAR SKAR 191500Z 01004KT 7000 VCSH BKN010 OVC080 20/19 A3013 REDZ RMK VCSH/N/NE=
2020-08- 19 15:00:00,SKMR,METAR,METAR SKMR 191500Z 20005KT 9999 -DZ SCT015 OVC070 25/24 A2986=
2020-08- 19 15:00:00,SKBQ,METAR,METAR SKBQ 191500Z 18004KT 9999 SCT020 30/26 A2985 NOSIG=
2020-08- 19 15:00:00,SKRH,METAR,METAR SKRH 191500Z 09006KT 9999 8000 VCSH FEW010 BKN080 30/24 A2985 RMK VCSH/E/SE=
2020-08- 19 15:00:00,SKCL,METAR,METAR SKCL 191500Z VRB02KT 9999 VCSH SCT020 OVC090 21/20 A3009 NOSIG RMK VCSH N/E/SE=
2020-08- 19 15:00:00,SKPE,METAR,METAR SKPE 191500Z 17004KT 7000 VCFG BKN012 SCT080 19/18 A3014 REDZ=
2020-08- 19 15:00:00,SKSP,METAR,METAR SKSP 191500Z 07005KT 030V110 9999 FEW018 BKN200 30/25 A2989=
2020-08- 19 15:00:00,SKBO,METAR,METAR SKBO 191500Z 11006KT 9999 BKN020 16/10 A3037 NOSIG=
2020-08- 19 15:00:00,SKCG,METAR,METAR SKCG 191500Z 21005KT 9999 FEW014CB SCT200 30/25 A2984 RMK CB/NW=
2020-08- 19 15:00:00,SKEJ,METAR,METAR SKEJ 191400Z 25003KT 9999 SCT015 SCT100 26/24 A2986=
2020-08- 19 15:00:00,SKIP,METAR,METAR SKIP 191500Z  07008KT 9999 BKN018 15/11 A3043=
2020-08- 19 15:00:00,SKUI,METAR,METAR SKUI 191500Z 14005KT 7000 -DZ BKN010 OVC080 24/23 A2994
2020-08- 19 15:00:00,SKVV,METAR,METAR SKVV 191500Z 05004KT 9999 FEW020 BKN200 29/23 A2996 =
2020-08- 19 16:00:00,SKSP,METAR,METAR SKSP 191600Z 07007KT 010V090 9999 FEW018 BKN200 30/25 A2990=
2020-08- 19 16:00:00,SKNV,METAR,METAR SKNV 191600Z 28004KT 210V340 9999 VCSH FEW020 BKN100 29/21 A2995 RMK VCSH/E=
2020-08- 19 16:00:00,SKBG,METAR,METAR SKBG 191600Z 32006KT 9999 SCT015TCU 27/21 A3001 RMK TCU/NE=
2020-08- 19 16:00:00,SKPS,METAR,METAR SKPS 191600Z 34004KT 9999 SCT020 SCT080 20/17 A3019=
2020-08- 19 16:00:00,SKRG,METAR,METAR SKRG 191600Z 17005KT 9999 SCT017TCU SCT200 19/15 A3032 NOSIG RMK TCU/S/N=
2020-08- 19 16:00:00,SKVP,METAR,METAR SKVP 191600Z 04003KT 9999 FEW020 BKN100 29/24 A2993=
2020-08- 19 16:00:00,SKCL,METAR,METAR SKCL 191600Z VRB02KT 9999 VCSH SCT010 OVC090 22/19 A3008 NOSIG RMK VCSH S=
2020-08- 19 16:00:00,SKVV,METAR,METAR SKVV 191600Z 04004KT 9999 FEW020 30/23 A2995 =
2020-08- 19 16:00:00,SKIP,METAR,METAR SKIP 191600Z  10006KT 9999 BKN018 17/11 A3042=
2020-08- 19 16:00:00,SKUI,METAR,METAR SKUI 191600Z 18007KT 8000 VCSH BKN012 OVC080 25/23 A2992 RMK VCSH W/NW
2020-08- 19 16:00:00,SKPE,METAR,METAR SKPE 191600Z 25004KT 8000 VCFG BKN012 SCT080 21/20 A3013=
2020-08- 19 16:00:00,SKRH,METAR,METAR SKRH 191600Z 07006KT 5000 RA OVC010 27/26 A2987=
2020-08- 19 16:00:00,SKLT,METAR,METAR SKLT 191600Z 34004KT 9999 SCT020 34/25 A2984=
2020-08- 19 16:00:00,SKAR,METAR,METAR SKAR 191600Z 02004KT 340V060 8000 VCSH BKN012 OVC080 21/19 A3014 RMK VCSH/N/NE=
2020-08- 19 16:00:00,SKPC,METAR,METAR SKPC 191600Z 00000KT 9999 FEW017 SCT070 30/23 A2985 =
2020-08- 19 16:00:00,SKCC,METAR,METAR SKCC 191600Z 03006KT 9999 SCT022 SCT200 31/21 A2993=
2020-08- 19 16:00:00,SKUC,METAR,METAR SKUC 191600Z 06003KT 9999 BKN020 28/25 A2992=
2020-08- 19 16:00:00,SKSM,METAR,METAR SKSM 191600Z 30005KT 9999 SCT020TCU SCT100 31/28 A2989 RMK TCU/E/S=
2020-08- 19 16:00:00,SKBO,METAR,METAR SKBO 191600Z 08006KT 9999 SCT020 18/10 A3036 NOSIG=
2020-08- 19 16:00:00,SKMR,METAR,METAR SKMR 191600Z VRB02KT 9999 SCT015 OVC070 27/24 A2987 REDZ=
2020-08- 19 16:00:00,SKEJ,METAR,METAR SKEJ 191600Z 16004KT 9999 BKN015 27/24 A2988=
2020-08- 19 16:00:00,SKCG,METAR,METAR SKCG 191600Z 23006KT 180V270 9999 FEW014CB BKN200 30/26 A2984 RMK CB/NW=
2020-08- 19 16:00:00,SKBQ,METAR,METAR SKBQ 191600Z 10005KT 050V180 9999 SCT020 31/26 A2985 NOSIG=
2020-08- 19 17:00:00,SKCG,METAR,METAR SKCG 191700Z 23011KT 190V270 9999 FEW015TCU BKN200 31/25 A2983 RMK TCU/NW=
2020-08- 19 17:00:00,SKSP,METAR,METAR SKSP 191700Z 06006KT 9999 010V100 9999 FEW018 BKN200 31/26 A2989=
2020-08- 19 17:00:00,SKAR,METAR,METAR SKAR 191700Z 00000KT 8000 4000S VCSH FEW010TCU BKN012 OVC080 23/19 A3012 RMK TCU VCSH/E/S=
2020-08- 19 17:00:00,SKEJ,METAR,METAR SKEJ 191700Z 17004KT 9999 SCT015 SCT120 28/24 A2984=
2020-08- 19 17:00:00,SKBO,METAR,METAR SKBO 191700Z 08009KT 9999 SCT020 19/10 A3033 NOSIG=
2020-08- 19 17:00:00,SKIP,METAR,METAR SKIP 191700Z  10006KT 9999 SCT020 SCT200 17/09 A3041=
2020-08- 19 17:00:00,SKLT,METAR,METAR SKLT 191700Z 34004KT 9999 SCT020 35/25 A2983=
2020-08- 19 17:00:00,SKUI,METAR,METAR SKUI 191700Z 22004KT 9999 BKN015 OVC080 26/23 A2990
2020-08- 19 17:00:00,SKCC,METAR,METAR SKCC 191700Z 26004KT 9999 SCT022 SCT200 31/21 A2990=
2020-08- 19 17:00:00,SKRG,METAR,METAR SKRG 191700Z 18004KT 9999 SCT017TCU SCT200 21/14 A3029 NOSIG RMK TCU/NW/N=
2020-08- 19 17:00:00,SKPS,METAR,METAR SKPS 191700Z 34008KT 9999 SCT020 SCT200 21/16 A3017=
2020-08- 19 17:00:00,SKPC,METAR,METAR SKPC 191700Z 34003KT 9999 SCT017 30/23 A2983 =
2020-08- 19 17:00:00,SKMD,METAR,METAR SKMD 191700Z 22010KT 9999 SCT025TCU BKN200 25/16 A3013 RMK TCU/SE/W=
2020-08- 19 17:00:00,SKRH,METAR,METAR SKRH 191700Z 10008KT 5000 -DZ SCT005 BKN070 27/26 A2985 RERA=
2020-08- 19 17:00:00,SKUC,METAR,METAR SKUC 191700Z 06003KT 9999 BKN020 31/25 A2988=
2020-08- 19 17:00:00,SKMR,METAR,METAR SKMR 191700Z 21005KT 9999 FEW020 OVC070 28/24 A2987=
2020-08- 19 17:00:00,SKBQ,METAR,METAR SKBQ 191700Z 09004KT 010V170 9999 SCT020 SCT090 32/25 A2983 NOSIG=
2020-08- 19 17:00:00,SKVV,METAR,METAR SKVV 191700Z 12004KT 9999 SCT020 31/23 A2993 =
2020-08- 19 17:00:00,SKCL,METAR,METAR SKCL 191700Z VRB02KT 9999 SCT015 OVC090 24/20 A3006 NOSIG=
2020-08- 19 17:00:00,SKPE,METAR,METAR SKPE 191700Z 31004KT 9000 MIFG BKN012 SCT080 22/21 A3012=
2020-08- 19 17:00:00,SKIB,METAR,METAR SKIB 191700Z 27003KT 9999 SCT030 SCT100 25/23 A3008=
2020-08- 19 17:00:00,SKBG,METAR,METAR SKBG 191700Z 32006KT 9999 SCT015TCU 27/20 A2999 RMK TCU E/SE=
2020-08- 19 17:00:00,SKNV,METAR,METAR SKNV 191700Z 19004KT 120V180 9999 SCT027 BKN100 30/21 A2992 RMK VCSH/E/S=
2020-08- 19 17:00:00,SKLC,METAR,METAR SKLC 191700Z 20007KT 9999 SCT020 29/24 A2988=
2020-08- 19 17:00:00,SKPV,METAR,METAR SKPV 191600Z 08004KT 9999 FEW018 OVC200 31/27 A2990=
2020-08- 19 17:00:00,SKSM,METAR,METAR SKSM 191700Z 30004KT 9999 SCT017 BKN200 33/27 A2987=
2020-08- 19 17:05:00,SKRH,SPECI,SPECI SKRH 191505Z 10008KT 8000 -DZ SCT010 BKN080 30/25 A2985=
2020-08- 19 17:15:00,SKRH,SPECI,SPECI SKRH 191715Z 09006KT 9999 VCSH SCT010 BKN080 27/26 A2983 REDZ=
2020-08- 19 17:23:00,SKAR,SPECI,SPECI SKAR 191723Z 19005KT 150V220 3000 RA BKN008TCU OVC080 21/19 A3011=
2020-08- 19 18:00:00,SKVV,METAR,METAR SKVV 191800Z 12010KT 9999 BKN020 32/23 A2990 =
2020-08- 19 18:00:00,SKAR,METAR,METAR SKAR 191800Z 14003KT 090V180 2000 RA OVC008 20/19 A3010=
2020-08- 19 18:00:00,SKBG,METAR,METAR SKBG 191800Z 32004KT 9999 BKN015TCU SCT070 27/20 A2997 RMK TCU E/SE=
2020-08- 19 18:00:00,SKMR,METAR,METAR SKMR 191800Z 24004KT 9999 FEW020 BKN200 30/25 A2983=
2020-08- 19 18:00:00,SKIB,METAR,METAR SKIB 191800Z 09004KT 9999 SCT030 SCT100 27/23 A3004=
2020-08- 19 18:00:00,SKPE,METAR,METAR SKPE 191800Z 33004KT 9999 VCSH BKN012TCU BKN080 22/20 A3009 RMK TCU VCSH NE/E=
2020-08- 19 18:00:00,SKCL,METAR,METAR SKCL 191800Z 18003KT 9999 BKN020 BKN090 25/20 A3002 NOSIG=
2020-08- 19 18:00:00,SKPS,METAR,METAR SKPS 191800Z 35009KT 9999 BKN020 21/16 A3014=
2020-08- 19 18:00:00,SKUC,METAR,METAR SKUC 191800Z 08006KT 9999  SCT020 31/25 A2985   =
2020-08- 19 18:00:00,SKMD,METAR,METAR SKMD 191800Z 23010KT 9999 VCSH SCT025TCU BKN200 25/16 A3010 RMK TCU VCSH/SW/NW=
2020-08- 19 18:00:00,SKUI,METAR,METAR SKUI 191800Z 14005KT 9999 SCT018 BKN080 27/23 A2987
2020-08- 19 18:00:00,SKBQ,METAR,METAR SKBQ 191800Z 09007KT 060V130 9999 SCT015 32/25 A2978 NOSIG=
2020-08- 19 18:00:00,SKIP,METAR,METAR SKIP 191800Z  13008KT 9999 BKN020 17/10 A3038=
2020-08- 19 18:00:00,SKNV,METAR,METAR SKNV 191800Z VRB05KT 9999 VCSH SCT033 BKN110 31/21 A2987 RMK VCSH/S=
2020-08- 19 18:00:00,SKCC,METAR,METAR SKCC 191800Z 20006KT 110V240 SCT022 33/21 A2985=
2020-08- 19 18:00:00,SKPV,METAR,METAR SKPV 191800Z 09004KT 030V130 9999 FEW018 OVC200 31/27 A2988=
2020-08- 19 18:00:00,SKBO,METAR,METAR SKBO 191800Z 11006KT 9999 SCT020 SCT080 20/08 A3029 NOSIG=
2020-08- 19 18:00:00,SKLT,METAR,METAR SKLT 191800Z 36004KT 300V070 9999 SCT020 35/26 A2979=
2020-08- 19 18:00:00,SKRH,METAR,METAR SKRH 191800Z 15006KT 9999 FEW010 BKN200 27/25 A2979 REDZ=
2020-08- 19 18:00:00,SKPC,METAR,METAR SKPC 191800Z 03006KT 9999 FEW020 BKN070 31/23 A2981=
2020-08- 19 18:00:00,SKEJ,METAR,METAR SKEJ 191800Z 17004KT 9999 SCT015 SCT120 30/24 A2981=
2020-08- 19 18:00:00,SKSP,METAR,METAR SKSP 191800Z 06007KT 020V090 9999 FEW018 OVC200 31/26 A2987=
2020-08- 19 18:00:00,SKRG,METAR,METAR SKRG 191800Z 16003KT 9999 VCSH BKN017TCU 21/13 A3026 NOSIG RMK VCSH/S/N=
2020-08- 19 18:00:00,SKLC,METAR,METAR SKLC 191800Z 20014KT 9999 SCT020 30/24 A2984=
2020-08- 19 18:00:00,SKSM,METAR,METAR SKSM 191800Z 35007KT 9999 SCT017TCU SCT100 BKN200 31/26 A2983 RMK TCU/S=
2020-08- 19 18:00:00,SKCG,METAR,METAR SKCG 191800Z 22014KT 190V260 9999 FEW014CB SCT015 BKN200 30/26 A2979 RMK CB/NE=
2020-08- 19 19:00:00,SKLT,METAR,METAR SKLT 191900Z 12004KT 9999 SCT020 36/24 A2976=
2020-08- 19 19:00:00,SKPE,METAR,METAR SKPE 191900Z VRB02KT 9000 -DZ SCT012TCU BKN080 22/21 A3005 RMK TCU NE/E/SE=
2020-08- 19 19:00:00,SKCG,METAR,METAR SKCG 191900Z 20012KT 9999 FEW014CB SCT070 BKN200 29/26 A2977 RMK CB/N/NW=
2020-08- 19 19:00:00,SKBO,METAR,METAR SKBO 191900Z 05014KT 9999 SCT020 SCT080 21/08 A3026 NOSIG=
2020-08- 19 19:00:00,SKAR,METAR,METAR SKAR 191900Z 22004KT 7000 -DZ BKN010 OVC080 20/19 A3007 RERA=
2020-08- 19 19:00:00,SKBQ,METAR,METAR SKBQ 191900Z 21015KT 190V250 8000 2000SW VCSH BKN015 FEW020CB 28/25 A2976 BECMG 5000 TSRA RMK CB/SW=
2020-08- 19 19:00:00,SKPS,METAR,METAR SKPS 191900Z 36009KT 9999 BKN020 21/16 A3012=
2020-08- 19 19:00:00,SKIB,METAR,METAR SKIB 191900Z 10005KT 9999 SCT030 27/23 A3001=
2020-08- 19 19:00:00,SKSP,METAR,METAR SKSP 191900Z 05007KT 020V100 9999 FEW016 OVC200 30/27 A2985=
2020-08- 19 19:00:00,SKMD,METAR,METAR SKMD 191900Z 18006KT 9999 VCSH SCT025TCU SCT200 26/17 A3007 RMK TCU VCSH/E/SE=
2020-08- 19 19:00:00,SKLC,METAR,METAR SKLC 191900Z 18006KT 9999 SCT025 31/24 A2981=
2020-08- 19 19:00:00,SKRG,METAR,METAR SKRG 191900Z 26008KT 9999 -DZ BKN015CB 19/15 A3023 TEMPO FM1930 TSRA=
2020-08- 19 19:00:00,SKSM,METAR,METAR SKSM 191900Z 31006KT 9999 SCT017CB SCT100 OVC200 34/27 A2979 RMK CB/E=
2020-08- 19 19:00:00,SKUI,METAR,METAR SKUI 191900Z 00000KT 9999 SCT020 BKN080 28/23 A2984
2020-08- 19 19:00:00,SKCC,METAR,METAR SKCC 191900Z 21006KT 9999 SCT022 34/20 A2981=
2020-08- 19 19:00:00,SKPC,METAR,METAR SKPC 191900Z 03009KT 9999 FEW020 BKN070 32/23 A2979=
2020-08- 19 19:00:00,SKEJ,METAR,METAR SKEJ 191900Z 07003KT 9999 SCT015 SCT120 29/24 A2977=
2020-08- 19 19:00:00,SKIP,METAR,METAR SKIP 191900Z  08009KT 9999 BKN020 18/12 A3034=
2020-08- 19 19:00:00,SKRH,METAR,METAR SKRH 191900Z 140005KT 9999 FEW010 BKN100 28/25 A2977=
2020-08- 19 19:00:00,SKUC,METAR,METAR SKUC 191900Z 08006KT 9999 SCT020 31/25 A2982=
2020-08- 19 19:00:00,SKPV,METAR,METAR SKPV 191900Z 08004KT 9999 FEW018 OVC200 31/27 A2986=
2020-08- 19 19:00:00,SKNV,METAR,METAR SKNV 191900Z 18007KT 120V220 9999 SCT035 BKN120 33/21 A2983=
2020-08- 19 19:00:00,SKBG,METAR,METAR SKBG 191900Z 31005KT 9999 SCT015TCU SCT080 25/19 A2993 RMK TCU NE/E=
2020-08- 19 19:00:00,SKMR,METAR,METAR SKMR 191900Z 24007KT 9999 FEW020 SCT100 BKN200 30/25 A2980=
2020-08- 19 19:00:00,SKVV,METAR,METAR SKVV 191900Z 09006KT 9999 SCT020 BKN200 31/23 A2987 =
2020-08- 19 19:00:00,SKCL,METAR,METAR SKCL 191900Z 15003KT 9999 VCSH BKN020TCU BKN090 24/19 A2999 BECMG FM2000 TS BKN020CB BKN090=
2020-08- 19 19:07:00,SKRG,SPECI,SPECI SKRG 191907Z 05012KT 9999 4500N TSRA BKN012CB SCT080 18/18 A3024 BECMG AT2030 9999 DZ  SCT010TCU BKN080=
2020-08- 19 19:21:00,SKBQ,SPECI,SPECI SKBQ 191921Z 22010KT 4000 -TSRA BKN012 FEW020CB 25/24 A2978 BECMG 5000 RA=
2020-08- 19 19:25:00,SKSM,SPECI,SPECI SKSM 191925Z 31005KT 9999 -RA SCT017TCU BKN100 OVC200 32/27 A2979 RMK TCU/S=
2020-08- 19 20:00:00,SKNV,METAR,METAR SKNV 192000Z 22006KT 170V260 9999 SCT040TCU BKN100 31/21 A2980=
2020-08- 19 20:00:00,SKBG,METAR,METAR SKBG 192000Z 31006KT 9999 VCSH SCT015TCU SCT080 27/20 A2992 RMK TCU VCSH SE/S=
2020-08- 19 20:00:00,SKBO,METAR,METAR SKBO 192000Z VRB06KT 9999 4000S VCSH SCT020TCU SCT080 20/09 A3024 NOSIG RMK TCU VCSH/S=
2020-08- 19 20:00:00,SKLT,METAR,METAR SKLT 192000Z 36004KT280V050 9999 SCT020 35/24 A2974=
2020-08- 19 20:00:00,SKMD,METAR,METAR SKMD 192000Z 17006KT 9999 VCSH FEW030TCU BKN090 23/17 A3006 REDZ RMK TCU VCSH/E/W=
2020-08- 19 20:00:00,SKCC,METAR,METAR SKCC 192000Z 36009KT 9999 SCT022 SCT080 33/20 A2981=
2020-08- 19 20:00:00,SKVV,METAR,METAR SKVV 192000Z 32010KT 9999 SCT020 BKN200 29/22 A2985 RMK VCSH/N =
2020-08- 19 20:00:00,SKSM,METAR,METAR SKSM 192000Z 24004KT 9999 BKN017 OVC100 30/26 A2979 RERA=
2020-08- 19 20:00:00,SKUI,METAR,METAR SKUI 192000Z 24006KT 9999 SCT025 SCT080 29/23 A2981
2020-08- 19 20:00:00,SKLC,METAR,METAR SKLC 192000Z 23010KT 9999 SCT025 31/24 A2979=
2020-08- 19 20:00:00,SKSP,METAR,METAR SKSP 192000Z 05005KT 350V080 9999 FEW016 BKN200 30/26 A2983=
2020-08- 19 20:00:00,SKCG,METAR,METAR SKCG 192000Z 22008KT 9999 SCT015 BKN070 29/26 A2977=
2020-08- 19 20:00:00,SKPE,METAR,METAR SKPE 192000Z VRB02KT 9999 SCT012 SCT080 23/21 A3003 REDZ=
2020-08- 19 20:00:00,SKRG,METAR,METAR SKRG 192000Z 35005KT 9999 -TSRA SCT016CB BKN080 16/15 A3023 BECMG AT2100 DZ SCT016 BKN080 RMK CB/E/S=
2020-08- 19 20:00:00,SKPC,METAR,METAR SKPC 192000Z 01008KT 9999 VCSH FEW020 BKN070 32/22 A2975 RMK VCSH/SE=
2020-08- 19 20:00:00,SKMR,METAR,METAR SKMR 192000Z 26006KT 9999 FEW020 SCT100 BKN200 31/25 A2977=
2020-08- 19 20:00:00,SKIB,METAR,METAR SKIB 192000Z 09006KT 9999 SCT030 27/22 A2998=
2020-08- 19 20:00:00,SKBQ,METAR,METAR SKBQ 192000Z 30005KT 230V010 2000 -TSRA BKN008 FEW020CB 25/25 A2978 BECMG 5000 RA=
2020-08- 19 20:00:00,SKRH,METAR,METAR SKRH 192000Z 08004KT 9999 FEW010 BKN100 30/25 A2975=
2020-08- 19 20:00:00,SKCL,METAR,METAR SKCL 192000Z 06004KT 8000 -DZ BKN020TCU BKN090 23/20 A2997 NOSIG RMK TCU N/S=
2020-08- 19 20:00:00,SKUC,METAR,METAR SKUC 192000Z 03003KT 9999 SCT020 31/24 A2979=
2020-08- 19 20:00:00,SKPV,METAR,METAR SKPV 192000Z 09004KT 9999 SCT017 OVC200 31/28 A2984 =
2020-08- 19 20:00:00,SKEJ,METAR,METAR SKEJ 192000Z 06003KT 9999 SCT015 SCT120 29/25 A2975=
2020-08- 19 20:08:00,SKBQ,SPECI,SPECI SKBQ 192008Z VRB02KT 7000 -TSRA BKN015 FEW020CB 25/25 A2978 BECMG 9999 NSW RMK CB/SW=
2020-08- 19 20:29:00,SKBQ,SPECI,SPECI SKBQ 192029Z VRB02KT 9999  SCT015 FEW020CB 25/25 A2978 RETSRA NOSIG RMK CB/W=
2020-08- 19 21:00:00,SKPV,METAR,METAR SKPV 192100Z 29004KT 9999 FEW017 OVC200 26/26 A2983 RERA=
2020-08- 19 21:00:00,SKLT,METAR,METAR SKLT 192100Z 08005KT 040V130 9999 SCT020 34/26 A2971=
2020-08- 19 21:00:00,SKNV,METAR,METAR SKNV 192100Z 19006KT 9999 FEW040 BKN120 31/21 A2978=
2020-08- 19 21:00:00,SKUC,METAR,METAR SKUC 192100Z 08003KT 9999 SCT020 31/25 A2978=
2020-08- 19 21:00:00,SKCG,METAR,METAR SKCG 192100Z 23010KT 9999 FEW015 BKN070 29/25 A2977=
2020-08- 19 21:00:00,SKLC,METAR,METAR SKLC 192100Z 24004KT 9999 SCT025 31/24 A2978=
2020-08- 19 21:00:00,SKBG,METAR,METAR SKBG 192100Z 34006KT 9999 SCT015 SCT080 24/20 A2992=
2020-08- 19 21:00:00,SKIB,METAR,METAR SKIB 192100Z 09006KT 9999 SCT020 27/22 A2997=
2020-08- 19 21:00:00,SKUI,METAR,METAR SKUI 192100Z 21005KT 9999 BKN020 BKN080 29/23 A2981
2020-08- 19 21:00:00,SKPC,METAR,METAR SKPC 192100Z 35005KT 9999 FEW020TCU SCT070 33/22 A2973 RMK TCU/SE=
2020-08- 19 21:00:00,SKVV,METAR,METAR SKVV 192100Z 34006KT 9999 FEW020 BKN200 29/22 A2983 =
2020-08- 19 21:00:00,SKRG,METAR,METAR SKRG 192100Z 02003KT 9999 VCSH SCT013CB BKN080 17/14 A3022 RETSRA NOSIG RMK CB VCSH/E/SE=
2020-08- 19 21:00:00,SKCL,METAR,METAR SKCL 192100Z 34006KT 9000 VCSH BKN020CB BKN090 23/20 A2996 NOSIG=
2020-08- 19 21:00:00,SKPE,METAR,METAR SKPE 192100Z 23006KT 9999 SCT014 SCT080 23/21 A3001=
2020-08- 19 21:00:00,SKSP,METAR,METAR SKSP 192100Z 05006KT 010V100 9999 FEW018 BKN200 31/26 A2981=
2020-08- 19 21:00:00,SKCC,METAR,METAR SKCC 192100Z 01008KT 9999 SCT020 SCT080 31/21 A2982=
2020-08- 19 21:00:00,SKBQ,METAR,METAR SKBQ 192100Z 12004KT 9999 BKN015 26/25 A2979 RETS NOSIG=
2020-08- 19 21:00:00,SKBO,METAR,METAR SKBO 192100Z 25009KT 8000 TS FEW017CB SCT020 16/11 A3024 NOSIG RMK CB VCSH/NW=
2020-08- 19 21:00:00,SKMR,METAR,METAR SKMR 192100Z 28006KT 9999 FEW020 BKN200 30/24 A2976=
2020-08- 19 21:00:00,SKMD,METAR,METAR SKMD 192100Z 18004KT 9999 FEW030TCU BKN200 25/16 A3004 RMK TCU/SE/N=
2020-08- 19 22:00:00,SKRG,METAR,METAR SKRG 192200Z VRB02KT 9999 -DZ SCT013CB BKN080 17/15 A3022 TEMPO FM2230 DZ RMK CB/SE/S=
2020-08- 19 22:00:00,SKCG,METAR,METAR SKCG 192200Z 19006KT 9999 -RA SCT013 BKN070 29/27 A2978=
2020-08- 19 22:00:00,SKVV,METAR,METAR SKVV 192200Z VRB02KT 9999 FEW020 30/22 A2982 RMK VCSH/NE =
2020-08- 19 22:00:00,SKMD,METAR,METAR SKMD 192200Z 21006KT 9999 FEW030TCU BKN200 24/16 A3004 RMK TCU/SE/N=
2020-08- 19 22:00:00,SKPE,METAR,METAR SKPE 192200Z 23006KT 9999 SCT014 SCT080 22/20 A3001=
2020-08- 19 22:00:00,SKUC,METAR,METAR SKUC 192200Z 00000KT 9999 SCT020 30/25 A2978=
2020-08- 19 22:00:00,SKCC,METAR,METAR SKCC 192200Z 01005KT 9999 TS SCT018CB BKN080 30/21 A2983 RMK CB/W/NW=
2020-08- 19 22:00:00,SKLT,METAR,METAR SKLT 192200Z  VRB02KT 9999 FEW015 SCT200 32/25 A2972=
2020-08- 19 22:00:00,SKIB,METAR,METAR SKIB 192200Z 10005KT 9999 SCT020 SCT100 26/22 A2997=
2020-08- 19 22:00:00,SKBQ,METAR,METAR SKBQ 192200Z 24003KT 9999 -DZ BKN015 25/25 A2979 BECMG 5000 RA=
2020-08- 19 22:00:00,SKMR,METAR,METAR SKMR 192200Z 29005KT 9999 FEW020 BKN200 31/24 A2978=
2020-08- 19 22:00:00,SKUI,METAR,METAR SKUI 192200Z 00000KT 9999 SCT025 BKN080 28/23 A2981
2020-08- 19 22:00:00,SKLC,METAR,METAR SKLC 192200Z 00000KT 9999 BKN017TCU 29/24 A2980 RMK VCSH/S/SW=
2020-08- 19 22:00:00,SKPC,METAR,METAR SKPC 192200Z 02005KT 9999 FEW020 SCT070 31/22 A2973=
2020-08- 19 22:00:00,SKSP,METAR,METAR SKSP 192200Z 05006KT 360V080 9999 FEW018 OVC200 30/25 A2980=
2020-08- 19 22:00:00,SKNV,METAR,METAR SKNV 192200Z 12004KT 070V160 9999 FEW045 BKN120 30/22 A2978=
2020-08- 19 22:00:00,SKBG,METAR,METAR SKBG 192200Z 34005KT 9999 VCSH SCT015TCU BKN070 22/20 A2993 RMK TCU VCSH NE/E=
2020-08- 19 22:00:00,SKCL,METAR,METAR SKCL 192200Z 03003KT 8000 DZ SCT020TCU OVC080 21/20 A2997 NOSIG RMK TCU S=
2020-08- 19 22:00:00,SKPV,METAR,METAR SKPV 192200Z 29004KT 9999 FEW017 OVC200 28/26 A2981 =
2020-08- 19 22:00:00,SKBO,METAR,METAR SKBO 192200Z 28006KT 9999 SCT017 SCT080 15/12 A3024 RETS NOSIG=
2020-08- 19 23:00:00,SKMR,METAR,METAR SKMR 192300Z 33004KT 9999 FEW020 BKN200 29/25 A2979=
2020-08- 19 23:00:00,SKBQ,METAR,METAR SKBQ 192300Z 11004KT 9999 -RA BKN012 OVC070 26/25 A2982 NOSIG=
2020-08- 19 23:00:00,SKIB,METAR,METAR SKIB 192300Z 11004KT 9999 BKN020 BKN100 25/22 A3000=
2020-08- 19 23:00:00,SKSP,METAR,METAR SKSP 192300Z 05006KT 010V080 9999 FEW016 OVC200 29/25 A2980=
2020-08- 19 23:00:00,SKPE,METAR,METAR SKPE 192300Z 26006KT 9999 SCT014 SCT080 21/20 A3003=
2020-08- 19 23:00:00,SKRG,METAR,METAR SKRG 192300Z 19003KT 9999 -DZ SCT013 BKN080 16/16 A3024 NOSIG=
2020-08- 19 23:00:00,SKCG,METAR,METAR SKCG 192300Z 20006KT 9999 -DZ SCT013TCU BKN070 28/26 A2979 RERA RMK TCU/N/NE=
2020-08- 19 23:00:00,SKBG,METAR,METAR SKBG 192300Z 33005KT 9999 -RA SCT015 BKN070 21/21 A2993=
2020-08- 19 23:00:00,SKMD,METAR,METAR SKMD 192300Z 23006KT 9999 SCT025TCU BKN090 23/16 A3006 RMK TCU/SE/SW=
2020-08- 19 23:00:00,SKPV,METAR,METAR SKPV 192300Z 08004KT 9999 FEW017 OVC200 27/26 A2981 =
2020-08- 19 23:00:00,SKLT,METAR,METAR SKLT 192300Z 00000KT 9999 FEW015 SCT200 29/27 A2975=
2020-08- 19 23:00:00,SKCL,METAR,METAR SKCL 192300Z VRB02KT 9999 VCSH FEW020 OVC080 22/20 A2998 REDZ NOSIG RMK VCSH SE=
2020-08- 19 23:00:00,SKUI,METAR,METAR SKUI 192300Z 00000KT 9999 SCT025 BKN100 28/23 A2982=
2020-08- 19 23:00:00,SKVV,METAR,METAR SKVV 192300Z 05004KT 9999 SCT020 SCT090 27/22 A2984 =
2020-08- 19 23:00:00,SKPC,METAR,METAR SKPC 192300Z 04005KT 9999 FEW017 SCT070 30/23 A2976=
2020-08- 19 23:00:00,SKBO,METAR,METAR SKBO 192300Z 31007KT 8000 VCSH SCT017 SCT080 15/13 A3027 NOSIG RMK VCSH/E/N=
2020-08- 19 23:00:00,SKLC,METAR,METAR SKLC 192300Z 20006KT 9999 -TSRA BKN015CB 25/25 A2983 RMK CB/SW=
2020-08- 19 23:00:00,SKCC,METAR,METAR SKCC 192300Z 19006KT 9999 TS SCT018CB BKN080 29/21 A2985 RMK CB/W/NW=
2020-08- 19 23:00:00,SKNV,METAR,METAR SKNV 192300Z 10004KT 040V140 9999 NSC 29/21 A2980=
2020-08- 20 00:00:00,SKBQ,METAR,METAR SKBQ 200000Z VRB02KT 9999  BKN012 OVC070 26/25 A2983 RERA NOSIG=
2020-08- 20 00:00:00,SKLT,METAR,METAR SKLT 200000Z 00000KT 9999 FEW015 SCT200 28/27 A2977=
2020-08- 20 00:00:00,SKBO,METAR,METAR SKBO 200000Z 26004KT 9000 VCSH BKN015 14/12 A3030 NOSIG RMK VCSH/SE=
2020-08- 20 00:00:00,SKCL,METAR,METAR SKCL 200000Z VRB03KT 9999 SCT020 BKN070 21/20 A3000 TEMPO DZ=
2020-08- 20 00:00:00,SKPV,METAR,METAR SKPV 200000Z 00000KT 9999 FEW017 OVC200 27/26 A2983=
2020-08- 20 00:00:00,SKUI,METAR,METAR SKUI 200000Z 00000KT 9999 SCT025 BKN100 27/24 A2985
2020-08- 20 00:00:00,SKBG,METAR,METAR SKBG 200000Z 32003KT 9999 SCT015 SCT070 20/20 A2997 RERA=
2020-08- 20 00:00:00,SKRG,METAR,METAR SKRG 200000Z VRB02KT 9999 SCT012CB BKN070 16/16 A3025 TEMPO FM0100 TS RMK CB/S/W=
2020-08- 20 00:00:00,SKSP,METAR,METAR SKSP 200000Z 05006KT 9999 SCT016 BKN200 29/25 A2983=
2020-08- 20 00:10:00,SKBO,SPECI,SPECI SKBO 200010Z 26004KT 9000 -DZ BKN015 14/12 A3031 NOSIG=
2020-08- 20 00:19:00,SKBG,SPECI,SPECI SKBG 200019Z 33005KT 8000 2000N BCFG BKN010 SCT070 20/20 A3001=
2020-08- 20 01:00:00,SKLT,METAR,METAR SKLT 200100Z 00000KT 9999 FEW015 27/26 A2979=
2020-08- 20 01:00:00,SKBQ,METAR,METAR SKBQ 200100Z 12003KT 9999 -DZ BKN012 OVC070 26/25 A2986 NOSIG=
2020-08- 20 01:00:00,SKSP,METAR,METAR SKSP 200100Z 05005KT 9999 FEW016 BKN200 28/25 A2984=
2020-08- 20 01:00:00,SKRG,METAR,METAR SKRG 200100Z VRB02KT 9000 VCSH BKN010 SCT070 16/16 A3029 TEMPO FM0200 DZ RMK VCSH/SE=
2020-08- 20 01:00:00,SKCL,METAR,METAR SKCL 200100Z 02004KT 9999 VCSH SCT020 BKN070 21/20 A3002 TEMPO DZ RMK VCSH/N=
2020-08- 20 01:00:00,SKBO,METAR,METAR SKBO 200100Z VRB02KT 9999 SCT015 14/12 A3031 REDZ NOSIG=
2020-08- 20 01:00:00,SKBG,METAR,METAR SKBG 200100Z 33004KT 9999 2000N BCFG BKN010 SCT070 20/20 A3001=
2020-08- 20 02:00:00,SKLT,METAR,METAR SKLT 200200Z VRB02KT 9999 SCT015 26/26 A2983 RMK LTNG/N=
2020-08- 20 02:00:00,SKBQ,METAR,METAR SKBQ 200200Z 15003KT 9999  SCT015 BKN070 26/25 A2988 NOSIG=
2020-08- 20 02:00:00,SKSP,METAR,METAR SKSP 200200Z 03004KT 360V080 9999 FEW016 BKN200 28/25 A2987=
2020-08- 20 02:00:00,SKCL,METAR,METAR SKCL 200200Z 01005KT 9999 SCT020 BKN070 21/20 A3004 TEMPO DZ=
2020-08- 20 02:00:00,SKRG,METAR,METAR SKRG 200200Z VRB02KT 6000 -DZ BKN010 SCT070 16/16 A3030 TEMPO FM0300 BR=
2020-08- 20 02:00:00,SKBO,METAR,METAR SKBO 200200Z VRB02KT 9999 SCT023 13/12 A3035 NOSIG=
2020-08- 20 03:00:00,SKLT,METAR,METAR SKLT 200300Z 00000KT 9999 SCT015 26/26 A2984=
2020-08- 20 03:00:00,SKBO,METAR,METAR SKBO 200300Z VRB02KT 9999 FEW015 12/11 A3037 NOSIG=
2020-08- 20 03:00:00,SKBQ,METAR,METAR SKBQ 200300Z 00000KT 9999 SCT015 26/25 A2988 NOSIG=
2020-08- 20 03:00:00,SKSP,METAR,METAR SKSP 200300Z 04004KT 9999 FEW016 BKN200 28/25 A2989=
2020-08- 20 03:00:00,SKCL,METAR,METAR SKCL 200300Z 00000KT 8000 VCSH SCT020 BKN070 21/20 A3008 TEMPO DZ RMK VCSH N/E=
2020-08- 20 03:00:00,SKRG,METAR,METAR SKRG 200300Z VRB02KT 7000 -DZ SCT010CB OVC070 16/16 A3032 TEMPO FM0330 5000 TSRA RMK CB/E/S=
2020-08- 20 03:10:00,SKRG,SPECI,SPECI SKRG 200310Z VRB02KT 3000 +TSRA BKN010CB OVC070 16/16 A3034 BECMG FM0500 DZ RMK CB/E/S=
2020-08- 20 04:00:00,SKLT,METAR,METAR SKLT 200400Z 04003KT 9999 SCT012 25/25 A2985=
2020-08- 20 04:00:00,SKCL,METAR,METAR SKCL 200400Z 26003KT 200V310 8000 -DZ SCT020 BKN070 21/20 A3009 TEMPO DZ=
2020-08- 20 04:00:00,SKBO,METAR,METAR SKBO 200400Z  VRB02KT 9999 SCT015 12/11 A3038 NOSIG=
2020-08- 20 04:00:00,SKBQ,METAR,METAR SKBQ 200400Z 15003KT 9999 SCT015 26/25 A2989 NOSIG=
2020-08- 20 04:00:00,SKSP,METAR,METAR SKSP 200400Z 05003KT 020V120 9999 FEW016 BKN200 28/25 A2989=
2020-08- 20 04:00:00,SKRG,METAR,METAR SKRG 200400Z VRB02KT 4000 TSRA SCT008CB BKN015 15/15 A3034 BECMG FM0500 DZ RMK CB/E/S=
2020-08- 20 05:00:00,SKBO,METAR,METAR SKBO 200500Z VRB02KT 9999 MIFG FEW015 10/10 A3036 NOSIG=
2020-08- 20 05:00:00,SKBQ,METAR,METAR SKBQ 200500Z 16002KT 9999 SCT015 25/25 A2984 NOSIG=
2020-08- 20 05:00:00,SKCL,METAR,METAR SKCL 200500Z 01005KT 9999 SCT020 BKN070 20/19 A3007 REDZ TEMPO DZ=
2020-08- 20 05:00:00,SKLT,METAR,METAR SKLT 200500Z 00000KT CAVOK  25/25 A2984=
2020-08- 20 05:00:00,SKSP,METAR,METAR SKSP 200500Z 05003KT 020V120 9999 FEW016 BKN200 28/25 A2989=
2020-08- 20 05:00:00,SKRG,METAR,METAR SKRG 200500Z VRB02KT 4000 RA SCT008 OVC070 15/15 A3031 RETSRA BECMG FM0500 5000 DZ=
2020-08- 20 06:00:00,SKBQ,METAR,METAR SKBQ 200600Z 21002KT 9999  SCT015 25/25 A2988 NOSIG=
2020-08- 20 06:00:00,SKBO,METAR,METAR SKBO 200600Z VRB02KT 9999 MIFG FEW015 10/10 A3035 NOSIG=
2020-08- 20 06:00:00,SKLT,METAR,METAR SKLT 200600Z VRB02KT 9999 FEW012 25/25 A2982=
2020-08- 20 06:00:00,SKCL,METAR,METAR SKCL 200600Z VRB02KT 9999 FEW020 SCT060 BKN100 20/19 A3005 NOSIG=
2020-08- 20 06:00:00,SKRG,METAR,METAR SKRG 200600Z VRB02KT 5000 DZ SCT007 OVC070 14/14 A3032 RERA NOSIG=
2020-08- 20 06:00:00,SKSP,METAR,METAR SKSP 200600Z VRB02KT 9999 FEW016 BKN200 26/25 A2988=
2020-08- 20 07:00:00,SKRG,METAR,METAR SKRG 200700Z VRB02KT 4000 RA SCT007 OVC070 14/14 A3034 REDZ BECMG FM0800 5000 DZ=
2020-08- 20 07:00:00,SKLT,METAR,METAR SKLT 200700Z 00000KT 9999 FEW012 24/24 A2982=
2020-08- 20 07:00:00,SKBO,METAR,METAR SKBO 200700Z VRB02KT 9999 MIFG BKN015 09/09 A3034 NOSIG=
2020-08- 20 07:00:00,SKSP,METAR,METAR SKSP 200700Z 06010G20KT .030V090 9999 FEW014 BKN200 28/26 2979=
2020-08- 20 07:00:00,SKBQ,METAR,METAR SKBQ 200700Z 18004KT 9999 SCT015 25/25 A2987 NOSIG=
2020-08- 20 07:00:00,SKCL,METAR,METAR SKCL 200700Z 25003KT 220V280 9999 FEW020 SCT060 BKN100 20/19 A3005 NOSIG=
2020-08- 20 08:00:00,SKBQ,METAR,METAR SKBQ 200800Z VRB02KT 9999  SCT015 25/25 A2984 NOSIG=
2020-08- 20 08:00:00,SKBO,METAR,METAR SKBO 200800Z VRB02KT 9999 FEW005 BKN023 11/11 A3034 NOSIG=
2020-08- 20 08:00:00,SKLT,METAR,METAR SKLT 200800Z 00000KT 9999 FEW012 24/24 A2982 =
2020-08- 20 08:00:00,SKCL,METAR,METAR SKCL 200800Z 00000KT 9999 FEW004 SCT030 BKN100 20/19 A3004 BECMG FM0900 BKN004=
2020-08- 20 08:00:00,SKRG,METAR,METAR SKRG 200800Z VRB02KT 5000 RA SCT007 OVC070 14/14 A3031 BECMG FM0900 DZ=
2020-08- 20 09:00:00,SKCL,METAR,METAR SKCL 200900Z 07003KT 030V100 6000 -RA BKN007 SCT080 20/20 A3004 NOSIG=
2020-08- 20 09:00:00,SKSP,METAR,METAR SKSP 200900Z 05003KT 020V120 9999 FEW016 BKN200 28/25 A2989=
2020-08- 20 09:00:00,SKBO,METAR,METAR SKBO 200900Z 34003KT 9999 FEW005 10/10 A3033 NOSIG=
2020-08- 20 09:00:00,SKLT,METAR,METAR SKLT 200900Z 00000KT CAVOK 24/24 A2982=
2020-08- 20 09:00:00,SKRG,METAR,METAR SKRG 200900Z VRB02KT 8000 -DZ SCT007 OVC070 13/13 A3029 RERA NOSIG=
2020-08- 20 09:00:00,SKBQ,METAR,METAR SKBQ 200900Z VRB02KT 9999  SCT015 25/24 A2984 NOSIG=
2020-08- 20 10:00:00,SKCL,METAR,METAR SKCL 201000Z 00000KT 7000 VCFG BKN010 SCT080 20/20 A3003 RERA NOSIG=
2020-08- 20 10:00:00,SKRG,METAR,METAR SKRG 201000Z VRB02KT 9999 SCT010 OVC070 13/13 A3030 REDZ NOSIG=
2020-08- 20 10:00:00,SKBQ,METAR,METAR SKBQ 201000Z 17005KT 9999  SCT015 25/24 A2985 BECMG 2000 BR=
2020-08- 20 10:00:00,SKLT,METAR,METAR SKLT 201000Z 00000KT CAVOK 23/23 A2983=
2020-08- 20 10:00:00,SKBO,METAR,METAR SKBO 201000Z VRB02KT 9999 FEW005 09/09 A3033 NOSIG=
2020-08- 20 10:30:00,SKRG,SPECI,SPECI SKRG 201030Z VRB02KT 9999 SCT010 OVC070 13/13 A3030 NOSIG=
2020-08- 20 10:30:00,SKBO,SPECI,SPECI SKBO 201030Z 04003KT 9999 FEW010 10/10 A3033 NOSIG=
2020-08- 20 10:30:00,SKCL,SPECI,SPECI SKCL 201030Z VRB02KT 7000 VCFG BKN010 SCT080 20/20 A3005 NOSIG=
2020-08- 20 11:00:00,SKLC,METAR,METAR SKLC 201100Z 00000KT 9999 SCT003 BKN017 24/23 A2987=
2020-08- 20 11:00:00,SKBG,METAR,METAR SKBG 201100Z 22003KT 0200 -DZ FG VV/// 19/19 A3004 RMK AD BLW MNM MET=
2020-08- 20 11:00:00,SKCL,METAR,METAR SKCL 201100Z 00000KT 7000 VCFG BKN010 20/20 A3006 NOSIG=
2020-08- 20 11:00:00,SKRG,METAR,METAR SKRG 201100Z VRB02KT 9999 SCT006 BKN070 13/13 A3030 NOSIG=
2020-08- 20 11:00:00,SKPV,METAR,METAR SKPV 201100Z VRB02KT 9999 FEW017 BKN200 25/25 A2981=
2020-08- 20 11:00:00,SKCC,METAR,METAR SKCC 201100Z VRB02KT 9999 SCT020 SCT080 24/23 A2995=
2020-08- 20 11:00:00,SKVV,METAR,METAR SKVV 201100Z 00000KT 9999 FEW023 BKN090 23/20 A2993=
2020-08- 20 11:00:00,SKBO,METAR,METAR SKBO 201100Z VRB02KT 9999 MIFG SCT015 SCT200 10/10 A3034 NOSIG=
2020-08- 20 11:00:00,SKMR,METAR,METAR SKMR 201100Z VRB02KT 9999 FEW012 OVC070 24/24 A2985 REDZ=
2020-08- 20 11:00:00,SKSP,METAR,METAR SKSP 201100Z 00000KT 9999 FEW014 BKN200 25/25 A2981=
2020-08- 20 11:00:00,SKCG,METAR,METAR SKCG 201100Z 18006KT 9999 FEW014CB SCT070 25/25 A2985 RMK CB/SW/N=
2020-08- 20 11:00:00,SKLT,METAR,METAR SKLT 201100Z 00000KT CAVOK 24/24 A2985=
2020-08- 20 11:00:00,SKNV,METAR,METAR SKNV 201100Z 04005KT 1500 TS SCT015CB BKN080 24/22 A2994 RMK CB N/NW VCSH N/NE=
2020-08- 20 11:00:00,SKPE,METAR,METAR SKPE 201100Z 18004KT 7000 VCFG SCT008 ACT080 18/18 A3012 REDZ=
2020-08- 20 11:00:00,SKMD,METAR,METAR SKMD 201100Z 32003KT 9999 FEW020 BKN030 BKN080 18/16 A3017=
2020-08- 20 11:00:00,SKPC,METAR,METAR SKPC 201100Z 00000KT 9999 NSC 25/24 A2986=
2020-08- 20 11:30:00,SKNV,SPECI,SPECI SKNV 201130Z 01008KT 6000 VCSH SCT015 BKN090 23/23 A2995 RETS RMK VCSH N=
2020-08- 20 12:00:00,SKBG,METAR,METAR SKBG 201200Z 20003KT 8000 VCFG BKN010 19/19 A3004=
2020-08- 20 12:00:00,SKMD,METAR,METAR SKMD 201200Z 21005KT 9999 VCSH FEW030 OVC080 18/16 A3019 RMK VCSH/S/N=
2020-08- 20 12:00:00,SKBQ,METAR,METAR SKBQ 201200Z 18005KT 9999 SCT015 SCT200 25/24 A2987 NOSIG=
2020-08- 20 12:00:00,SKCL,METAR,METAR SKCL 201200Z VRB02KT 4000 BR SCT010 BKN090 20/20 A3006 NOSIG=
2020-08- 20 12:00:00,SKEJ,METAR,METAR SKEJ 201200Z 21005KT 9999 VCSH SCT008 BKN070 23/23 A2991 RMK VCSH NW=
2020-08- 20 12:00:00,SKPV,METAR,METAR SKPV 201200Z VRB02KT 9999 FEW017 BKN200 25/25 A2983=
2020-08- 20 12:00:00,SKPS,METAR,METAR SKPS 201200Z 00000KT 9998 SCT016 08/07 A3044=
2020-08- 20 12:00:00,SKVV,METAR,METAR SKVV 201200Z 00000KT 9999 FEW023 SCT090 24/20 A2995=
2020-08- 20 12:00:00,SKLC,METAR,METAR SKLC 201200Z 00000KT 9999 SCT004 BKN017 24/23 A2987=
2020-08- 20 12:00:00,SKBO,METAR,METAR SKBO 201200Z 00000KT 9999 BKN017 SCT200 12/11 A3037 NOSIG=
2020-08- 20 12:00:00,SKIP,METAR,METAR SKIP 201200Z 00000KT 9999 SCT016 08/07 A3040=
2020-08- 20 12:00:00,SKCG,METAR,METAR SKCG 201200Z 15005KT 9999 FEW014CB SCT200 26/25 A2984 RMK CB/W=
2020-08- 20 12:00:00,SKSM,METAR,METAR SKSM 201200Z 06003KT 9999 FEW030 BKN070 BKN200 28/26 A////=
2020-08- 20 12:00:00,SKUI,METAR,METAR SKUI 201200Z 00000KT 9999 SCT015 OVC080 23/23 A2989=
2020-08- 20 12:00:00,SKPE,METAR,METAR SKPE 201200Z 34004KT 7000 VCFG SCT008 SCT080 18/18 A3012=
2020-08- 20 12:00:00,SKCC,METAR,METAR SKCC 201200Z VRB02KT 9999 SCT023 SCT090 25/23 A2997=
2020-08- 20 12:00:00,SKPC,METAR,METAR SKPC 201200Z 04005KT 9999 NSC 27/25 A2987=
2020-08- 20 12:00:00,SKRG,METAR,METAR SKRG 201200Z VRB02KT 9999 5000N BCFG FEW006 BKN070 14/13 A3033 BECMG AT1330 9999 NSW=
2020-08- 20 12:00:00,SKSP,METAR,METAR SKSP 201200Z 00000KT 9999 FEW010 OVC200 26/25 A2983=
2020-08- 20 12:00:00,SKUC,METAR,METAR SKUC 201200Z 02004KT 9999 FEW023 28/25 A2991=
2020-08- 20 12:00:00,SKLT,METAR,METAR SKLT 201200Z VRB02KT 9999 FEW015 25/25 A2987=
2020-08- 20 12:00:00,SKNV,METAR,METAR SKNV 201200Z 01006KT 330V050 9999 VCSH SCT010 BKN090 23/22 A2997 RETS RMK VCSH N/W=
2020-08- 20 12:00:00,SKMR,METAR,METAR SKMR 201200Z VRB02KT 9999 FEW012 OVC070 24/24 A2985=
2020-08- 20 12:05:00,SKBG,SPECI,SPECI SKBG 201205Z 12003KT 0200 FG VV/// 19/19 A3005 RMK AD BLW MNM MET=
2020-08- 20 12:10:00,SKLC,SPECI,SPECI SKLC 201210Z VRB02KT 9999 BKN004 24/24 A2987=
2020-08- 20 12:30:00,SKBG,SPECI,SPECI SKBG 201230Z 18003KT 1500 BCFG BKN004 19/19 A3006=
2020-08- 20 13:00:00,SKLC,METAR,METAR SKLC 201300Z 15004KT 9999 SCT005 BKN017 24/24 A2988=
2020-08- 20 13:00:00,SKPC,METAR,METAR SKPC 201300Z 05005KT 9999 NSC 28/24 A2988=
2020-08- 20 13:00:00,SKCC,METAR,METAR SKCC 201300Z 26003KT 9999 SCT023 SCT090 27/24 A2996=
2020-08- 20 13:00:00,SKCG,METAR,METAR SKCG 201300Z 15008KT 9999 FEW014TCU SCT070 27/26 A2987 RMK TCU/W=
2020-08- 20 13:00:00,SKMR,METAR,METAR SKMR 201300Z 16005KT 9999 SCT010 OVC070 25/24 A2987=
2020-08- 20 13:00:00,SKBO,METAR,METAR SKBO 201300Z 02003KT 9999 SCT017 BKN200 13/11 A3038 NOSIG=
2020-08- 20 13:00:00,SKEJ,METAR,METAR SKEJ 201300Z 29003KT 9999 SCT008 OVC070 23/23 A2993=
2020-08- 20 13:00:00,SKIP,METAR,METAR SKIP 201300Z 00000KT 9999 SCT016 SCT080 09/08 A3046=
2020-08- 20 13:00:00,SKNV,METAR,METAR SKNV 201300Z VRB03KT 9999 FEW025 BKN110 26/22 A2999=
2020-08- 20 13:00:00,SKLT,METAR,METAR SKLT 201300Z 03003KT CAVOK 28/26 A2988=
2020-08- 20 13:00:00,SKMD,METAR,METAR SKMD 201300Z 20004KT 9999 FEW020 OVC080 19/16 A3021=
2020-08- 20 13:00:00,SKBG,METAR,METAR SKBG 201300Z 22003KT 4000 BCFG BKN010 SCT070 19/19 A3006=
2020-08- 20 13:00:00,SKRG,METAR,METAR SKRG 201300Z 14003KT 9999 5000N BCFG SCT006 BKN080 15/14 A3036 TEMPO FM1400 DZ RMK VCSH/SE/S=
2020-08- 20 13:00:00,SKVP,METAR,METAR SKVP 201300Z 25004KT  7000 VCFG SCT010 BKN070 26/25 A2998=
2020-08- 20 13:00:00,SKPE,METAR,METAR SKPE 201300Z 31004KT 0800 FG BKN005 SCT080 19/19 A3013=
2020-08- 20 13:00:00,SKSM,METAR,METAR SKSM 201300Z VRB02KT 9999 FEW030 SCT100 BKN200 28/25 A2991=
2020-08- 20 13:00:00,SKPV,METAR,METAR SKPV 201300Z VRB02KT 9999 FEW017 OVC200 26/26 A2985=
2020-08- 20 13:00:00,SKPS,METAR,METAR SKPS 201300Z 00000KT 9999 SCT025 16/15 A3020=
2020-08- 20 13:00:00,SKUC,METAR,METAR SKUC 201300Z 02003KT 9999  SCT023 29/25 A2992   =
2020-08- 20 13:00:00,SKVV,METAR,METAR SKVV 201300Z VRB02KT 9999 FEW023 SCT090 28/23 A2996=
2020-08- 20 13:00:00,SKSP,METAR,METAR SKSP 201300Z VRB02KT 9999 FEW012 BKN200 29/25 A2985=
2020-08- 20 13:00:00,SKAR,METAR,METAR SKAR 201300Z 00000KT 4000 BR BKN010 BKN090 19/18 A3013=
2020-08- 20 13:00:00,SKBQ,METAR,METAR SKBQ 201300Z 16006KT 9999 FEW015 SCT200 26/25 A2988 NOSIG=
2020-08- 20 13:00:00,SKUI,METAR,METAR SKUI 201300Z 00000KT 9999 SCT017 BKN080 24/23 A2989=
2020-08- 20 13:26:00,SKLT,SPECI,SPECI SKLT 201326Z 04003KT CAVOK 30/26 A2989=
2020-08- 20 13:28:00,SKEJ,SPECI,SPECI SKEJ 201328Z 14005KT 9999 DZ SCT008 BKN070 23/23 A2994=
2020-08- 20 13:30:00,SKPE,SPECI,SPECI SKPE 201330Z 22004KT 2000 BR BKN006 SCT080 19/19 A3013=
2020-08- 20 14:00:00,SKCG,METAR,METAR SKCG 201400Z 17004KT 9999 FEW014CB SCT070 29/26 A2989=
2020-08- 20 14:00:00,SKSP,METAR,METAR SKSP 201400Z 02003KT 330V060 9999 FEW014 SCT200 30/25 A2986=
2020-08- 20 14:00:00,SKPE,METAR,METAR SKPE 201400Z VRB02KT 4000 BR BKN006 SCT080 20/19 A3014=
2020-08- 20 14:00:00,SKBQ,METAR,METAR SKBQ 201400Z 16007KT 9999 FEW015 BKN200 28/25 A2988 NOSIG=
2020-08- 20 14:00:00,SKUI,METAR,METAR SKUI 201400Z 19005KT 9999 BKN015 25/24 A29900
2020-08- 20 14:00:00,SKBO,METAR,METAR SKBO 201400Z VRB03KT 9999 BKN020 SCT200 16/12 A3039 NOSIG=
2020-08- 20 14:00:00,SKNV,METAR,METAR SKNV 201400Z 31004KT 280V340 9999 FEW017 BKN110 26/23 A3000=
2020-08- 20 14:00:00,SKEJ,METAR,METAR SKEJ 201400Z 15004KT 9999 -DZ BKN006 BKN070 23/23 A2994 REDZ=
2020-08- 20 14:00:00,SKSM,METAR,METAR SKSM 201400Z 23005KT 9999 FEW030 SCT100 BKN200 29/24 A2992=
2020-08- 20 14:00:00,SKMR,METAR,METAR SKMR 201400Z 15006KT 9999 SCT010 BKN070 26/24 A2989=
2020-08- 20 14:00:00,SKCC,METAR,METAR SKCC 201400Z VRB03KT 9999 SCT023 29/23 A2996=
2020-08- 20 14:00:00,SKVP,METAR,METAR SKVP 201400Z 23004KT 9999 FEW010 SCT200 27/24 A2988=
2020-08- 20 14:00:00,SKLC,METAR,METAR SKLC 201400Z 16008KT 9999 5000SE -DZ SCT006 BKN015 25/24 A2990=
2020-08- 20 14:00:00,SKLT,METAR,METAR SKLT 201400Z 05003KT010V110 CAVOK 31/27 A2989=
2020-08- 20 14:00:00,SKIP,METAR,METAR SKIP 201400Z 00000KT 9999 BKN016 12/10 A3047=
2020-08- 20 14:00:00,SKAR,METAR,METAR SKAR 201400Z 00000KT 6000 VCFG BKN012 20/18 A3014=
2020-08- 20 14:00:00,SKBG,METAR,METAR SKBG 201400Z 30003KT 4000 BCFG BKN005 SCT070 22/22 A3008=
2020-08- 20 14:00:00,SKPV,METAR,METAR SKPV 201400Z 33006KT 300V020 9999 FEW017 BKN200 28/26 A2986=
2020-08- 20 14:00:00,SKVV,METAR,METAR SKVV 201400Z 00000KT 9999 FEW023 SCT090 29/22 A2996=
2020-08- 20 14:00:00,SKPC,METAR,METAR SKPC 201400Z 08008KT 9999 NSC 29/24 A2990=
2020-08- 20 14:00:00,SKMD,METAR,METAR SKMD 201400Z 30003KT 9999 FEW020 OVC080 20/16 A3020=
2020-08- 20 14:00:00,SKPS,METAR,METAR SKPS 201400Z 00000KT 9999 SCT025 18/16 A3021=
2020-08- 20 14:00:00,SKRG,METAR,METAR SKRG 201400Z VRB02KT 9999 FEW015 SCT090 BKN200 16/14 A3034 REDZ NOSIG=
2020-08- 20 14:00:00,SKUC,METAR,METAR SKUC 201400Z VRB02KT 9999  SCT010 30/26 A2993   =
2020-08- 20 14:00:00,SKCL,METAR,METAR SKCL 201400Z VRB02KT 5000 BR SCT010 BKN090 21/20 A3008 BECMG FM1500 8000 NSW=
2020-08- 20 14:35:00,SKPE,SPECI,SPECI SKPE 201435Z 32004KT 6000 VCFG BKN007 SCT080 20/19 A3013=
2020-08- 20 15:00:00,SKAR,METAR,METAR SKAR 201500Z 25004KT 9999 BKN015 22/19 A3013=
2020-08- 20 15:00:00,SKNV,METAR,METAR SKNV 201500Z VRB03KT 9999 FEW023 BKN110 28/22 A3000=
2020-08- 20 15:00:00,SKPE,METAR,METAR SKPE 201500Z 32004KT 9000 MIFG BKN012 SCT080 21/20 A3013=
2020-08- 20 15:00:00,SKCL,METAR,METAR SKCL 201500Z VRB02KT 8000 SCT013 SCT100 23/21 A3008 NOSIG RMK HZ=
2020-08- 20 15:00:00,SKSM,METAR,METAR SKSM 201500Z 28005KT 9999 FEW020 BKN200 30/25 A2991=
2020-08- 20 15:00:00,SKEJ,METAR,METAR SKEJ 201500Z 15004KT 9999 -DZ BKN008 SCT080 23/23 A2993=
2020-08- 20 15:00:00,SKBQ,METAR,METAR SKBQ 201500Z 18008KT 150V210 9999 SCT020 BKN200 29/25 A2989 NOSIG=
2020-08- 20 15:00:00,SKIP,METAR,METAR SKIP 201500Z 11005KT 9999 BKN016 14/10 A3046=
2020-08- 20 15:00:00,SKCC,METAR,METAR SKCC 201500Z 14004KT 060V190 9999  SCT023 31/23 A2996=
2020-08- 20 15:00:00,SKCG,METAR,METAR SKCG 201500Z 19010KT 180V250 9999 FEW015 BKN200 29/26 A2988=
2020-08- 20 15:00:00,SKUI,METAR,METAR SKUI 201500Z 00000KT 9999 BKN016 26/24 A2990
2020-08- 20 15:00:00,SKMR,METAR,METAR SKMR 201500Z 18006KT 9999 SCT015 BKN200 28/25 A2989=
2020-08- 20 15:00:00,SKUC,METAR,METAR SKUC 201500Z 06003KT 9999 SCT015 30/25 A2993=
2020-08- 20 15:00:00,SKPV,METAR,METAR SKPV 201500Z 35006KT 320V020 9999 SCT017TCU SCT200 28/27 A2988 RMK TCU/N=
2020-08- 20 15:00:00,SKPC,METAR,METAR SKPC 201500Z 06010KT 9999 FEW017 SCT070 30/24 A2988=
2020-08- 20 15:00:00,SKPS,METAR,METAR SKPS 201500Z 33005KT 9999 SCT025 19/15 A3021=
2020-08- 20 15:00:00,SKBG,METAR,METAR SKBG 201500Z 34004KT 8000 3000N BCFG BKN005 SCT070 22/21 A3008=
2020-08- 20 15:00:00,SKBO,METAR,METAR SKBO 201500Z 36004KT 9999 BKN020 18/10 A3039 NOSIG=
2020-08- 20 15:00:00,SKVV,METAR,METAR SKVV 201500Z 00000KT 9999 FEW023 SCT090 30/22 A2997=
2020-08- 20 15:00:00,SKRG,METAR,METAR SKRG 201500Z 10004KT 9999 FEW015 BKN200 18/14 A3035 NOSIG=
2020-08- 20 15:00:00,SKMD,METAR,METAR SKMD 201500Z 09004KT 9999 FEW030 BKN200 23/16 A3019=
2020-08- 20 15:00:00,SKLT,METAR,METAR SKLT 201500Z 05004KT 350V120 9999 FEW017 33/26 A2989=
2020-08- 20 15:00:00,SKSP,METAR,METAR SKSP 201500Z 02004KT 340V070 9999 FEW016 30/25 A2987=
2020-08- 20 15:00:00,SKVP,METAR,METAR SKVP 201500Z 19003KT 9999 FEW010 SCT200 28/24 A2997=
2020-08- 20 15:00:00,SKLC,METAR,METAR SKLC 201500Z 17008KT 9999 BKN015 27/25 A2990 REDZ=
2020-08- 20 16:00:00,SKCL,METAR,METAR SKCL 201600Z VRB03KT 8000 BKN015 SCT100 25/22 A3006 NOSIG RMK HZ=
2020-08- 20 16:00:00,SKNV,METAR,METAR SKNV 201600Z 34005KT 280V050 9999 FEW015 BKN110 30/21 A2998=
2020-08- 20 16:00:00,SKUI,METAR,METAR SKUI 201600Z 00000KT 9999 BKN018 28/24 A2989=
2020-08- 20 16:00:00,SKMD,METAR,METAR SKMD 201600Z 02005KT 9999 FEW030 BKN200 24/16 A3018=
2020-08- 20 16:00:00,SKMR,METAR,METAR SKMR 201600Z 17005KT 9999 BKN015 SCT200 28/25 A2988=
2020-08- 20 16:00:00,SKBQ,METAR,METAR SKBQ 201600Z 17006KT 9999 SCT020 SCT200 29/25 A2989 NOSIG=
2020-08- 20 16:00:00,SKPS,METAR,METAR SKPS 201600Z 34006KT 9999 SCT025 20/15 A3019=
2020-08- 20 16:00:00,SKSP,METAR,METAR SKSP 201600Z 33004KT 230V040 9999 FEW016 SCT200 30/25 A2988=
2020-08- 20 16:00:00,SKLC,METAR,METAR SKLC 201600Z 17006KT 9999 BKN015 27/24 A2991=
2020-08- 20 16:00:00,SKVP,METAR,METAR SKVP 201600Z 23004KT 9999 FEW020 SCT200 30/24 A2995=
2020-08- 20 16:00:00,SKBG,METAR,METAR SKBG 201600Z 33004KT 8000 VCFG SCT005 SCT070 23/22 A3006=
2020-08- 20 16:00:00,SKCC,METAR,METAR SKCC 201600Z VRB04KT 9999 SCT023 33/21 A2995=
2020-08- 20 16:00:00,SKPC,METAR,METAR SKPC 201600Z 04005KT 9999 FEW020 SCT200 31/24 A2986=
2020-08- 20 16:00:00,SKPE,METAR,METAR SKPE 201600Z 24004KT 9999 BKN015 23/21 A3011=
2020-08- 20 16:00:00,SKSM,METAR,METAR SKSM 201600Z 25006KT 9999 SCT020 SCT100 BKN200 30/26 A2993=
2020-08- 20 16:00:00,SKIP,METAR,METAR SKIP 201600Z 12007KT 9999 BKN016 13/10 A3045=
2020-08- 20 16:00:00,SKEJ,METAR,METAR SKEJ 201600Z 14003KT 9999 BKN015 26/24 A2991 REDZ=
2020-08- 20 16:00:00,SKLT,METAR,METAR SKLT 201600Z  07005KT 340V130 9999 SCT017 34/26 A2989=
2020-08- 20 16:00:00,SKAR,METAR,METAR SKAR 201600Z 31003KT 9999 BKN017 23/18 A3012=
2020-08- 20 16:00:00,SKCG,METAR,METAR SKCG 201600Z 19013KT 180V240 9999 FEW015TCU SCT200 30/25 A2989 RMK TCU/NE=
2020-08- 20 16:00:00,SKVV,METAR,METAR SKVV 201600Z 03004KT 9999 FEW023 BKN090 30/22 A2998=
2020-08- 20 16:00:00,SKRG,METAR,METAR SKRG 201600Z 07005KT 9999 SCT018 BKN200 19/14 A3034 NOSIG=
2020-08- 20 16:00:00,SKPV,METAR,METAR SKPV 201600Z 32004KT 280V020 9999 FEW017 BKN200 29/26 A2986=
2020-08- 20 16:00:00,SKBO,METAR,METAR SKBO 201600Z 15004KT 9999 VCSH BKN020 SCT200 18/09 A3037 NOSIG RMK VCSH/NE=
2020-08- 20 17:00:00,SKRG,METAR,METAR SKRG 201700Z 03005KT 9999 SCT018TCU BKN200 20/14 A3032 NOSIG RMK TCU/S/SW=
2020-08- 20 17:00:00,SKMD,METAR,METAR SKMD 201700Z 02009KT 9999 FEW030 BKN200 25/16 A3015=
2020-08- 20 17:00:00,SKPC,METAR,METAR SKPC 201700Z 04005KT 9999 FEW020 SCT200 32/23 A2983=
2020-08- 20 17:00:00,SKIB,METAR,METAR SKIB 201700Z 11004KT 9999 SCT030 26/22 A3011=
2020-08- 20 17:00:00,SKPV,METAR,METAR SKPV 201700Z VRB06KT 9999 FEW017 BKN200 31/27 A2986=
2020-08- 20 17:00:00,SKPS,METAR,METAR SKPS 201700Z 35007KT 9999 SCT025 21/17 A3017=
2020-08- 20 17:00:00,SKCC,METAR,METAR SKCC 201700Z 16017KT 9999 VCSH SCT023 SCT090 32/20 A2992 RMK VCSH NW=
2020-08- 20 17:00:00,SKLC,METAR,METAR SKLC 201700Z 20008KT 150V260 9999 BKN017 30/25 A2989=
2020-08- 20 17:00:00,SKEJ,METAR,METAR SKEJ 201700Z 27004KT 9999 SCT017 28/24 A2988=
2020-08- 20 17:00:00,SKAR,METAR,METAR SKAR 201700Z 22004KT 9999 BKN020 24/19 A3009=
2020-08- 20 17:00:00,SKVV,METAR,METAR SKVV 201700Z 06004KT 9999 FEW023 SCT090 30/22 A2996=
2020-08- 20 17:00:00,SKIP,METAR,METAR SKIP 201700Z 11010KT 9999 BKN016 14/10 A3044=
2020-08- 20 17:00:00,SKBQ,METAR,METAR SKBQ 201700Z 18008KT 150V230 9999 SCT020 31/24 A2988 NOSIG=
2020-08- 20 17:00:00,SKSP,METAR,METAR SKSP 201700Z 27005KT 220V330 9999 FEW018 BKN200 31/25 A2988=
2020-08- 20 17:00:00,SKCL,METAR,METAR SKCL 201700Z VRB03KT 9999 SCT017 SCT120 27/23 A3004 NOSIG=
2020-08- 20 17:00:00,SKVP,METAR,METAR SKVP 201700Z 18004KT 9999 FEW010 SCT200 31/23 A2992=
2020-08- 20 17:00:00,SKCG,METAR,METAR SKCG 201700Z 23008KT 170V260 9999 SCT015TCU SCT200 31/25 A2988 RMK TCU/NW=
2020-08- 20 17:00:00,SKMR,METAR,METAR SKMR 201700Z 22004KT 9999 SCT015 BKN200 28/24 A2987=
2020-08- 20 17:00:00,SKUI,METAR,METAR SKUI 201700Z 00000KT 9999 BKN018 28/23 A2988
2020-08- 20 17:00:00,SKNV,METAR,METAR SKNV 201700Z VRB03KT 9999 FEW023 BKN110 32/21 A2994=
2020-08- 20 17:00:00,SKLT,METAR,METAR SKLT 201700Z 04004KT 9999 SCT020 34/25 A2987=
2020-08- 20 17:00:00,SKBO,METAR,METAR SKBO 201700Z 16007G17KT 090V190 9999 VCSH BKN020 SCT200 19/08 A3036 NOSIG RMK VCSH/W/NW=
2020-08- 20 17:00:00,SKBG,METAR,METAR SKBG 201700Z 34004KT 8000 -DZ VCFG SCT005 BKN070 23/21 A3004=
2020-08- 20 17:00:00,SKPE,METAR,METAR SKPE 201700Z 30006KT 9999 SCT015 SCT080 25/21 A3009=
2020-08- 20 18:00:00,SKCC,METAR,METAR SKCC 201800Z 15010KT 060V210 9999 SCT023 SCT090 34/19 A2989=
2020-08- 20 18:00:00,SKPE,METAR,METAR SKPE 201800Z 31004KT 9999 SCT015TCU SCT080 24/21 A3006 RMK TCU NE/E/SE=
2020-08- 20 18:00:00,SKSP,METAR,METAR SKSP 201800Z 25005KT 200V280 9999 FEW018 BKN200 31/25 A2986=
2020-08- 20 18:00:00,SKLC,METAR,METAR SKLC 201800Z 17008KT 130V210 9999 BKN017 30/25 A2987=
2020-08- 20 18:00:00,SKCG,METAR,METAR SKCG 201800Z 25008KT 200V300 9999 FEW015CB SCT200 31/25 A2985 RMK CB/NW=
2020-08- 20 18:00:00,SKBO,METAR,METAR SKBO 201800Z 14015KT 9999 VCSH BKN020 SCT200 18/07 A3034 NOSIG RMK VCSH/E=
2020-08- 20 18:00:00,SKBQ,METAR,METAR SKBQ 201800Z 20006KT 9999 SCT015 SCT070 31/25 A2986 NOSIG=
2020-08- 20 18:00:00,SKSM,METAR,METAR SKSM 201800Z 29006KT 9999 SCT017 BKN200 32/26 A2989=
2020-08- 20 18:00:00,SKNV,METAR,METAR SKNV 201800Z 19006KT 100V250 9999 VCSH SCT020TCU SCT110 31/21 A2990 RMK TCU/VCSH E=
2020-08- 20 18:00:00,SKMR,METAR,METAR SKMR 201800Z 21007KT 9999 SCT020 BKN200 29/25 A2986=
2020-08- 20 18:00:00,SKLT,METAR,METAR SKLT 201800Z 11004KT 9999 BKN020 35/25 A2983=
2020-08- 20 18:00:00,SKPV,METAR,METAR SKPV 201800Z 34006KT 230V010 9999 FEW017 BKN200 31/27 A2985=
2020-08- 20 18:00:00,SKUC,METAR,METAR SKUC 201800Z 35003KT 9999 SCT015 33/25 A2985=
2020-08- 20 18:00:00,SKAR,METAR,METAR SKAR 201800Z 00000KT 9999 BKN020 25/18 A3007=
2020-08- 20 18:00:00,SKPS,METAR,METAR SKPS 201800Z 28006KT 9999 SCT025 22/17 A3014=
2020-08- 20 18:00:00,SKIB,METAR,METAR SKIB 201800Z 15005KT 9999 SCT030 27/22 A3009=
2020-08- 20 18:00:00,SKIP,METAR,METAR SKIP 201800Z 12013KT 9999 BKN018 15/09 A3043=
2020-08- 20 18:00:00,SKBG,METAR,METAR SKBG 201800Z 32006KT 9999 -DZ SCT007 BKN070 23/22 A3000=
2020-08- 20 18:00:00,SKMD,METAR,METAR SKMD 201800Z 23009KT 9999 SCT030 SCT200 27/16 A3011=
2020-08- 20 18:00:00,SKVP,METAR,METAR SKVP 201800Z 22004KT 9999 FEW015 SCT100 32/22 A2988=
2020-08- 20 18:00:00,SKUI,METAR,METAR SKUI 201800Z 22006KT 9999 BKN020 SCT200 30/23 A2985=
2020-08- 20 18:00:00,SKEJ,METAR,METAR SKEJ 201800Z  28005KT 9999 SCT017 29/23 A2984=
2020-08- 20 18:00:00,SKVV,METAR,METAR SKVV 201800Z 09004KT 9999 SCT023 31/21 A2992=
2020-08- 20 18:00:00,SKRG,METAR,METAR SKRG 201800Z 11012KT 9999 SCT018TCU BKN200 22/14 A3029 NOSIG RMK TCU/S/SW=
2020-08- 20 18:00:00,SKCL,METAR,METAR SKCL 201800Z VRB04KT 9999 SCT020 SCT120 29/21 A2999 NOSIG=
2020-08- 20 18:00:00,SKPC,METAR,METAR SKPC 201800Z 08004KT 9999 SCT020 33/22 A2980 =
2020-08- 20 19:00:00,SKPC,METAR,METAR SKPC 201900Z VRB02KT 9999 VCSH SCT020 33/22 A2977 RMK VCSH/SE =
2020-08- 20 19:00:00,SKBO,METAR,METAR SKBO 201900Z 15004KT 9999 VCSH BKN020 SCT200 19/08 A3030 NOSIG RMK VCSH/W/NW=
2020-08- 20 19:00:00,SKCG,METAR,METAR SKCG 201900Z 28008KT 220V310 9999 FEW015TCU SCT200 31/25 A2983 RMK TCU/E=
2020-08- 20 19:00:00,SKBQ,METAR,METAR SKBQ 201900Z 23004KT 9999 VCSH SCT015TCU SCT070 31/24 A2983 BECMG TL1930 SCT015CB SCT070 RMK TCU VCSH/E=
2020-08- 20 19:00:00,SKLT,METAR,METAR SKLT 201900Z 02007KT 350V080 9999 FEW015TCU BKN020 35/25 A2979 RMK TCU/W=
2020-08- 20 19:00:00,SKNV,METAR,METAR SKNV 201900Z 06005KT 010V130 9999 VCSH FEW033 SCT120 30/22 A2985 RMK VCSH E=
2020-08- 20 19:00:00,SKIB,METAR,METAR SKIB 201900Z 01004KT 9999 SCT030 27/22 A3004=
2020-08- 20 19:00:00,SKMR,METAR,METAR SKMR 201900Z 25005KT 9999 SCT020 BKN200 29/24 A2983=
2020-08- 20 19:00:00,SKIP,METAR,METAR SKIP 201900Z 10009KT 9999 BKN018 15/10 A3040=
2020-08- 20 19:00:00,SKVV,METAR,METAR SKVV 201900Z 07004KT 9999 FEW023 31/21 A2985=
2020-08- 20 19:00:00,SKVP,METAR,METAR SKVP 201900Z 16005KT 9999 -DZ FEW015TCU SCT100 31/24 A2985 RMK TCU/E/SE=
2020-08- 20 19:00:00,SKEJ,METAR,METAR SKEJ 201900Z  25005KT 9999 SCT017 30/23 A2980=
2020-08- 20 19:00:00,SKUC,METAR,METAR SKUC 201900Z 09003KT 9999 BKN015 31/26 A2981=
2020-08- 20 19:00:00,SKPE,METAR,METAR SKPE 201900Z 26006KT 9999 SCT015TCU SCT080 25/21 A3003 RMK TCU NE/E/SE=
2020-08- 20 19:00:00,SKSM,METAR,METAR SKSM 201900Z 31006KT 9999 SCT017 BKN200 32/26 A2986=
2020-08- 20 19:00:00,SKSP,METAR,METAR SKSP 201900Z 24006KT 230V290 9999 FEW018 BKN200 31/25 A2984=
2020-08- 20 19:00:00,SKUI,METAR,METAR SKUI 201900Z 12005KT 9999 BKN020 29/23 A2982
2020-08- 20 19:00:00,SKPV,METAR,METAR SKPV 201900Z 16004KT 090V200 9999 FEW017 SCT080 28/25 A2983=
2020-08- 20 19:00:00,SKLC,METAR,METAR SKLC 201900Z 15010KT 130V220 9999 SCT017 SCT300 31/24 A2983=
2020-08- 20 19:00:00,SKMD,METAR,METAR SKMD 201900Z 30006KT 9999 FEW030 SCT200 27/16 A3006=
2020-08- 20 19:00:00,SKAR,METAR,METAR SKAR 201900Z 00000KT 9999 BKN020 26/18 A3003=
2020-08- 20 19:00:00,SKCC,METAR,METAR SKCC 201900Z 16012KT 120V220 9999 SCT023 SCT090 35/18 A2984=
2020-08- 20 19:00:00,SKPS,METAR,METAR SKPS 201900Z 01007KT 9999 SCT025 24/17 A3010=
2020-08- 20 19:00:00,SKRG,METAR,METAR SKRG 201900Z 09006KT 9999 FEW020TCU BKN200 22/13 A3026 NOSIG RMK TCU/SW=
2020-08- 20 19:00:00,SKCL,METAR,METAR SKCL 201900Z VRB03KT 9999 SCT020 29/20 A2995 NOSIG=
2020-08- 20 19:00:00,SKBG,METAR,METAR SKBG 201900Z 34008KT 9999 SCT010 BKN070 26/20 A2996 REDZ=
2020-08- 20 20:00:00,SKBG,METAR,METAR SKBG 202000Z 34005KT 9999 -DZ SCT010 BKN070 23/21 A2993=
2020-08- 20 20:00:00,SKNV,METAR,METAR SKNV 202000Z 18005KT 100V230 9999 VCSH FEW030TCU 34/20 A2979 RMK TCU/VCSH N=
2020-08- 20 20:00:00,SKCL,METAR,METAR SKCL 202000Z VRB04KT 9999 FEW023 SCT120 30/20 A2990 NOSIG=
2020-08- 20 20:00:00,SKSM,METAR,METAR SKSM 202000Z 01005KT 9999 TS SCT017CB BKN070 29/25 A2985 RMK CB/SE/S=
2020-08- 20 20:00:00,SKVP,METAR,METAR SKVP 202000Z 18007KT 9999 FEW015TC SCT200 34/23 A2984 RMK TCU/E/SE=
2020-08- 20 20:00:00,SKLC,METAR,METAR SKLC 202000Z 16006KT 9999 FEW017 BKN300 29/24 A2981=
2020-08- 20 20:00:00,SKAR,METAR,METAR SKAR 202000Z 00000KT 9999 BKN023 26/18 A2998=
2020-08- 20 20:00:00,SKUI,METAR,METAR SKUI 202000Z 00000KT 9999 BKN025 29/24 A2979=
2020-08- 20 20:00:00,SKIB,METAR,METAR SKIB 202000Z 13003KT 9999 SCT030 28/21 A3001=
2020-08- 20 20:00:00,SKCC,METAR,METAR SKCC 202000Z 16008KT 110V200 9999 SCT023 SCT090 34/18 A2982=
2020-08- 20 20:00:00,SKCG,METAR,METAR SKCG 202000Z 29011KT 9999 FEW016 SCT200 29/25 A2981=
2020-08- 20 20:00:00,SKSP,METAR,METAR SKSP 202000Z 22005KT 190V290 9999 FEW018 BKN200 31/25 A2980=
2020-08- 20 20:00:00,SKEJ,METAR,METAR SKEJ 202000Z 25003KT 9999 FEW017 30/22 A2977=
2020-08- 20 20:00:00,SKBO,METAR,METAR SKBO 202000Z 25003KT 9999 BKN023 20/07 A3026 NOSIG=
2020-08- 20 20:00:00,SKPE,METAR,METAR SKPE 202000Z VRB02KT 9999 VCSH SCT015TCU SCT080 26/21 A3000 RMK TCU NE/E/SE=
2020-08- 20 20:00:00,SKMR,METAR,METAR SKMR 202000Z 12004KT 9999 FEW020 SCT200 31/24 A2980=
2020-08- 20 20:00:00,SKUC,METAR,METAR SKUC 202000Z 15005KT 9999  BKN012 28/24 A2977   =
2020-08- 20 20:00:00,SKPC,METAR,METAR SKPC 202000Z 08008KT 9999 SCT017 SCT070 31/23 A2973 =
2020-08- 20 20:00:00,SKRG,METAR,METAR SKRG 202000Z 11006KT 9999 SCT020TCU 22/13 A3022 NOSIG RMK TCU/S/SW=
2020-08- 20 20:00:00,SKVV,METAR,METAR SKVV 202000Z 13004KT 9999 FEW023 32/23 A2981=
2020-08- 20 20:00:00,SKBQ,METAR,METAR SKBQ 202000Z 02008KT 9999 5000N VCSH SCT015CB SCT070 30/25 A2980 BECMG FM2100 5000 TSRA RMK CB/N=
2020-08- 20 20:00:00,SKLT,METAR,METAR SKLT 06005KT 360V090 9999 BKN020 35/26 A2974=
2020-08- 20 20:00:00,SKMD,METAR,METAR SKMD 202000Z 03011KT 9999 FEW030 SCT200 28/14 A3003=
2020-08- 20 20:00:00,SKPV,METAR,METAR SKPV 202000Z VRB04KT 9999 FEW017 SCT080 29/26 A2981=
2020-08- 20 21:00:00,SKAR,METAR,METAR SKAR 202100Z 26003KT 9999 BKN023 SCT100 26/18 A2996=
2020-08- 20 21:00:00,SKNV,METAR,METAR SKNV 202100Z VRB04KT 9999 FEW035 34/20 A2977=
2020-08- 20 21:00:00,SKCL,METAR,METAR SKCL 202100Z VRB05KT 9999 FEW023 SCT120 31/19 A2987 NOSIG=
2020-08- 20 21:00:00,SKUC,METAR,METAR SKUC 202100Z VRB02KT 9999 SCT020 30/26 A2975=
2020-08- 20 21:00:00,SKUI,METAR,METAR SKUI 202100Z 00000KT 9999 VCSH BKN020TCU 29/24 A2977 RMK TCU VCSH W
2020-08- 20 21:00:00,SKPC,METAR,METAR SKPC 202100Z 08006KT 9999 FEW017 SCT070 32/23 A2972 =
2020-08- 20 21:00:00,SKMD,METAR,METAR SKMD 202100Z 02012KT 9999 VCSH SCT030 28/14 A3000 RMK VCSH/S/N=
2020-08- 20 21:00:00,SKMR,METAR,METAR SKMR 202100Z 26003KT 9999 FEW020 SCT200 31/24 A2977=
2020-08- 20 21:00:00,SKBQ,METAR,METAR SKBQ 202100Z 33005KT 9999 5000W -TSRA SCT015CB SCT070 26/25 A2980 BECMG TL2200 8000 VCSH SCT015 SCT070 RMK CB/W/NW=
2020-08- 20 21:00:00,SKLC,METAR,METAR SKLC 202100Z 21006KT 9999 FEW017 BKN300 30/24 A2978=
2020-08- 20 21:00:00,SKBO,METAR,METAR SKBO 202100Z 24010KT 9999 FEW015 BKN023 17/11 A3025 NOSIG=
2020-08- 20 21:00:00,SKSP,METAR,METAR SKSP 202100Z 26004KT 150V290 9999 FEW018 OVC200 31/24 A2978=
2020-08- 20 21:00:00,SKPE,METAR,METAR SKPE 202100Z 12008KT 9999 -RA SCT015TCU SCT080 24/21 A2997 RMK TCU NE/E/SE=
2020-08- 20 21:00:00,SKLT,METAR,METAR SKLT 202100Z 10004KT 020V110 9999 SCT020 35/25 A2972=
2020-08- 20 21:00:00,SKRG,METAR,METAR SKRG 202100Z 10010KT 9999 FEW020TCU 23/13 A3020 NOSIG RMK TCU/SW=
2020-08- 20 21:00:00,SKVV,METAR,METAR SKVV 202100Z 10004KT 9999 FEW023 SCT090 31/22 A2983=
2020-08- 20 21:00:00,SKPV,METAR,METAR SKPV 202100Z VRB04KT 9999 FEW017 SCT080 29/26 A2979=
2020-08- 20 21:00:00,SKCG,METAR,METAR SKCG 202100Z 28010KT 260V320 9999 FEW015CB SCT200 29/25 A2980 RMK CB/NE=
2020-08- 20 21:00:00,SKCC,METAR,METAR SKCC 202100Z VRB07KT 9999 SCT023 34/18 A2980=
2020-08- 20 21:00:00,SKIB,METAR,METAR SKIB 202100Z 11003KT 9999 SCT030 28/22 A2998=
2020-08- 20 21:00:00,SKBG,METAR,METAR SKBG 202100Z 32007KT 9999 SCT010 SCT240 23/23 A2991 REDZ=
2020-08- 20 22:00:00,SKLC,METAR,METAR SKLC 202200Z 16003KT 9999 FEW017 BKN300 29/24 A2978=
2020-08- 20 22:00:00,SKRG,METAR,METAR SKRG 202200Z 09007KT 9999 FEW020TCU 22/13 A3020 NOSIG RMK TCU/S/N=
2020-08- 20 22:00:00,SKBG,METAR,METAR SKBG 202200Z 30006KT 9999 SCT010 SCT070 23/21 A2991=
2020-08- 20 22:00:00,SKLT,METAR,METAR SKLT 202200Z 04004KT 360V060 9999 SCT020 33/25 A2972=
2020-08- 20 22:00:00,SKUI,METAR,METAR SKUI 202200Z 30006KT 9999 VCSH BKN018TCU 28/24 A2978 RMK TCU VCSH W
2020-08- 20 22:00:00,SKCC,METAR,METAR SKCC 202200Z 01008KT 340V040 9999 SCT023 33/21 A2979=
2020-08- 20 22:00:00,SKBQ,METAR,METAR SKBQ 202200Z 28003KT 9999 VCSH SCT015CB BKN070 25/24 A2979 RETSRA BECMG FM2330 TS  RMK CB VCSH/S/SW=
2020-08- 20 22:00:00,SKPE,METAR,METAR SKPE 202200Z 18010KT 9999 -RA FEW015TCU SCT080 23/21 A2998 RMK TCU S/SW=
2020-08- 20 22:00:00,SKMD,METAR,METAR SKMD 202200Z 03016KT 9999 VCSH SCT030CB 26/15 A3000 RMK CB VCSH/SW=
2020-08- 20 22:00:00,SKPV,METAR,METAR SKPV 202200Z 30004KT 280V350 9999 FEW017 SCT080 28/26 A2980=
2020-08- 20 22:00:00,SKBO,METAR,METAR SKBO 202200Z 21004KT 9000 VCSH BKN017 SCT080 15/11 A3029 NOSIG RMK VCSH/NW=
2020-08- 20 22:00:00,SKMR,METAR,METAR SKMR 202200Z 34010KT 9999 VCSH SCT015CB SCT200 27/24 A2979 RMK CB/VCSH/NW=
2020-08- 20 22:00:00,SKVV,METAR,METAR SKVV 202200Z 11004KT 9999 FEW023 BKN090 30/22 A2983=
2020-08- 20 22:00:00,SKPC,METAR,METAR SKPC 202200Z 08005KT 9999 FEW017 SCT070 31/23 A2972 =
2020-08- 20 22:00:00,SKIB,METAR,METAR SKIB 202200Z 14004KT 9999 SCT030 27/21 A3000=
2020-08- 20 22:00:00,SKUC,METAR,METAR SKUC 202200Z 00000KT 9999 SCT023 30/27 A2975=
2020-08- 20 22:00:00,SKNV,METAR,METAR SKNV 202200Z 02004KT 320V110 9999 FEW040 SCT200 34/19 A2978=
2020-08- 20 22:00:00,SKCL,METAR,METAR SKCL 202200Z 32013KT 9999 VCSH SCT023 SCT120 29/19 A2988 NOSIG RMK VCSH/E=
2020-08- 20 22:00:00,SKSP,METAR,METAR SKSP 202200Z 25004KT 220V360 9999 FEW017 OVC200 30/24 A2979=
2020-08- 20 22:00:00,SKCG,METAR,METAR SKCG 202200Z 30015KT 270V350 9999 FEW015 BKN200 29/25 A2980=
2020-08- 20 22:00:00,SKAR,METAR,METAR SKAR 202200Z 00000KT 9999 FEW020CB BKN025 25/19 A2996 RMK CB/NE=
2020-08- 20 23:00:00,SKUI,METAR,METAR SKUI 202300Z 28005KT 9999 BKN020 26/24 A2981
2020-08- 20 23:00:00,SKSP,METAR,METAR SKSP 202300Z 24004KT 180V270 9999 FEW016 OVC200 29/24 A2980=
2020-08- 20 23:00:00,SKBO,METAR,METAR SKBO 202300Z 32004KT 9999 BKN020 SCT080 14/12 A3029 REDZ NOSIG=
2020-08- 20 23:00:00,SKPV,METAR,METAR SKPV 202300Z 33004KT 9999 FEW017 SCT080 27/25 A2980=
2020-08- 20 23:00:00,SKMD,METAR,METAR SKMD 202300Z 04007KT 9999 TS SCT030CB  24/16 A3006 RMK CB VCSH/S/N=
2020-08- 20 23:00:00,SKBQ,METAR,METAR SKBQ 202300Z 27003KT 9999 VCSH SCT015CB BKN070 26/25 A2982 BECMG FM2330 5000 TSRA RMK CB/E/SE VCSH/S=
2020-08- 20 23:00:00,SKVV,METAR,METAR SKVV 202300Z 14005KT 9999 FEW023 BKN090 29/22 A2986=
2020-08- 20 23:00:00,SKPE,METAR,METAR SKPE 202300Z 10006KT 9999 VCSH FEW015TCU SCT080 22/21 A3000 RERA RMK TCU VCSH S/SW=
2020-08- 20 23:00:00,SKPC,METAR,METAR SKPC 202300Z VRB02K 9999 FEW017 SCT070 30/23 A2974 =
2020-08- 20 23:00:00,SKCL,METAR,METAR SKCL 202300Z 31014KT 9999 VCSH SCT023 SCT120 27/19 A2991 NOSIG RMK VCSH/N=
2020-08- 20 23:00:00,SKNV,METAR,METAR SKNV 202300Z 01006KT 9999 FEW043 SCT080 33/18 A2980=
2020-08- 20 23:00:00,SKRG,METAR,METAR SKRG 202300Z 10007KT 9999 FEW020CB SCT200 19/14 A3025 NOSIG RMK CB/N=
2020-08- 20 23:00:00,SKIB,METAR,METAR SKIB 202300Z 15003KT 9999 FEW030 26/22 A3000=
2020-08- 20 23:00:00,SKMR,METAR,METAR SKMR 202300Z 34003KT 9999 FEW015 SCT200 26/23 A2979=
2020-08- 20 23:00:00,SKAR,METAR,METAR SKAR 202300Z 04005KT 9999 BKN025 24/18 A2999 RETS=
2020-08- 20 23:00:00,SKLC,METAR,METAR SKLC 202300Z 21004KT 9999 FEW017 SCT090 28/24 A2981=
2020-08- 20 23:00:00,SKLT,METAR,METAR SKLT 202300Z 00000KT 9999  FEW020 SCT200 33/25 A2972=
2020-08- 20 23:00:00,SKCG,METAR,METAR SKCG 202300Z 28006KT 260V320 9999 FEW015 SCT200 29/25 A2981=
2020-08- 20 23:00:00,SKCC,METAR,METAR SKCC 202300Z 36008KT 340V040 9999 SCT023 31/21 A2983=
2020-08- 21 00:00:00,SKBO,METAR,METAR SKBO 210000Z 03003KT 9999 SCT020 SCT080 13/12 A3031 NOSIG=
2020-08- 21 00:00:00,SKPV,METAR,METAR SKPV 210000Z 33004KT 9999 FEW017 SCT080 27/25 A2982=
2020-08- 21 00:00:00,SKSP,METAR,METAR SKSP 210000Z 22003KT 190V250 9999 FEW014 OVC200 28/25 A2981=
2020-08- 21 00:00:00,SKUI,METAR,METAR SKUI 210000Z 28005KT 9999 BKN018 FEW020CB 26/24 A2982 RMK CB S/SW
2020-08- 21 00:00:00,SKLT,METAR,METAR SKLT 210000Z VRB02KT CAVOK 28/26 A2976=
2020-08- 21 00:00:00,SKBQ,METAR,METAR SKBQ 210000Z VRB02KT 9999 SCT015CB BKN070 26/26 A2985 BECMG 5000 TSRA RMK CB/E/SE=
2020-08- 21 00:00:00,SKRG,METAR,METAR SKRG 210000Z 08004KT 9999 VCSH SCT015TCU SCT200 18/15 A3025 NOSIG RMK TCU VCSH/N/SW=
2020-08- 21 00:00:00,SKCL,METAR,METAR SKCL 210000Z 31009KT 9999 FEW030 BKN120 25/18 A2993 NOSIG=
