"Fecha hora","Aeropuerto","Tipo Informe","Informe"
"2020-09-01 00:00:00","SKSP","METAR","METAR SKSP 010000Z 05007KT 9999 FEW018 SCT200 29/25 A2986="
"2020-09-01 01:00:00","SKSP","METAR","METAR SKSP 010100Z 04005KT 020V080 9999 FEW016 SCT200 29/25 A2988="
"2020-09-01 02:00:00","SKSP","METAR","METAR SKSP 010200Z 05005KT 9999 FEW016 SCT200 29/25 A2990="
"2020-09-01 03:00:00","SKSP","METAR","METAR SKSP 010300Z 04005KT 9999 FEW016 SCT200 29/25 A2992="
"2020-09-01 04:00:00","SKSP","METAR","METAR SKSP 010400Z VRB02KT 9999 SCT016 SCT200 28/24 A2992="
"2020-09-01 05:00:00","SKSP","METAR","METAR SKSP 010500Z 05008KT 020V080 9999 FEW016 SCT200 28/25 A2992="
"2020-09-01 07:00:00","SKSP","METAR","METAR SKSP 010700Z 010700Z 02004KT 9999 FEW016 SCT200 28/24 A2989="
"2020-09-01 08:00:00","SKSP","METAR","METAR SKSP 010800Z 03008KT 350V060 9999 SCT016 SCT20 28/25 A2987="
"2020-09-01 09:00:00","SKSP","METAR","METAR SKSP 010900Z 01007KT 350V050 9999 FEW016 27/23 A2986="
"2020-09-01 10:00:00","SKSP","METAR","METAR SKSP 011000Z 02006KT 010V070 9999 FEW016 27/23 A2986="
"2020-09-01 11:00:00","SKSP","METAR","METAR SKSP 011100Z 03004KT 9999 FEW016 28/25 A2987="
"2020-09-01 12:00:00","SKSP","METAR","METAR SKSP 011200Z 04007KT 9999 FEW016 28/24 A2987="
"2020-09-01 13:00:00","SKSP","METAR","METAR SKSP 011300Z 05007KT 9999 FEW018 29/24 A2989="
"2020-09-01 14:00:00","SKSP","METAR","METAR SKSP 011400Z 05007KT 9999 FEW018 SCT200 30/25 A2990="
"2020-09-01 15:00:00","SKSP","METAR","METAR SKSP 011500Z 04006KT 010V070 9999 FEW018 SCT200 31/24 A2990="
"2020-09-01 16:00:00","SKSP","METAR","METAR SKSP 011600Z 03006KT 340V080 9999 FEW018 SCT200 31/25 A2990="
"2020-09-01 17:00:00","SKSP","METAR","METAR SKSP 011700Z 01006KT 330V080 9999 FEW018 BKN200 31/26 A2989="
"2020-09-01 18:00:00","SKSP","METAR","METAR SKSP 011800Z 36006KT 330V040 9999 FEW018 SCT200 31/25 A2987="
"2020-09-01 19:00:00","SKSP","METAR","METAR SKSP 011900Z 36007KT 300V030 9999 FEW018 SCT200 31/25 A2986="
"2020-09-01 20:00:00","SKSP","METAR","METAR SKSP 012000Z 34005KT 320V040 9999 FEW018 SCT200 31/25 A2984="
"2020-09-01 21:00:00","SKSP","METAR","METAR SKSP 012100Z 36007KT 330V040 9999 FEW018 BKN200 31/24 A2982="
"2020-09-01 22:00:00","SKSP","METAR","METAR SKSP 012200Z 34007KT 310V030 9999 FEW017 BKN200 31/25 A2981="
"2020-09-01 23:00:00","SKSP","METAR","METAR SKSP 012300Z 35006KT 320V040 9999 FEW016 OVC200 30/24 A2982="
"2020-09-02 00:00:00","SKSP","METAR","METAR SKSP 020000Z 36006KT 320V030 9999 FEW018 BKN200 29/24 A2984="
"2020-09-02 01:00:00","SKSP","METAR","METAR SKSP 020100Z 35005KT 310V030 9999 FEW016 BKN200 29/25 A2985="
"2020-09-02 02:00:00","SKSP","METAR","METAR SKSP 020200Z 35003KT 300V030 9999 FEW016 SCT200 29/25 A2987="
"2020-09-02 03:00:00","SKSP","METAR","METAR SKSP 020300Z VRB02KT 9999 FEW014 SCT200 27/25 A2989="
"2020-09-02 04:00:00","SKSP","METAR","METAR SKSP 020400Z 36003KT 330V040 9999 FEW014 28/25 A2989="
"2020-09-02 05:00:00","SKSP","METAR","METAR SKSP 020500Z 01003KT 330V070 9999 FEW014 28/25 A2988="
"2020-09-02 06:00:00","SKSP","METAR","METAR SKSP 020600Z VRB02KT 9999 FEW014 27/25 A2987="
"2020-09-02 07:00:00","SKSP","METAR","METAR SKSP 020700Z 00000KT 9999 FEW012 27/25 A2985="
"2020-09-02 08:00:00","SKSP","METAR","METAR SKSP 020800Z 00000KT 9999 FEW012 27/25 A2984="
"2020-09-02 09:00:00","SKSP","METAR","METAR SKSP 020900Z VRB02KT 9999 SCT010 BKN200 26/25 A2982="
"2020-09-02 10:00:00","SKSP","METAR","METAR SKSP 021000Z 00000KT 9999 FEW010 BKN200 26/25 A2982="
"2020-09-02 11:00:00","SKSP","METAR","METAR SKSP 021100Z 00000KT 9999 FEW010 BKN200 25/24 A2982="
"2020-09-02 12:00:00","SKSP","METAR","METAR SKSP 021200Z VRB02KT 9999 FEW013 BKN200 26/25 A2982="
"2020-09-02 13:00:00","SKSP","METAR","METAR SKSP 021300Z VRB02KT 9999 FEW018 BKN200 29/25 A2984="
"2020-09-02 14:00:00","SKSP","METAR","METAR SKSP 021400Z 15004KT 100V250 9999 FEW017 SCT200 30/26 A2985="
"2020-09-02 15:00:00","SKSP","METAR","METAR SKSP 021500Z 24004KT 220V300 9999 SCT016 SCT200 29/25 A2986="
"2020-09-02 16:00:00","SKSP","METAR","METAR SKSP 021600Z VRB02KT 9999 SCT016 SCT200 29/26 A2984 REDZ="
"2020-09-02 17:00:00","SKSP","METAR","METAR SKSP 021700Z 17004KT 140V260 9999 SCT016 SCT200 29/25 A2984="
"2020-09-02 18:00:00","SKSP","METAR","METAR SKSP 021800Z 25004KT 230V320 9999 SCT018 SCT200 30/25 A2984="
"2020-09-02 19:00:00","SKSP","METAR","METAR SKSP 021900Z 27005KT 210V290 9999 FEW018 31/25 A2981="
"2020-09-02 20:00:00","SKSP","METAR","METAR SKSP 022000Z 26004KT 220V310 9999 SCT018 31/25 A2978="
"2020-09-02 21:00:00","SKSP","METAR","METAR SKSP 022100Z 25005KT 230V320 9999 SCT018 31/25 A2977="
"2020-09-02 22:00:00","SKSP","METAR","METAR SKSP 022200Z 27003KT 200V320 9999 FEW018 SCT090 31/24 A2976="
"2020-09-02 23:00:00","SKSP","METAR","METAR SKSP 022300Z 28003KT 240V340 9999 FEW018 BKN200 30/24 A2976="
"2020-09-03 00:00:00","SKSP","METAR","METAR SKSP 030000Z 27004KT 240V300 9999 TS FEW013CB SCT200 29/24 A2978 RMK CB/N/NE="
"2020-09-03 01:00:00","SKSP","METAR","METAR SKSP 030100Z 26004KT 230V310 9999 FEW015 SCT200 28/24 A2978 RETS="
"2020-09-03 02:00:00","SKSP","METAR","METAR SKSP 030200Z VRB02KT 9999 FEW015 SCT200 27/25 A2981="
"2020-09-03 03:00:00","SKSP","METAR","METAR SKSP 030300Z 01004KT 350V050 9999 FEW015 SCT200 28/25 A2984="
"2020-09-03 04:00:00","SKSP","METAR","METAR SKSP 030400Z 02004KT 350V060 9999 FEW015 SCT200 28/24 A2985="
"2020-09-03 05:00:00","SKSP","METAR","METAR SKSP 030500Z VRB02KT 9999 FEW014CB BKN200 26/25 A2984 RMK LTNG/NE/E="
"2020-09-03 06:00:00","SKSP","METAR","METAR SKSP 030600Z VRB02KT 9999 FEW014CB BKN200 26/25 A2982 RMK LTNG/NE="
"2020-09-03 07:00:00","SKSP","METAR","METAR SKSP 030700Z 05004KT 010V080 9999 FEW014 BKN200 26/25 A2981="
"2020-09-03 08:00:00","SKSP","METAR","METAR SKSP 030800Z VRB02KT 9999 FEW014 BKN200 26/25 A2979="
"2020-09-03 09:00:00","SKSP","METAR","METAR SKSP 030900Z 02004KT 350V050 9999 FEW014 BKN200 26/24 A2977="
"2020-09-03 10:00:00","SKSP","METAR","METAR SKSP 031000Z 03004KT 360V070 9999 FEW014 BKN200 27/24 A2977="
"2020-09-03 11:00:00","SKSP","METAR","METAR SKSP 031100Z 07004KT 030V090 9999 FEW014 SCT200 26/24 A2978="
"2020-09-03 12:00:00","SKSP","METAR","METAR SKSP 031200Z 03003KT 010V080 9999 FEW016 27/24 A2980="
"2020-09-03 13:00:00","SKSP","METAR","METAR SKSP 031300Z 05003KT 020V090 9999 SCT016 SCT200 28/24 A2981="
"2020-09-03 14:00:00","SKSP","METAR","METAR SKSP 031400Z 05004KT 9999 FEW018 SCT200 30/25 A2982="
"2020-09-03 15:00:00","SKSP","METAR","METAR SKSP 031500Z 05005KT 010V100 9999 FEW018 SCT200 30/25 A2983="
"2020-09-03 16:00:00","SKSP","METAR","METAR SKSP 031600Z 06004KT 010V130 9999 FEW018 SCT200 31/24 A2982="
"2020-09-03 17:00:00","SKSP","METAR","METAR SKSP 031700Z 08004KT 360V100 9999 FEW018 BKN200 31/24 A2982="
"2020-09-03 18:00:00","SKSP","METAR","METAR SKSP 031800Z 08005KT 020V140 9999 SCT018 SCT200 30/24 A2980="
"2020-09-03 19:00:00","SKSP","METAR","METAR SKSP 031900Z 11007KT 070V160 9999 SCT016TCU SCT200 28/25 A2979 REDZ RMK TCU/W="
"2020-09-03 20:00:00","SKSP","METAR","METAR SKSP 032000Z 16003KT 100V220 9999 SCT016TCU SCT200 29/25 A2976 RMK TCU/SW="
"2020-09-03 21:00:00","SKSP","METAR","METAR SKSP 032100Z VRB02KT 9999 FEW018 BKN200 31/25 A2974="
"2020-09-03 22:00:00","SKSP","METAR","METAR SKSP 032200Z 07003KT 010V130 9999 FEW018 BKN200 30/25 A2973="
"2020-09-03 23:00:00","SKSP","METAR","METAR SKSP 032300Z 06003KT 350V130 9999 FEW018 BKN200 29/24 A2975="
"2020-09-04 00:00:00","SKSP","METAR","METAR SKSP 040000Z VRB02KT 9999 FEW016 BKN200 28/25 A2976="