"Fecha hora","Aeropuerto","Tipo Informe","Informe"
"2020-08-18 00:00:00","SKCL","METAR","METAR SKCL 180000Z 05004KT 9999 FEW030 BKN120 23/18 A2995 NOSIG="
"2020-08-18 01:00:00","SKCL","METAR","METAR SKCL 180100Z 01006KT 9999 SCT030 BKN120 23/19 A2997 NOSIG="
"2020-08-18 02:00:00","SKCL","METAR","METAR SKCL 180200Z 01003KT 9999 FEW030 BKN120 23/18 A3000 NOSIG="
"2020-08-18 03:00:00","SKCL","METAR","METAR SKCL 180300Z 36003KT 9999 FEW030 BKN120 22/19 A3002 NOSIG="
"2020-08-18 04:00:00","SKCL","METAR","METAR SKCL 180400Z 01003KT 9999 SCT030 BKN100 22/19 A3004 NOSIG="
"2020-08-18 05:00:00","SKCL","METAR","METAR SKCL 180500Z 05005KT 9999 SCT030 BKN100 22/19 A3003 NOSIG="
"2020-08-18 06:00:00","SKCL","METAR","METAR SKCL 180600Z 33007KT 9999 FEW030 BKN100 23/19 A3000 NOSIG="
"2020-08-18 07:00:00","SKCL","METAR","METAR SKCL 180700Z 36004KT 9999 FEW030 BKN100 21/18 A2999 NOSIG="
"2020-08-18 08:00:00","SKCL","METAR","METAR SKCL 180800Z 07004KT 9999 SCT030 BKN100 21/18 A2999 NOSIG="
"2020-08-18 09:00:00","SKCL","METAR","METAR SKCL 180900Z VRB02KT 9999 FEW030 BKN100 21/18 A2999 NOSIG="
"2020-08-18 10:00:00","SKCL","METAR","METAR SKCL 181000Z 21003KT 9999 FEW030 BKN120 21/18 A2999 NOSIG="
"2020-08-18 10:30:00","SKCL","SPECI","SPECI SKCL 181030Z VRB02KT 9999 FEW040 BKN120 20/18 A3000 REDZ NOSIG="
"2020-08-18 11:00:00","SKCL","METAR","METAR SKCL 181100Z 19004KT 9999 FEW040 BKN120 20/19 A3001 NOSIG="
"2020-08-18 12:00:00","SKCL","METAR","METAR SKCL 181200Z 14004KT 8000 VCFG BKN040 20/19 A3003 REDZ NOSIG="
"2020-08-18 13:00:00","SKCL","METAR","METAR SKCL 181300Z 00000KT 6000 FEW017 23/20 A3005 NOSIG RMK HZ="
"2020-08-18 14:00:00","SKCL","METAR","METAR SKCL 181400Z 05003KT 360V100 8000 SCT017 25/21 A3005 NOSIG RMK HZ="
"2020-08-18 15:00:00","SKCL","METAR","METAR SKCL 181500Z 08004KT 020V160 9000 SCT020 27/22 A3004 NOSIG RMK HZ="
"2020-08-18 16:00:00","SKCL","METAR","METAR SKCL 181600Z 06004KT 360V150 9000 BKN027 28/21 A3002 NOSIG RMK HZ="
"2020-08-18 17:00:00","SKCL","METAR","METAR SKCL 181700Z 01004KT 300V080 9999 SCT027TCU SCT100 28/20 A3001 NOSIG RMK TCU W/NW="
"2020-08-18 18:00:00","SKCL","METAR","METAR SKCL 181800Z 29006KT 250V340 9999 -RA BKN027 27/19 A2998 NOSIG="
"2020-08-18 19:00:00","SKCL","METAR","METAR SKCL 181900Z 32004KT 290V010 9999 SCT027TCU SCT060 28/21 A2994 NOSIG RMK TCU/E="
"2020-08-18 20:00:00","SKCL","METAR","METAR SKCL 182000Z 33011KT 7000 VCSH SCT027TCU SCT080 28/19 A2993 NOSIG RMK TCU/VCSH E="
"2020-08-18 21:00:00","SKCL","METAR","METAR SKCL 182100Z 01010KT 8000 VCSH SCT027 BKN080 27/19 A2993 NOSIG RMK VCSH NE/E/SE="
"2020-08-18 22:00:00","SKCL","METAR","METAR SKCL 182200Z 33013KT 8000 VCSH SCT025 BKN100 26/19 A2994 NOSIG RMK VCSH N/NE/SE="
"2020-08-18 23:00:00","SKCL","METAR","METAR SKCL 182300Z 02008KT 8000 VCSH BKN030 SCT100 24/19 A2996 REDZ NOSIG RMK VCSH/NE="
"2020-08-19 00:00:00","SKCL","METAR","METAR SKCL 190000Z 36008KT 340V050 9999 SCT030 BKN100 23/19 A2999 NOSIG="
"2020-08-19 01:00:00","SKCL","METAR","METAR SKCL 190100Z 36007KT 9999 SCT030 BKN100 23/19 A2999 NOSIG="
"2020-08-19 02:00:00","SKCL","METAR","METAR SKCL 190200Z 06005KT 9999 FEW030 BKN100 22/18 A3002 NOSIG="
"2020-08-19 03:00:00","SKCL","METAR","METAR SKCL 190300Z 36008KT 9999 FEW030 BKN100 22/19 A3005 NOSIG="
"2020-08-19 04:00:00","SKCL","METAR","METAR SKCL 190400Z 03003KT 9999 SCT030 BKN100 22/19 A3006 NOSIG="
"2020-08-19 05:00:00","SKCL","METAR","METAR SKCL 190500Z VRB02KT 9999 SCT030 BKN100 21/19 A3005 NOSIG="
"2020-08-19 06:00:00","SKCL","METAR","METAR SKCL 190600Z 00000KT 9999 FEW030 BKN100 21/19 A3003 NOSIG="
"2020-08-19 07:00:00","SKCL","METAR","METAR SKCL 190700Z VRB02KT 9999 FEW030 BKN100 21/19 A3001 NOSIG="
"2020-08-19 08:00:00","SKCL","METAR","METAR SKCL 190800Z VRB02KT 9999 SCT030 BKN100 21/20 A2999 TEMPO DZ="
"2020-08-19 09:00:00","SKCL","METAR","METAR SKCL 190900Z VRB02KT 9999 SCT030 BKN100 21/19 A2999 TEMPO DZ="
"2020-08-19 10:00:00","SKCL","METAR","METAR SKCL 191000Z 06003KT 8000 -RA SCT025 BKN100 20/20 A3000 NOSIG="
"2020-08-19 10:30:00","SKCL","SPECI","SPECI SKCL 191030Z 08003KT 8000 -DZ SCT023 BKN100 20/19 A2999 RERA NOSIG="
"2020-08-19 11:00:00","SKCL","METAR","METAR SKCL 191100Z 09005KT 8000 DZ SCT023 BKN100 20/19 A3000 BECMG FM1200 NSW="
"2020-08-19 12:00:00","SKCL","METAR","METAR SKCL 191200Z VRB02KT 6000 -DZ FEW010 SCT025 OVC100 20/19 A3004 NOSIG="
"2020-08-19 13:00:00","SKCL","METAR","METAR SKCL 191300Z 06003KT 7000 VCSH FEW010 SCT020 OVC090 20/19 A3006 REDZ NOSIG="
"2020-08-19 14:00:00","SKCL","METAR","METAR SKCL 191400Z VRB02KT 9000 VCSH FEW010 SCT020 OVC090 21/19 A3007 NOSIG RMK VCSH NE/E/SE="
"2020-08-19 15:00:00","SKCL","METAR","METAR SKCL 191500Z VRB02KT 9999 VCSH SCT020 OVC090 21/20 A3009 NOSIG RMK VCSH N/E/SE="
"2020-08-19 16:00:00","SKCL","METAR","METAR SKCL 191600Z VRB02KT 9999 VCSH SCT010 OVC090 22/19 A3008 NOSIG RMK VCSH S="
"2020-08-19 17:00:00","SKCL","METAR","METAR SKCL 191700Z VRB02KT 9999 SCT015 OVC090 24/20 A3006 NOSIG="
"2020-08-19 18:00:00","SKCL","METAR","METAR SKCL 191800Z 18003KT 9999 BKN020 BKN090 25/20 A3002 NOSIG="
"2020-08-19 19:00:00","SKCL","METAR","METAR SKCL 191900Z 15003KT 9999 VCSH BKN020TCU BKN090 24/19 A2999 BECMG FM2000 TS BKN020CB BKN090="
"2020-08-19 20:00:00","SKCL","METAR","METAR SKCL 192000Z 06004KT 8000 -DZ BKN020TCU BKN090 23/20 A2997 NOSIG RMK TCU N/S="
"2020-08-19 21:00:00","SKCL","METAR","METAR SKCL 192100Z 34006KT 9000 VCSH BKN020CB BKN090 23/20 A2996 NOSIG="
"2020-08-19 22:00:00","SKCL","METAR","METAR SKCL 192200Z 03003KT 8000 DZ SCT020TCU OVC080 21/20 A2997 NOSIG RMK TCU S="
"2020-08-19 23:00:00","SKCL","METAR","METAR SKCL 192300Z VRB02KT 9999 VCSH FEW020 OVC080 22/20 A2998 REDZ NOSIG RMK VCSH SE="
"2020-08-20 00:00:00","SKCL","METAR","METAR SKCL 200000Z VRB03KT 9999 SCT020 BKN070 21/20 A3000 TEMPO DZ="
"2020-08-20 01:00:00","SKCL","METAR","METAR SKCL 200100Z 02004KT 9999 VCSH SCT020 BKN070 21/20 A3002 TEMPO DZ RMK VCSH/N="
"2020-08-20 02:00:00","SKCL","METAR","METAR SKCL 200200Z 01005KT 9999 SCT020 BKN070 21/20 A3004 TEMPO DZ="
"2020-08-20 03:00:00","SKCL","METAR","METAR SKCL 200300Z 00000KT 8000 VCSH SCT020 BKN070 21/20 A3008 TEMPO DZ RMK VCSH N/E="
"2020-08-20 04:00:00","SKCL","METAR","METAR SKCL 200400Z 26003KT 200V310 8000 -DZ SCT020 BKN070 21/20 A3009 TEMPO DZ="
"2020-08-20 05:00:00","SKCL","METAR","METAR SKCL 200500Z 01005KT 9999 SCT020 BKN070 20/19 A3007 REDZ TEMPO DZ="
"2020-08-20 06:00:00","SKCL","METAR","METAR SKCL 200600Z VRB02KT 9999 FEW020 SCT060 BKN100 20/19 A3005 NOSIG="
"2020-08-20 07:00:00","SKCL","METAR","METAR SKCL 200700Z 25003KT 220V280 9999 FEW020 SCT060 BKN100 20/19 A3005 NOSIG="
"2020-08-20 08:00:00","SKCL","METAR","METAR SKCL 200800Z 00000KT 9999 FEW004 SCT030 BKN100 20/19 A3004 BECMG FM0900 BKN004="
"2020-08-20 09:00:00","SKCL","METAR","METAR SKCL 200900Z 07003KT 030V100 6000 -RA BKN007 SCT080 20/20 A3004 NOSIG="
"2020-08-20 10:00:00","SKCL","METAR","METAR SKCL 201000Z 00000KT 7000 VCFG BKN010 SCT080 20/20 A3003 RERA NOSIG="
"2020-08-20 10:30:00","SKCL","SPECI","SPECI SKCL 201030Z VRB02KT 7000 VCFG BKN010 SCT080 20/20 A3005 NOSIG="
"2020-08-20 11:00:00","SKCL","METAR","METAR SKCL 201100Z 00000KT 7000 VCFG BKN010 20/20 A3006 NOSIG="
"2020-08-20 12:00:00","SKCL","METAR","METAR SKCL 201200Z VRB02KT 4000 BR SCT010 BKN090 20/20 A3006 NOSIG="
"2020-08-20 14:00:00","SKCL","METAR","METAR SKCL 201400Z VRB02KT 5000 BR SCT010 BKN090 21/20 A3008 BECMG FM1500 8000 NSW="
"2020-08-20 15:00:00","SKCL","METAR","METAR SKCL 201500Z VRB02KT 8000 SCT013 SCT100 23/21 A3008 NOSIG RMK HZ="
"2020-08-20 16:00:00","SKCL","METAR","METAR SKCL 201600Z VRB03KT 8000 BKN015 SCT100 25/22 A3006 NOSIG RMK HZ="
"2020-08-20 17:00:00","SKCL","METAR","METAR SKCL 201700Z VRB03KT 9999 SCT017 SCT120 27/23 A3004 NOSIG="
"2020-08-20 18:00:00","SKCL","METAR","METAR SKCL 201800Z VRB04KT 9999 SCT020 SCT120 29/21 A2999 NOSIG="
"2020-08-20 19:00:00","SKCL","METAR","METAR SKCL 201900Z VRB03KT 9999 SCT020 29/20 A2995 NOSIG="
"2020-08-20 20:00:00","SKCL","METAR","METAR SKCL 202000Z VRB04KT 9999 FEW023 SCT120 30/20 A2990 NOSIG="
"2020-08-20 21:00:00","SKCL","METAR","METAR SKCL 202100Z VRB05KT 9999 FEW023 SCT120 31/19 A2987 NOSIG="
"2020-08-20 22:00:00","SKCL","METAR","METAR SKCL 202200Z 32013KT 9999 VCSH SCT023 SCT120 29/19 A2988 NOSIG RMK VCSH/E="
"2020-08-20 23:00:00","SKCL","METAR","METAR SKCL 202300Z 31014KT 9999 VCSH SCT023 SCT120 27/19 A2991 NOSIG RMK VCSH/N="
"2020-08-21 00:00:00","SKCL","METAR","METAR SKCL 210000Z 31009KT 9999 FEW030 BKN120 25/18 A2993 NOSIG="