"Fecha hora","Aeropuerto","Tipo Informe","Informe"
"2020-09-01 00:00:00","SKBO","METAR","METAR SKBO 010000Z 24005KT 9999 VCSH BKN020 14/12 A3031 REDZ NOSIG RMK VCSH/S/N="
"2020-09-01 01:00:00","SKBO","METAR","METAR SKBO 010100Z 23007KT 9999 VCSH BKN020 13/09 A3034 NOSIG RMK VCSH/E="
"2020-09-01 02:00:00","SKBO","METAR","METAR SKBO 010200Z VRB02KT 9999 VCSH SCT020 SCT070 12/09 A3036 NOSIG RMK VCSH/NE="
"2020-09-01 03:00:00","SKBO","METAR","METAR SKBO 010300Z VRB02KT 9999 FEW020 BKN070 12/10 A3038 NOSIG="
"2020-09-01 04:00:00","SKBO","METAR","METAR SKBO 010400Z VRB02KT 9999 FEW020 BKN070 12/10 A3039 NOSIG="
"2020-09-01 05:00:00","SKBO","METAR","METAR SKBO 010500Z VRB02KT 9999 FEW020 BKN070 12/10 A3038 NOSIG="
"2020-09-01 06:00:00","SKBO","METAR","METAR SKBO 010600Z VRB02KT 9999 FEW020 BKN070 11/10 A3036 NOSIG="
"2020-09-01 07:00:00","SKBO","METAR","METAR SKBO 010700Z 07003KT 9999 FEW020 BKN070 11/10 A3034 NOSIG="
"2020-09-01 08:00:00","SKBO","METAR","METAR SKBO 010800Z 05003KT 9999 SCT020 BKN070 12/10 A3034 NOSIG="
"2020-09-01 09:00:00","SKBO","METAR","METAR SKBO 010900Z VRB02KT 9999 SCT020 11/10 A3033 NOSIG="
"2020-09-01 10:00:00","SKBO","METAR","METAR SKBO 011000Z 34003KT 9999 SCT020 11/09 A3034 NOSIG="
"2020-09-01 10:30:00","SKBO","SPECI","SPECI SKBO 011030Z 02003KT 9999 SCT020 11/09 A3034 NOSIG="
"2020-09-01 11:00:00","SKBO","METAR","METAR SKBO 011100Z VRB02KT 9999 SCT020 10/09 A3040 NOSIG="
"2020-09-01 12:00:00","SKBO","METAR","METAR SKBO 011200Z 11004KT 9999 SCT020 SCT200 13/10 A3037 NOSIG="
"2020-09-01 13:00:00","SKBO","METAR","METAR SKBO 011300Z 14007KT 9999 FEW017 BKN025 15/08 A3039 NOSIG="
"2020-09-01 14:00:00","SKBO","METAR","METAR SKBO 011400Z 16007KT 9999 FEW017 SCT025 18/09 A3039 NOSIG="
"2020-09-01 15:00:00","SKBO","METAR","METAR SKBO 011500Z 16006KT 9999 BKN020 SCT200 18/07 A3040 NOSIG="
"2020-09-01 16:00:00","SKBO","METAR","METAR SKBO 011600Z 17009KT 140V200 9999 BKN020 SCT080 17/08 A3039 NOSIG="
"2020-09-01 17:00:00","SKBO","METAR","METAR SKBO 011700Z 18009KT 9999 BKN020 SCT080 17/08 A3037 NOSIG="
"2020-09-01 18:00:00","SKBO","METAR","METAR SKBO 011800Z 07004KT 9999 SCT020 SCT080 19/09 A3033 NOSIG="
"2020-09-01 19:00:00","SKBO","METAR","METAR SKBO 011900Z 19005KT 9999 BKN023 20/07 A3029 NOSIG="
"2020-09-01 20:00:00","SKBO","METAR","METAR SKBO 012000Z 23006KT 9999 SCT023 20/09 A3026 NOSIG="
"2020-09-01 21:00:00","SKBO","METAR","METAR SKBO 012100Z 24010KT 9999 SCT023TCU 19/11 A3024 NOSIG RMK TCU/SE="
"2020-09-01 22:00:00","SKBO","METAR","METAR SKBO 012200Z 24009KT 9999 FEW023TCU BKN200 18/10 A3024 NOSIG RMK TCU/E="
"2020-09-01 23:00:00","SKBO","METAR","METAR SKBO 012300Z 25008KT 9999 FEW020 BKN200 16/11 A3026 NOSIG="
"2020-09-02 00:00:00","SKBO","METAR","METAR SKBO 020000Z 28007KT 9999 BKN017 SCT080 15/12 A3030 NOSIG="
"2020-09-02 00:15:00","SKBO","SPECI","SPECI SKBO 020015Z 29008KT 9999 -TSRA FEW015CB BKN017 15/12 A3030 NOSIG RMK CB/NE="
"2020-09-02 01:00:00","SKBO","METAR","METAR SKBO 020100Z 25006KT 9999 -DZ BKN017 BKN070 14/11 A3031 RETSRA NOSIG="
"2020-09-02 02:00:00","SKBO","METAR","METAR SKBO 020200Z 27004KT 9999 -DZ BKN017 SCT070 14/11 A3034 NOSIG="
"2020-09-02 03:00:00","SKBO","METAR","METAR SKBO 020300Z 35004KT 9999 BKN017 SCT070 13/11 A3036 REDZ NOSIG="
"2020-09-02 04:00:00","SKBO","METAR","METAR SKBO 020400Z VRB02KT 9999 SCT017 BKN070 13/11 A3034 NOSIG="
"2020-09-02 05:00:00","SKBO","METAR","METAR SKBO 020500Z VRB02KT 9999 SCT017 BKN070 12/11 A3035 NOSIG="
"2020-09-02 06:00:00","SKBO","METAR","METAR SKBO 020600Z VRB02KT 9999 SCT017 BKN070 12/12 A3030 NOSIG="
"2020-09-02 07:00:00","SKBO","METAR","METAR SKBO 020700Z VRB02KT 9999 BKN017 SCT070 12/11 A3032 NOSIG="
"2020-09-02 08:00:00","SKBO","METAR","METAR SKBO 020800Z 28004KT 9999 SCT017 BKN070 13/11 A3029 NOSIG="
"2020-09-02 09:00:00","SKBO","METAR","METAR SKBO 020900Z VRB02KT 9999 BKN017 BKN070 12/11 A3030 NOSIG="
"2020-09-02 10:00:00","SKBO","METAR","METAR SKBO 021000Z VRB02KT 9999 SCT017 BKN070 12/11 A3031 NOSIG="
"2020-09-02 10:30:00","SKBO","SPECI","SPECI SKBO 021030Z 30004KT 9999 SCT017 SCT070 12/11 A3031 NOSIG="
"2020-09-02 11:00:00","SKBO","METAR","METAR SKBO 021100Z VRB02KT 9999 SCT017 SCT070 12/11 A3032 NOSIG="
"2020-09-02 11:10:00","SKBO","SPECI","SPECI SKBO 021110Z 30003KT 7000 -RA BKN017 SCT070 12/11 A3031 NOSIG="
"2020-09-02 12:00:00","SKBO","METAR","METAR SKBO 021200Z 31005KT 7000 -RA BKN017 SCT070 12/11 A3033 NOSIG="
"2020-09-02 13:00:00","SKBO","METAR","METAR SKBO 021300Z 32004KT 8000 -DZ BKN017 SCT070 13/11 A3035 RERA NOSIG="
"2020-09-02 14:00:00","SKBO","METAR","METAR SKBO 021400Z 31003KT 9999 -DZ SCT017 BKN070 13/11 A3037 NOSIG="
"2020-09-02 15:00:00","SKBO","METAR","METAR SKBO 021500Z 33003KT 9999 VCSH BKN017 15/12 A3037 REDZ NOSIG RMK VCSH/SE/S="
"2020-09-02 16:00:00","SKBO","METAR","METAR SKBO 021600Z 26004KT 9999 VCSH BKN017 17/10 A3036 NOSIG RMK VCSH/SE="
"2020-09-02 17:00:00","SKBO","METAR","METAR SKBO 021700Z 27011KT 8000 VCSH BKN017TCU SCT070 16/10 A3033 BECMG FM1720 5000 RA BKN017CB RMK TCU VCSH/E/SE="
"2020-09-02 17:30:00","SKBO","SPECI","SPECI SKBO 021730Z 22010KT 9999 4000SE -RA BKN017TCU 14/11 A3032 NOSIG RMK TCU/E/SE="
"2020-09-02 18:00:00","SKBO","METAR","METAR SKBO 021800Z 22006KT 6000 -RA BKN017 14/11 A3032 NOSIG="
"2020-09-02 18:30:00","SKBO","SPECI","SPECI SKBO 021830Z 22005KT 8000 VCSH SCT017 BKN090 14/11 A3032 RERA NOSIG RMK VCSH/E/SE="
"2020-09-02 19:00:00","SKBO","METAR","METAR SKBO 021900Z 22004KT 9999 VCSH SCT017 BKN090 15/11 A3029 RERA NOSIG RMK VCSH/NE/SE="
"2020-09-02 20:00:00","SKBO","METAR","METAR SKBO 022000Z 23007KT 9999 VCSH BKN017TCU SCT090 15/11 A3026 NOSIG RMK TCU VCSH/SE/S="
"2020-09-02 21:00:00","SKBO","METAR","METAR SKBO 022100Z 23006KT 9999 -DZ SCT017TCU BKN090 14/10 A3024 NOSIG RMK TCU/NE="
"2020-09-02 22:00:00","SKBO","METAR","METAR SKBO 022200Z 25003KT 9999 VCSH FEW017 BKN090 14/11 A3024 REDZ NOSIG RMK VCSH/NE/S="
"2020-09-02 23:00:00","SKBO","METAR","METAR SKBO 022300Z 29003KT 9999 VCSH FEW017 BKN090 14/09 A3026 NOSIG RMK VCSH/NE/S="
"2020-09-03 00:00:00","SKBO","METAR","METAR SKBO 030000Z 02004KT 9999 FEW015 BKN080 12/10 A3028 NOSIG="
"2020-09-03 01:00:00","SKBO","METAR","METAR SKBO 030100Z VRB02KT 9999 FEW015 SCT030 BKN080 12/11 A3031 NOSIG="
"2020-09-03 02:00:00","SKBO","METAR","METAR SKBO 030200Z 00000KT 9999 VCSH FEW015 SCT030 BKN080 12/11 A3033 NOSIG RMK VCSH/S="
"2020-09-03 03:00:00","SKBO","METAR","METAR SKBO 030300Z VRB02KT 9999 VCSH SCT015 BKN070 12/11 A3035 NOSIG RMK VCSH/S="
"2020-09-03 04:00:00","SKBO","METAR","METAR SKBO 030400Z 35003KT 9999 VCSH BKN015 BKN070 12/11 A3035 NOSIG RMK VCSH/S="
"2020-09-03 05:00:00","SKBO","METAR","METAR SKBO 030500Z VRB02KT 8000 -DZ BKN015 BKN070 12/11 A3034 TEMPO FM0540 DZ="
"2020-09-03 06:00:00","SKBO","METAR","METAR SKBO 030600Z 02004KT 8000 -DZ BKN015 BKN070 12/11 A3033 NOSIG="
"2020-09-03 07:00:00","SKBO","METAR","METAR SKBO 030700Z VRB02KT 9999 -DZ BKN015 BKN070 12/11 A3031 NOSIG="
"2020-09-03 08:00:00","SKBO","METAR","METAR SKBO 030800Z VRB02KT 9999 -DZ SCT012 BKN070 12/11 A3029 NOSIG="
"2020-09-03 09:00:00","SKBO","METAR","METAR SKBO 030900Z VRB02KT 8000 -DZ SCT012 OVC070 12/11 A3029 NOSIG="
"2020-09-03 10:00:00","SKBO","METAR","METAR SKBO 031000Z 00000KT 9999 VCSH FEW005 SCT012 BKN070 11/10 A3028 REDZ NOSIG RMK VCSH/SE/S="
"2020-09-03 10:30:00","SKBO","SPECI","SPECI SKBO 031030Z VRB02KT 9999 FEW005 SCT015 11/10 A3029 NOSIG="
"2020-09-03 11:00:00","SKBO","METAR","METAR SKBO 031100Z VRB02KT 7000 VCFG FEW015 SCT070 11/10 A3029 NOSIG="
"2020-09-03 12:00:00","SKBO","METAR","METAR SKBO 031200Z 04005KT 7000 VCFG FEW010 12/11 A3030 NOSIG="
"2020-09-03 13:00:00","SKBO","METAR","METAR SKBO 031300Z 29004KT 8000 VCFG SCT010 14/12 A3032 NOSIG="
"2020-09-03 14:00:00","SKBO","METAR","METAR SKBO 031400Z 10004KT 9000 BKN015 15/10 A3034 NOSIG RMK HZ="
"2020-09-03 15:00:00","SKBO","METAR","METAR SKBO 031500Z 11003KT 9000 SCT020 17/09 A3033 NOSIG RMK HZ="
"2020-09-03 16:00:00","SKBO","METAR","METAR SKBO 031600Z 15011KT 9999 SCT020 18/08 A3032 NOSIG="
"2020-09-03 17:00:00","SKBO","METAR","METAR SKBO 031700Z 16014KT 9999 SCT023 19/07 A3030 NOSIG="
"2020-09-03 18:00:00","SKBO","METAR","METAR SKBO 031800Z 18012KT 9999 SCT023 20/08 A3027 NOSIG="
"2020-09-03 19:00:00","SKBO","METAR","METAR SKBO 031900Z 18010KT 9999 SCT023 20/07 A3023 NOSIG="
"2020-09-03 20:00:00","SKBO","METAR","METAR SKBO 032000Z 19009KT 9999 SCT023 20/08 A3020 NOSIG="
"2020-09-03 21:00:00","SKBO","METAR","METAR SKBO 032100Z 16010KT 9999 SCT023 19/07 A3020 NOSIG="
"2020-09-03 22:00:00","SKBO","METAR","METAR SKBO 032100Z 25009KT 9999 SCT023 17/12 A3021 NOSIG="
"2020-09-03 23:00:00","SKBO","METAR","METAR SKBO 032300Z 23009KT 9999 SCT023 BKN200 16/11 A3022 NOSIG="
"2020-09-04 00:00:00","SKBO","METAR","METAR SKBO 040000Z 23004KT 9999 FEW023 SCT200 15/10 A3026 NOSIG="