"Fecha hora","Aeropuerto","Tipo Informe","Informe"
"2020-09-01 11:00:00","SKMD","METAR","METAR SKMD 011100Z 20006KT 9999 5000S -DZ HZ SCT020 BKN100 18/17 A3013="
"2020-09-01 12:00:00","SKMD","METAR","METAR SKMD 011200Z 19008KT 9999 6000N BKN030 SCT100 19/16 A3017 REDZ RMK HZ="
"2020-09-01 13:00:00","SKMD","METAR","METAR SKMD 011300Z 36006KT 9000 6000N SCT020 BKN100 20/16 A3019 RMK HZ="
"2020-09-01 14:00:00","SKMD","METAR","METAR SKMD 011400Z 00000KT 8000 FEW020 SCT100 22/16 A3019 RMK HZ="
"2020-09-01 15:00:00","SKMD","METAR","METAR SKMD 011500Z 00000KT 9999 FEW030 24/16 A3018="
"2020-09-01 16:00:00","SKMD","METAR","METAR SKMD 011600Z 12006KT 9999 FEW035 26/16 A3016="
"2020-09-01 17:00:00","SKMD","METAR","METAR SKMD 011700Z 36008KT 9999 FEW040CB 27/16 A3013 RMK CB/SE/S="
"2020-09-01 18:00:00","SKMD","METAR","METAR SKMD 011800Z 18014KT 9999 FEW040CB SCT100 27/16 A3009 RMK CB/E/SE="
"2020-09-01 19:00:00","SKMD","METAR","METAR SKMD 011900Z 18016KT 9999 VCSH SCT040CB SCT100 23/17 A3007 RMK CB VCSH/NE="
"2020-09-01 20:00:00","SKMD","METAR","METAR SKMD 012000Z 36008KT 9999 -DZ FEW040CB SCT100 22/17 A3004 RMK CB/N/SE VCSH/N="
"2020-09-01 21:00:00","SKMD","METAR","METAR SKMD 012100Z 03007KT 9999 FEW040CB SCT100 24/17 A3002 REDZ RMK CB/E/SE="
"2020-09-01 22:00:00","SKMD","METAR","METAR SKMD 012200Z 00000KT 9999 VCSH SCT040CB SCT100 26/16 A3002 RMK CB VCSH/N/S="
"2020-09-01 23:00:00","SKMD","METAR","METAR SKMD 012300Z 00000KT 9999 SCT040CB SCT100 22/17 A3006 REDZ RMK CB/NW/N="
"2020-09-02 11:00:00","SKMD","METAR","METAR SKMD 021100Z 25003KT 9999 -DZ FEW020 OVC080 17/16 A3018="
"2020-09-02 12:00:00","SKMD","METAR","METAR SKMD 021200Z VRB02KT 9999 6000S -DZ SCT020 OVC070 17/16 A3019="
"2020-09-02 13:00:00","SKMD","METAR","METAR SKMD 021300Z 00000KT 9999 6000S -DZ SCT020 OVC080 17/16 A3021="
"2020-09-02 14:00:00","SKMD","METAR","METAR SKMD 021400Z 00000KT 9999 7000S -DZ SCT020 OVC100 19/16 A3022="
"2020-09-02 15:00:00","SKMD","METAR","METAR SKMD 021500Z 05003KT 9999 SCT020 OVC120 20/16 A3021 REDZ="
"2020-09-02 16:00:00","SKMD","METAR","METAR SKMD 021600Z 09003KT 9999 SCT025TCU OVC200 22/16 A3020 RMK TCU/N="
"2020-09-02 17:00:00","SKMD","METAR","METAR SKMD 021700Z VRB02KT 9999 FEW030 OVC070 23/16 A3017="
"2020-09-02 18:00:00","SKMD","METAR","METAR SKMD 021800Z 03004KT 9999 VCSH FEW030 OVC080 24/16 A3014 RMK VCSH/E="
"2020-09-02 19:00:00","SKMD","METAR","METAR SKMD 021900Z 30007KT 9999 FEW030 BKN080 25/15 A3010="
"2020-09-02 20:00:00","SKMD","METAR","METAR SKMD 022000Z 19004KT 9999 VCSH SCT030CB BKN080 24/14 A3007 RMK CB VCSH/E/N="
"2020-09-02 21:00:00","SKMD","METAR","METAR SKMD 022100Z 30004KT 9999 VCSH SCT030CB BKN080 25/14 A3004 RETS RMK CB VCSH/S/N="
"2020-09-02 22:00:00","SKMD","METAR","METAR SKMD 022200Z 01010KT 9999 TS SCT030CB BKN080 23/16 A3004 RMK CB VCSH/S/N="
"2020-09-02 23:00:00","SKMD","METAR","METAR SKMD 022300Z 20006KT 9999 7000S VCSH SCT030CB SCT080 21/16 A3007 RETS RMK CB VCSH/S/N="
"2020-09-03 11:00:00","SKMD","METAR","METAR SKMD 031100Z 17004KT 9999 SCT015 BKN080 18/15 A3010="
"2020-09-03 12:00:00","SKMD","METAR","METAR SKMD 031200Z 12003KT  9999  SCT015 BKN100 19/16 A3012="
"2020-09-03 13:00:00","SKMD","METAR","METAR SKMD 031300Z VRB02KT 9999 SCT015 BKN200 21/16 A3014="
"2020-09-03 14:00:00","SKMD","METAR","METAR SKMD 031400Z VRB02KT 9999 SCT020 BKN200 22/16 A3015="
"2020-09-03 15:00:00","SKMD","METAR","METAR SKMD 031500Z VRB02KT 9999 SCT030 BKN200 25/16 A3012="
"2020-09-03 16:00:00","SKMD","METAR","METAR SKMD 031600Z VRB02KT 9999 SCT033 SCT200 26/15 A3010="
"2020-09-03 17:00:00","SKMD","METAR","METAR SKMD 031700Z VRB02KT 9999 SCT035 SCT200 26/15 A3007="
"2020-09-03 18:00:00","SKMD","METAR","METAR SKMD 031800Z 15004KT 9999 VCSH SCT035TCU SCT200 27/14 A3002 RMK TCU VCSH NE/SE="
"2020-09-03 18:30:00","SKMD","SPECI","SPECI SKMD 031830Z 18007KT 9999 TS SCT035CB BKN080 25/15 A3000 RMK CB VCSH NE/SE="
"2020-09-03 19:00:00","SKMD","METAR","SPECI SKMD 031900Z 17018KT 6000 -TSRA BKN030 22/15 A3000 RMK CB N/S="
"2020-09-03 19:30:00","SKMD","SPECI","SPECI SKMD 031930Z 30005KT 8000 -TSRA SCT030CB BKN070 18/18 A3004 RMK CB NE/NW="
"2020-09-03 20:00:00","SKMD","METAR","METAR SKMD 032000Z 02005KT 9999 -TSRA SCT030CB BKN080 19/18 A3004 RMK CB N/NW="
"2020-09-03 21:00:00","SKMD","METAR","METAR SKMD 032100Z VRB02KT 9999 VCSH SCT023 BKN080 19/17 A3004 RETSRA RMK VCSH NW/SE="
"2020-09-03 22:00:00","SKMD","METAR","METAR SKMD 032200Z VRB02KT 9999 SCT015 BKN200 20/16 A3002="
"2020-09-03 23:00:00","SKMD","METAR","METAR SKMD 032300Z VRB02KT 9999  FEW030 SCT080 BKN200 20/17 A3003="