"Fecha hora","Aeropuerto","Tipo Informe","Informe"
"2020-09-01 00:00:00","SKBQ","METAR","METAR SKBQ 010000Z 35006KT 9999 FEW015 28/24 A2983 NOSIG="
"2020-09-01 01:00:00","SKBQ","METAR","METAR SKBQ 010100Z 34005KT 9999 FEW015 27/24 A2984 NOSIG="
"2020-09-01 02:00:00","SKBQ","METAR","METAR SKBQ 010200Z 35005KT 9999 FEW015 27/25 A2987 NOSIG="
"2020-09-01 03:00:00","SKBQ","METAR","METAR SKBQ 010300Z 34005KT 9999 FEW015 27/25 A2987 NOSIG="
"2020-09-01 04:00:00","SKBQ","METAR","METAR SKBQ 010400Z 34004KT 9999 FEW015 27/25 A2987 NOSIG="
"2020-09-01 05:00:00","SKBQ","METAR","METAR SKBQ 010500Z 35004KT 9999 FEW015 27/25 A2987 NOSIG="
"2020-09-01 06:00:00","SKBQ","METAR","METAR SKBQ 010600Z VRB02KT 9999 FEW015 26/24 A2985 NOSIG="
"2020-09-01 07:00:00","SKBQ","METAR","METAR SKBQ 010700Z VRB02KT 9999 FEW015 26/24 A2983 NOSIG="
"2020-09-01 08:00:00","SKBQ","METAR","METAR SKBQ 010800Z VRB02KT CAVOK 25/24 A2983 NOSIG="
"2020-09-01 09:00:00","SKBQ","METAR","METAR SKBQ 010900Z 00000KT 9999 FEW015 25/24 A2983 NOSIG="
"2020-09-01 10:00:00","SKBQ","METAR","METAR SKBQ 011000Z VRB02KT 9999 FEW015 24/24 A2984 NOSIG="
"2020-09-01 11:00:00","SKBQ","METAR","METAR SKBQ 011100Z VRB03KT 9999 FEW015 24/24 A2985 NOSIG="
"2020-09-01 12:00:00","SKBQ","METAR","METAR SKBQ 011200Z VRB01KT 8000 NSC 26/25 A2985 NOSIG RMK HZ="
"2020-09-01 13:00:00","SKBQ","METAR","METAR SKBQ 011300Z 02004KT 9999 FEW015 29/25 A2987 NOSIG="
"2020-09-01 14:00:00","SKBQ","METAR","METAR SKBQ 011400Z 02005KT 9999 FEW015 30/24 A2987 NOSIG="
"2020-09-01 15:00:00","SKBQ","METAR","METAR SKBQ 011500Z VRB02KT 9999 SCT015 30/25 A2987 NOSIG="
"2020-09-01 16:00:00","SKBQ","METAR","METAR SKBQ 011600Z 03007KT 9999 SCT015 31/24 A2985 NOSIG="
"2020-09-01 17:00:00","SKBQ","METAR","METAR SKBQ 011700Z 01007KT 9999 SCT015 31/24 A2984 NOSIG="
"2020-09-01 18:00:00","SKBQ","METAR","METAR SKBQ 011800Z 36004KT 9999  SCT015 31/24 A2982 NOSIG="
"2020-09-01 19:00:00","SKBQ","METAR","METAR SKBQ 011900Z 35007KT 9999 SCT015 32/25 A2979 NOSIG="
"2020-09-01 20:00:00","SKBQ","METAR","METAR SKBQ 012000Z 35007KT 310V020 9999 SCT015 32/25 A2977 NOSIG="
"2020-09-01 21:00:00","SKBQ","METAR","METAR SKBQ 012100Z 35007KT 320V030 9999 SCT015 SCT200 30/24 A2976 NOSIG="
"2020-09-01 22:00:00","SKBQ","METAR","METAR SKBQ 012200Z 35006KT 310V030 9999 SCT015 SCT200 30/24 A2978 NOSIG="
"2020-09-01 23:00:00","SKBQ","METAR","METAR SKBQ 012300Z 35007KT 290V030 9999 FEW015 29/24 A2980 NOSIG="
"2020-09-02 00:00:00","SKBQ","METAR","METAR SKBQ 020000Z 36004KT 9999 FEW015 28/25 A2982 NOSIG="
"2020-09-02 01:00:00","SKBQ","METAR","METAR SKBQ 020100Z 34004KT 300V010 9999 FEW015 28/25 A2983 NOSIG="
"2020-09-02 02:00:00","SKBQ","METAR","METAR SKBQ 020200Z 34004KT 300V020 9999 SCT015 28/25 A2985 NOSIG="
"2020-09-02 03:00:00","SKBQ","METAR","METAR SKBQ 020300Z 35004KT 310V020 9999 FEW015 28/25 A2988 NOSIG="
"2020-09-02 04:00:00","SKBQ","METAR","METAR SKBQ 020400Z VRB02KT 9999 FEW015 28/25 A2988 NOSIG="
"2020-09-02 05:00:00","SKBQ","METAR","METAR SKBQ 020500Z 34004KT 300V010 9999 FEW015 28/25 A2987 NOSIG="
"2020-09-02 06:00:00","SKBQ","METAR","METAR SKBQ 020600Z 35004KT 9999 FEW015 27/24 A2984 NOSIG="
"2020-09-02 07:00:00","SKBQ","METAR","METAR SKBQ 020700Z 33003KT 9999 FEW015 27/25 A2982 NOSIG="
"2020-09-02 08:00:00","SKBQ","METAR","METAR SKBQ 020800Z VRB02KT 9999  FEW015 27/25 A2980 NOSIG="
"2020-09-02 09:00:00","SKBQ","METAR","METAR SKBQ 020900Z VRB02KT 9999 FEW015 26/25 A2979 NOSIG="
"2020-09-02 10:00:00","SKBQ","METAR","METAR SKBQ 021000Z 28002KT 9999 FEW015 25/25 A2982 NOSIG="
"2020-09-02 11:00:00","SKBQ","METAR","METAR SKBQ 021100Z VRB02KT 8000 SCT012 26/25 A2983 NOSIG="
"2020-09-02 12:00:00","SKBQ","METAR","METAR SKBQ 021200Z 18003KT 9999 SCT012 27/26 A2985 NOSIG="
"2020-09-02 13:00:00","SKBQ","METAR","METAR SKBQ 021300Z 20007KT 9999 SCT012 28/26 A2987 NOSIG="
"2020-09-02 14:00:00","SKBQ","METAR","METAR SKBQ 021400Z 20009KT BKN015 27/25 A2988 NOSIG="
"2020-09-02 15:00:00","SKBQ","METAR","METAR SKBQ 021500Z 19010KT 9999 SCT015TCU SCT200 27/25 A2989 NOSIG RMK TCU/NW="
"2020-09-02 16:00:00","SKBQ","METAR","METAR SKBQ 021600Z 16011KT 9999 SCT015CB SCT200 29/24 A2989 NOSIG RMK CB/NW="
"2020-09-02 17:00:00","SKBQ","METAR","METAR SKBQ 021700Z 20006KT 130V220 9999 SCT015 SCT200 30/25 A2985 NOSIG="
"2020-09-02 18:00:00","SKBQ","METAR","METAR SKBQ 021800Z 19010KT 150V210 9999 FEW015 BKN200 30/24 A2982 NOSIG="
"2020-09-02 19:00:00","SKBQ","METAR","METAR SKBQ 021900Z 21009KT 160V230 9999 SCT015 BKN200 31/24 A2979 NOSIG="
"2020-09-02 20:00:00","SKBQ","METAR","METAR SKBQ 022000Z 11010KT 9999 VCSH BKN015TCU BKN200 30/23 A2978 NOSIG RMK TCU/VCSH/NE="
"2020-09-02 21:00:00","SKBQ","METAR","METAR SKBQ 022100Z 12010KT 9999 VCSH SCT015TCU BKN200 29/24 A2976 NOSIG RMK TCU/VCSH/NW="
"2020-09-02 22:00:00","SKBQ","METAR","METAR SKBQ 022200Z 09008KT 070V140 9999 FEW015 BKN090 28/24 A2976 NOSIG="
"2020-09-02 23:00:00","SKBQ","METAR","METAR SKBQ 022300Z 11006KT 9999 FEW015 BKN070 27/24 A2977 NOSIG="
"2020-09-03 00:00:00","SKBQ","METAR","METAR SKBQ 030000Z VRB04KT 9999 FEW015 SCT070 27/24 A2980 NOSIG="
"2020-09-03 01:00:00","SKBQ","METAR","METAR SKBQ 030100Z VRB02KT 9999 FEW015 SCT070 25/24 A2983 NOSIG="
"2020-09-03 02:00:00","SKBQ","METAR","METAR SKBQ 030200Z 00000KT 9999 SCT015 26/24 A2985 NOSIG="
"2020-09-03 03:00:00","SKBQ","METAR","METAR SKBQ 030300Z VRB02KT 9999 SCT015 26/24 A2986 NOSIG="
"2020-09-03 04:00:00","SKBQ","METAR","METAR SKBQ 030400Z VRB02KT 9999 FEW015 25/24 A2986 NOSIG="
"2020-09-03 05:00:00","SKBQ","METAR","METAR SKBQ 030500Z VRB02KT 9999 FEW015 25/24 A2985 NOSIG="
"2020-09-03 06:00:00","SKBQ","METAR","METAR SKBQ 030600Z 23004KT 9999 FEW015 SCT070 25/24 A2985 NOSIG="
"2020-09-03 07:00:00","SKBQ","METAR","METAR SKBQ 030700Z 22004KT 9999 SCT015 SCT070 25/24 A2982 NOSIG="
"2020-09-03 08:00:00","SKBQ","METAR","METAR SKBQ 030800Z 00000KT 9999 SCT015 SCT070 25/24 A2980 NOSIG="
"2020-09-03 09:00:00","SKBQ","METAR","METAR SKBQ 030900Z 24004KT 9999 SCT015 SCT070 25/24 A2979 NOSIG="
"2020-09-03 10:00:00","SKBQ","METAR","METAR SKBQ 031000Z 25004KT 9999 FEW015 24/23 A2980 NOSIG="
"2020-09-03 11:00:00","SKBQ","METAR","METAR SKBQ 031100Z 00000KT 9999 FEW015 24/23 A2982 NOSIG="
"2020-09-03 12:00:00","SKBQ","METAR","METAR SKBQ 031200Z VRB01KT 9999 FEW015 26/24 A2982 NOSIG="
"2020-09-03 13:00:00","SKBQ","METAR","METAR SKBQ 031300Z VRB01KT 9999 FEW015 SCT070 29/24 A2985 NOSIG="
"2020-09-03 14:00:00","SKBQ","METAR","METAR SKBQ 031400Z 19003KT 9999 SCT015 28/24 A2985 NOSIG="
"2020-09-03 15:00:00","SKBQ","METAR","METAR SKBQ 031500Z VRB02KT 9999 SCT015 SCT200 31/25 A2984 NOSIG="
"2020-09-03 16:00:00","SKBQ","METAR","METAR SKBQ 031600Z 11005KT 9999 SCT015 SCT200 30/24 A2984 NOSIG="
"2020-09-03 17:00:00","SKBQ","METAR","METAR SKBQ 031700Z 06004KT 9999 SCT015 31/23 A2981 NOSIG="
"2020-09-03 18:00:00","SKBQ","METAR","METAR SKBQ 031800Z 36005KT 300V050 9999 SCT015 31/24 A2978 NOSIG="
"2020-09-03 19:00:00","SKBQ","METAR","METAR SKBQ 031900Z 03004KT 280V090 9999 VCSH SCT015 FEW020CB 31/24 A2976 TEMPO 5000 RA RMK CB VCSH /W="
"2020-09-03 19:26:00","SKBQ","SPECI","SPECI SKBQ 031926Z VRB05KT 1000 +RA BKN010 FEW015CB 27/24 A2975 TEMPO 3000 TSRA="
"2020-09-03 19:36:00","SKBQ","SPECI","SPECI SKBQ 031936Z 32006KT 250V020 5000 1500NE -TSRA BKN010 FEW015CB 25/23 A2975 BECMG 5000 RA="
"2020-09-03 20:00:00","SKBQ","METAR","METAR SKBQ 032000Z 31006KT 270V020 9999 4000NE VCSH SCT015 FEW020CB 24/23 A2975 RETSRA BECMG 9999 NSW RMK VCSH CB/NE="
"2020-09-03 20:09:00","SKBQ","SPECI","SPECI SKBQ 032009Z VRB05KT 8000 VCSH SCT015 FEW020CB 25/23 A2974 NOSIG RMK VCSH CB/NE="
"2020-09-03 21:00:00","SKBQ","METAR","METAR SKBQ 032100Z VRB02KT 9999 SCT015 BKN200 26/24 A2973 NOSIG="
"2020-09-03 22:00:00","SKBQ","METAR","METAR SKBQ 032200Z 31003KT 9999 SCT015 BKN200 27/25 A2974 NOSIG="
"2020-09-03 23:00:00","SKBQ","METAR","METAR SKBQ 032300Z 33004KT 260V010 9999 FEW015 SCT200 27/25 A2975 NOSIG="
"2020-09-04 00:00:00","SKBQ","METAR","METAR SKBQ 040000Z 34003KT 9999 FEW015 SCT200 27/25 A2978 NOSIG="