"Fecha hora","Aeropuerto","Tipo Informe","Informe"
"2020-09-01 00:00:00","SKCL","METAR","METAR SKCL 010000Z 11007KT 080V140 8000 TS VCSH SCT030CB SCT070 22/17 A2998 TEMPO -TSRA RMK CB/VCSH S="
"2020-09-01 00:15:00","SKCL","SPECI","SPECI SKCL 010010Z 08006KT 020V110 8000 -TSRA SCT030CB BKN070 20/17 A2998 TEMPO FM0040 DZ SCT030 BKN070 RMK CB/S="
"2020-09-01 01:00:00","SKCL","METAR","METAR SKCL 010100Z 34006KT 8000 -TSRA SCT030CB SCT100 21/18 A2998 TEMPO FM0120 DZ SCT030 SCT100  RMK CB/NW="
"2020-09-01 01:20:00","SKCL","SPECI","SPECI SKCL 010120Z 13003KT 020V180 9999 SCT030 BKN120 20/20 A3001 RETSRA NOSIG="
"2020-09-01 02:00:00","SKCL","METAR","METAR SKCL 010200Z 14003KT 110V180 9999 SCT030 BKN120 20/19 A3001 RETSRA NOSIG="
"2020-09-01 03:00:00","SKCL","METAR","METAR SKCL 010300Z 14004KT 120V180 9999 FEW030 SCT120 BKN200 20/19 A3004 NOSIG="
"2020-09-01 04:00:00","SKCL","METAR","METAR SKCL 010400Z VRB02KT 9999 FEW020 SCT080 BKN200 19/18 A3005 NOSIG="
"2020-09-01 05:00:00","SKCL","METAR","METAR SKCL 010500Z 00000KT 9999 FEW030 SCT120 19/18 A3004 NOSIG="
"2020-09-01 06:00:00","SKCL","METAR","METAR SKCL 010600Z 05003KT 9999 FEW030 18/17 A3001 NOSIG="
"2020-09-01 07:00:00","SKCL","METAR","METAR SKCL 010700Z 00000KT 8000 VCFG FEW030 18/17 A3000 NOSIG="
"2020-09-01 08:00:00","SKCL","METAR","METAR SKCL 010800Z 07003KT 8000 VCFG FEW030 17/16 A2999 NOSIG="
"2020-09-01 09:00:00","SKCL","METAR","METAR SKCL 010900Z 00000KT 7000 VCFG FEW030 SCT080 18/17 A3000 NOSIG="
"2020-09-01 10:00:00","SKCL","METAR","METAR SKCL 011000Z VRB02KT 8000 -DZ SCT030 BKN070 19/18 A3002 NOSIG="
"2020-09-01 10:30:00","SKCL","SPECI","SPECI SKCL 011030Z VRB02KT 6000 - DZ SCT030 BKN070 19/18 A3003 BECMG FM1130 4000 BR="
"2020-09-01 11:00:00","SKCL","METAR","METAR SKCL 011100Z 00000KT 6000 VCFG BKN030 SCT070 19/18 A3004 REDZ BECMG FM1120 4000 BR="
"2020-09-01 12:00:00","SKCL","METAR","METAR SKCL 011200Z VRB02KT 5000 BR SCT020 SCT070 19/19 A3005 NOSIG="
"2020-09-01 13:00:00","SKCL","METAR","METAR SKCL 011300Z VRB04KT 6000 VCFG SCT020 22/21 A3008 NOSIG="
"2020-09-01 14:00:00","SKCL","METAR","METAR SKCL 011400Z VRB04KT 9999 SCT023 SCT100 23/20 A3008 NOSIG="
"2020-09-01 16:00:00","SKCL","METAR","METAR SKCL 011600Z VRB04KT 9999 FEW030 27/19 A3006 NOSIG="
"2020-09-01 17:00:00","SKCL","METAR","METAR SKCL 011700Z VRB10KT 9999 SCT030 29/19 A3003 NOSIG="
"2020-09-01 18:00:00","SKCL","METAR","METAR SKCL 011800Z VRB06KT 9999 SCT030 30/19 A2999 NOSIG="
"2020-09-01 19:00:00","SKCL","METAR","METAR SKCL 011900Z 34010KT 9999 SCT030 SCT300 30/18 A2993 NOSIG="
"2020-09-01 20:00:00","SKCL","METAR","METAR SKCL 012000Z 34016KT 9999 SCT030 SCT120 30/18 A2993 NOSIG="
"2020-09-01 21:00:00","SKCL","METAR","METAR SKCL 012100Z 30012KT 9999 SCT030CB SCT120 28/17 A2988 NOSIG RMK CB/E="
"2020-09-01 21:20:00","SKCL","SPECI","SPECI SKCL 012120Z 30012KT 9999 SCT020CB SCT100 27/18 A2990 BECMG FM2200 5000 TSRA RMK CB/E="
"2020-09-01 22:00:00","SKCL","METAR","METAR SKCL 012200Z 32006KT 9999 SCT020CB SCT100 27/17 A2988 RETSRA NOSIG RMK CB E/S="
"2020-09-01 23:00:00","SKCL","METAR","METAR SKCL 012300Z 18014KT 9999 SCT020CB SCT100 27/17 A2997 NOSIG RMK CB E/S="
"2020-09-02 00:00:00","SKCL","METAR","METAR SKCL 020000Z 14006KT 8000 -DZ BKN030 SCT070 20/18 A3001 NOSIG="
"2020-09-02 01:00:00","SKCL","METAR","METAR SKCL 020100Z 10005KT 9999 SCT030 BKN100 20/18 A3004 REDZ NOSIG="
"2020-09-02 02:00:00","SKCL","METAR","METAR SKCL 020200Z VRB03KT 9999 SCT030 BKN100 21/18 A3005 NOSIG="
"2020-09-02 03:00:00","SKCL","METAR","METAR SKCL 020300Z 25004KT 9999 FEW030 BKN120 20/18 A3007 NOSIG="
"2020-09-02 04:00:00","SKCL","METAR","METAR SKCL 020400Z VRB02KT 9999 FEW030 BKN120 20/18 A3006 NOSIG="
"2020-09-02 05:00:00","SKCL","METAR","METAR SKCL 020500Z VRB02KT 8000 VCFG FEW030 BKN120 19/18 A3007 NOSIG="
"2020-09-02 06:00:00","SKCL","METAR","METAR SKCL 020600Z VRB02KT 7000 VCFG FEW030 BKN120 19/18 A3006 NOSIG="
"2020-09-02 07:00:00","SKCL","METAR","METAR SKCL 020700Z 00000KT 6000 VCFG FEW030 BKN120 19/18 A3003 NOSIG="
"2020-09-02 08:00:00","SKCL","METAR","METAR SKCL 020800Z 00000KT 4000 BR FEW030 BKN120 18/17 A3001 NOSIG="
"2020-09-02 09:00:00","SKCL","METAR","METAR SKCL 020900Z 00000KT 4000 BR SCT020 BKN100 18/17 A3001 NOSIG="
"2020-09-02 10:00:00","SKCL","METAR","METAR SKCL 021000Z VRB02KT 4000 BR SCT020 BKN100 19/18 A3001 NOSIG="
"2020-09-02 10:30:00","SKCL","SPECI","SPECI SKCL 021030Z 08003KT 4000 BR BKN020 BKN100 19/18 A3003 NOSIG="
"2020-09-02 11:00:00","SKCL","METAR","METAR SKCL 021100Z VRB02KT 3000 BR OVC020 19/18 A3003 NOSIG="
"2020-09-02 12:00:00","SKCL","METAR","METAR SKCL 021200Z VRB02KT 3000 BR BKN012 SCT100 20/19 A3005 BECMG FM1330 5000 BR SCT015="
"2020-09-02 13:00:00","SKCL","METAR","METAR SKCL 021300Z 32005KT 3000 BR BKN010 SCT100 21/20 A3006 BECMG FM1400 5000 BR SCT015="
"2020-09-02 14:00:00","SKCL","METAR","METAR SKCL 021400Z 30003KT 4000 BR SCT010 BKN100 22/21 A3008 BECMG FM1500 5000 BR="
"2020-09-02 15:00:00","SKCL","METAR","METAR SKCL 021500Z VRB03KT 4000 HZ BKN013 SCT100 23/21 A3008 BECMG FM1600 5000 HZ SCT015 SCT100="
"2020-09-02 16:00:00","SKCL","METAR","METAR SKCL 021600Z VRB03KT 5000 HZ SCT015 BKN120 25/19 A3007 BECMG FM1700 8000 NSW="
"2020-09-02 17:00:00","SKCL","METAR","METAR SKCL 021700Z VRB03KT 7000 SCT015 BKN120 26/19 A3004 NOSIG RMK HZ="
"2020-09-02 18:00:00","SKCL","METAR","METAR SKCL 021800Z VRB03KT 8000 SCT015 BKN120 27/19 A3000 NOSIG RMK HZ="
"2020-09-02 19:00:00","SKCL","METAR","METAR SKCL 021900Z 08005KT 050V150 9000 SCT017 BKN120 27/19 A2996 NOSIG RMK HZ="
"2020-09-02 20:00:00","SKCL","METAR","METAR SKCL 022000Z 32015KT 290V360 9999 VCSH SCT017TCU BKN120 25/16 A2994 NOSIG RMK TCU/VCSH NW="
"2020-09-02 21:00:00","SKCL","METAR","METAR SKCL 022100Z 33010KT 9999 FEW023 BKN120 25/16 A2992 NOSIG="
"2020-09-02 22:00:00","SKCL","METAR","METAR SKCL 022200Z 36006KT 9999 VCSH FEW023TCU BKN120 25/17 A2992 NOSIG RMK TCU/VCSH NE="
"2020-09-02 23:00:00","SKCL","METAR","METAR SKCL 022300Z 02004KT 9999 FEW023 BKN120 23/18 A2992 NOSIG="
"2020-09-03 00:00:00","SKCL","METAR","METAR SKCL 030000Z 31006KT 9999 SCT023 BKN120 23/18 A2993 NOSIG="
"2020-09-03 01:00:00","SKCL","METAR","METAR SKCL 030100Z 08005KT 050V110 9999 FEW030 BKN150 21/19 A2997 NOSIG="
"2020-09-03 02:00:00","SKCL","METAR","METAR SKCL 030200Z 00000KT CAVOK 19/18 A2999 NOSIG="
"2020-09-03 03:00:00","SKCL","METAR","METAR SKCL 030300Z 30004KT 270V330 9999 FEW030 20/19 A3000 NOSIG="
"2020-09-03 04:00:00","SKCL","METAR","METAR SKCL 030400Z VRB02KT CAVOK 17/16 A3000 NOSIG="
"2020-09-03 05:00:00","SKCL","METAR","METAR SKCL 030500Z VRB02KT 9999 FEW030 17/16 A2999 NOSIG="
"2020-09-03 06:00:00","SKCL","METAR","METAR SKCL 030600 00000KT 9999 FEW030 SCT150 18/17 A2999 NOSIG="
"2020-09-03 07:00:00","SKCL","METAR","METAR SKCL 030700Z VRB02KT 9999 FEW030 SCT150 17/16 A2997 NOSIG="
"2020-09-03 08:00:00","SKCL","METAR","METAR SKCL 030800Z 05004KT 9999 FEW030 16/15 A2997 NOSIG="
"2020-09-03 09:00:00","SKCL","METAR","METAR SKCL 030900Z 00000KT 9999 FEW030 BKN100 17/16 A2998 NOSIG="
"2020-09-03 10:00:00","SKCL","METAR","METAR SKCL 031000Z VRB02KT 9999 FEW030 BKN100 17/16 A2998 NOSIG="
"2020-09-03 10:30:00","SKCL","SPECI","SPECI SKCL 031030Z VRB02KT 9999 FEW030 BKN100 16/15 A2999 NOSIG="
"2020-09-03 11:00:00","SKCL","METAR","METAR SKCL 031100Z VRB02KT 9999 FEW040 SCT150 16/15 A2999 NOSIG="
"2020-09-03 12:00:00","SKCL","METAR","METAR SKCL 031200Z VRB02KT 8000 MIFG FEW030 SCT300 17/16 A3000 NOSIG="
"2020-09-03 12:25:00","SKCL","SPECI","SPECI SKCL 031225Z 17004KT 2000 BR FEW005 SCT300 18/17 A3002 NOSIG="
"2020-09-03 13:00:00","SKCL","METAR","METAR SKCL 031300Z 10004KT 2000 BR FEW005 SCT150 20/18 A3003 NOSIG="
"2020-09-03 14:00:00","SKCL","METAR","METAR SKCL 031400Z 11003KT 5000 HZ FEW015 SCT120 23/19 A3004 NOSIG="
"2020-09-03 15:00:00","SKCL","METAR","METAR SKCL 031500Z VRB04KT 8000 FEW015 SCT120 25/18 A3003 NOSIG RMK HZ="
"2020-09-03 16:00:00","SKCL","METAR","METAR SKCL 031600Z VRB03KT 9000 FEW020 27/18 A2999 NOSIG RMK HZ="
"2020-09-03 17:00:00","SKCL","METAR","METAR SKCL 031700Z VRB04KT 9999 FEW020 SCT120 28/17 A2996 NOSIG="
"2020-09-03 18:00:00","SKCL","METAR","METAR SKCL 031800Z VRB03KT 9999 FEW025 31/16 A2991 NOSIG="
"2020-09-03 19:00:00","SKCL","METAR","METAR SKCL 031900Z VRB05KT 9999 FEW025 31/16 A2987 NOSIG="
"2020-09-03 20:00:00","SKCL","METAR","METAR SKCL 032000Z VRB05KT 9999 FEW025 32/16 A2982 NOSIG="
"2020-09-03 21:00:00","SKCL","METAR","METAR SKCL 032100Z 33010KT 9999 FEW025 32/18 A2979 NOSIG="
"2020-09-03 22:00:00","SKCL","METAR","METAR SKCL 032200Z 31014KT 9999 FEW025 30/19 A2979 NOSIG="
"2020-09-03 23:00:00","SKCL","METAR","METAR SKCL 032300Z 30008KT 9999 SCT025 28/19 A2983 NOSIG="
"2020-09-04 00:00:00","SKCL","METAR","METAR SKCL 040000Z 31007KT 9999 FEW030 SCT120 26/19 A2985 NOSIG="